[{"website":"https://www.magasins-u.com/magasin/hyperu-manosque","lon":43.81823,"lat":5.79946,"osm":{"type":"node","id":4413210221,"lat":43.81882,"lon":5.7985012,"branch":"Drive","brand":"Super U","brand:wikidata":"Q2529029","name":"U Drive","operator":"Système U","shop":"supermarket","osm_url":"https://www.openstreetmap.org/node/4413210221","osm_url_edit":"https://www.openstreetmap.org/edit?node=4413210221"},"osm_area":"https://www.openstreetmap.org/?mlat=43.81823&mlon=5.79946#map=19/43.81823/5.79946"},{"website":"https://www.magasins-u.com/magasin/uexpress-beaumesvenise","lon":44.12057,"lat":5.025677,"osm":{"type":"way","id":82219144,"nodes":[957207160,957213572,957192919,957198289,957216923,957216519,957207160],"brand":"U Express","brand:wikidata":"Q2529029","building":"yes","name":"U Express","shop":"supermarket","source":"cadastre-dgi-fr source : Direction Générale des Impôts - Cadastre. Mise à jour : 2010","osm_url":"https://www.openstreetmap.org/way/82219144","osm_url_edit":"https://www.openstreetmap.org/edit?way=82219144"},"osm_area":"https://www.openstreetmap.org/?mlat=44.12057&mlon=5.025677#map=19/44.12057/5.025677"},{"website":"https://www.magasins-u.com/magasin/superu-plabennec","lon":48.503265,"lat":-4.427174,"osm":{"type":"way","id":240399033,"nodes":[680570076,680570100,680570101,680570102,680570104,680570105,680570106,680570108,680570109,680570110,680570111,680570113,680570114,680570116,680570118,680570119,680570120,680570123,680570124,680570128,680570130,680570135,680570086,680570096,680570097,680570075,680570076],"brand":"Super U","brand:wikidata":"Q2529029","brand:wikipedia":"fr:Système U","building":"retail","name":"Super U","shop":"supermarket","osm_url":"https://www.openstreetmap.org/way/240399033","osm_url_edit":"https://www.openstreetmap.org/edit?way=240399033"},"osm_area":"https://www.openstreetmap.org/?mlat=48.503265&mlon=-4.427174#map=19/48.503265/-4.427174"},{"website":"https://www.magasins-u.com/magasin/superu-ifs","lon":49.149929,"lat":-0.35075,"osm_area":"https://www.openstreetmap.org/?mlat=49.149929&mlon=-0.35075#map=19/49.149929/-0.35075"},{"website":"https://www.magasins-u.com/magasin/superu-saintgeorgessurloire","lon":47.400452,"lat":-0.75716,"osm":{"type":"node","id":2111475981,"lat":47.4000936,"lon":-0.7563876,"brand":"Super U","shop":"supermarket","osm_url":"https://www.openstreetmap.org/node/2111475981","osm_url_edit":"https://www.openstreetmap.org/edit?node=2111475981"},"osm_area":"https://www.openstreetmap.org/?mlat=47.400452&mlon=-0.75716#map=19/47.400452/-0.75716"},{"website":"https://www.magasins-u.com/magasin/superu-chabanais","lon":45.88121,"lat":0.7375,"osm":{"type":"way","id":125510711,"nodes":[1393858317,1393858242,1393858331,1393858366,1393858386,1393858167,1393858149,1393858145,1393858137,1393858139,9949943419,9949943420,1393858120,1393858148,1393858141,1393858300,1393858317],"brand":"Super U","brand:wikidata":"Q2529029","brand:wikipedia":"fr:Système U","building":"retail","check_date:opening_hours":"2023-12-29","name":"Super U","opening_hours":"Mo-Sa 08:45-19:30; Su 09:00-12:00","operator":"Système U","phone":"+33 5 45 30 73 00","shop":"supermarket","source":"cadastre-dgi-fr source : Direction Générale des Impôts - Cadastre. Mise à jour : 2011","website":"https://www.magasins-u.com/superu-chabanais","osm_url":"https://www.openstreetmap.org/way/125510711","osm_url_edit":"https://www.openstreetmap.org/edit?way=125510711"},"osm_area":"https://www.openstreetmap.org/?mlat=45.88121&mlon=0.7375#map=19/45.88121/0.7375"},{"website":"https://www.magasins-u.com/magasin/superu-guebwiller","lon":47.902149,"lat":7.21561,"osm":{"type":"way","id":239311367,"nodes":[2471095694,2471095692,2471095693,2471095690,2471095689,2471124197,2471095686,2471095684,2471095681,2471095672,2471095671,2471095668,2471095669,2471095667,2471095666,2471095665,2471095663,2471095661,2471095664,2471095662,2471095657,2471095659,2471095655,2471095656,2471095660,2471095670,2471095673,2471095675,2471095680,2471095691,2471095694],"brand":"Super U","brand:wikidata":"Q2529029","brand:wikipedia":"en:Système U","building":"retail","name":"Super U","operator":"Système U","shop":"supermarket","source":"extraction vectorielle v1 cadastre-dgi-fr source : Direction Générale des Impôts - Cadas. Mise à jour : 2010","toilets:wheelchair":"yes","wheelchair":"yes","osm_url":"https://www.openstreetmap.org/way/239311367","osm_url_edit":"https://www.openstreetmap.org/edit?way=239311367"},"osm_area":"https://www.openstreetmap.org/?mlat=47.902149&mlon=7.21561#map=19/47.902149/7.21561"},{"website":"https://www.magasins-u.com/magasin/superu-antibes","lon":43.573891,"lat":7.090418,"osm":{"type":"node","id":1234251397,"lat":43.5732679,"lon":7.0899598,"brand":"Super U","brand:wikidata":"Q2529029","brand:wikipedia":"en:Système U","name":"Super U","opening_hours":"08:00-20:00","operator":"E. Leclerc","shop":"supermarket","osm_url":"https://www.openstreetmap.org/node/1234251397","osm_url_edit":"https://www.openstreetmap.org/edit?node=1234251397"},"osm_area":"https://www.openstreetmap.org/?mlat=43.573891&mlon=7.090418#map=19/43.573891/7.090418"},{"website":"https://www.magasins-u.com/magasin/superu-saintlangislesmortagne","lon":48.527351,"lat":0.5313,"osm_area":"https://www.openstreetmap.org/?mlat=48.527351&mlon=0.5313#map=19/48.527351/0.5313"},{"website":"https://www.magasins-u.com/magasin/superu-chateauneufsurcharente","lon":45.589206,"lat":-0.047647,"osm":{"type":"way","id":122903237,"nodes":[1371880976,1371885658,1371868844,1371875322,1371874599,1371880720,1371898334,1371868626,1371887583,1371893530,1371878280,1371883170,1371882911,1371887352,1371870884,1371877575,1371895803,1371900868,1371885410,1371891189,1371868564,1371874373,1371893464,1371898273,1371883106,1371887506,1371871049,1371878086,1371877369,1371882849,1371900767,1371870822,1371891043,1371895739,1371880605,1371885324,1371885104,1371890742,1371866511,1371896346,1371878902,1371871359,1371888153,1371883504,1371898552,1371896121,1371873643,1371880329,1371880976],"addr:city":"Chateauneuf sur Charente","addr:housenumber":"21","addr:postcode":"16120","addr:street":"Zone d'Activités de l'Etang","brand":"Super U","brand:wikidata":"Q2529029","brand:wikipedia":"fr:Système U","building":"retail","bulk_purchase":"yes","contact:facebook":"https://www.facebook.com/SUPERU.CHATEAUNEUF16","contact:instagram":"https://www.instagram.com/superu.chateauneufsurcharente/","description":"Bénéficiez d'une station-service, d'une service Drive et de locations diverses (voitures, camionnettes, équipements de fête) , bornes de recharges, table de pique-nique ainsi qu'un parking couvert et accessible.","landuse":"retail","name":"SUPER U et DRIVE Châteauneuf-sur-Charente","opening_hours":"Mo-Sa 08:30-19:30","operator":"CHATEAUDIS","payment:american_express":"yes","payment:apple_pay":"yes","payment:cards":"yes","payment:cash":"yes","payment:cheque":"yes","payment:coins":"yes","payment:contactless":"yes","payment:credit_cards":"yes","payment:debit_cards":"yes","payment:google_pay":"yes","payment:mastercard":"yes","payment:notes":"yes","payment:visa":"yes","phone":"+33 5 45 66 24 28","shop":"supermarket","source":"cadastre-dgi-fr source : Direction Générale des Impôts - Cadastre. Mise à jour : 2011","surface":"asphalt","website":"https://www.magasins-u.com/magasin/superu-chateauneufsurcharente.m35258","wheelchair":"yes","osm_url":"https://www.openstreetmap.org/way/122903237","osm_url_edit":"https://www.openstreetmap.org/edit?way=122903237"},"osm_area":"https://www.openstreetmap.org/?mlat=45.589206&mlon=-0.047647#map=19/45.589206/-0.047647"},{"website":"https://www.magasins-u.com/magasin/uexpress-reimscourcelles","lon":49.261623,"lat":4.019467,"osm":{"type":"way","id":649269719,"nodes":[1053352772,6093663786,1053352743,1053352844,1053352810,6093663789,6093663790,6096690100,6096690097,6093812299,1053352752,5873152499,1053352847,1053352813,5873822399,5873108647,1053352772],"addr:housenumber":"108","branch":"Reims Courcelles","brand":"U Express","brand:wikidata":"Q2529029","brand:wikipedia":"fr:Système U","building:levels":"1","building:part":"retail","contact:website":"https://www.magasins-u.com/magasin/uexpress-reimscourcelles","level":"0","name":"U Express","opening_hours":"Mo-Sa 09:00-20:00; Su 09:00-13:00","opening_hours:covid19":"Mo-Sa 10:00-19:30; Su 09:00-13:00","phone":"+33326882404","shop":"supermarket","website":"https://www.magasins-u.com/magasin/uexpress-reimscourcelles","osm_url":"https://www.openstreetmap.org/way/649269719","osm_url_edit":"https://www.openstreetmap.org/edit?way=649269719"},"osm_area":"https://www.openstreetmap.org/?mlat=49.261623&mlon=4.019467#map=19/49.261623/4.019467"},{"website":"https://www.magasins-u.com/magasin/superu-chenove","lon":47.286074,"lat":5.009956,"osm":{"type":"node","id":2621399829,"lat":47.2868493,"lon":5.0098376,"brand":"Super U","brand:wikidata":"Q2529029","brand:wikipedia":"en:Système U","contact:website":"https://www.magasins-u.com/magasin/superu-chenove","name":"Super U","opening_hours":"Mo-Sa 08:30-19:30","shop":"supermarket","website":"https://www.magasins-u.com/magasin/superu-chenove","osm_url":"https://www.openstreetmap.org/node/2621399829","osm_url_edit":"https://www.openstreetmap.org/edit?node=2621399829"},"osm_area":"https://www.openstreetmap.org/?mlat=47.286074&mlon=5.009956#map=19/47.286074/5.009956"},{"website":"https://www.magasins-u.com/magasin/uexpress-chauvigny","lon":46.568821,"lat":0.63489,"osm":{"type":"way","id":63428016,"nodes":[786044551,786046423,786044345,786043751,786042912,786047684,786041751,786044675,786043174,786042676,786045834,786050432,786035381,786049689,786051207,786044725,786053067,786040539,786053256,786044595,786049922,786052693,786044287,786038903,786053274,786038651,786052909,786052479,786044551],"addr:city":"Chauvigny","addr:housename":"Super U","addr:housenumber":"2","addr:postcode":"86300","addr:street":"Rue de la Verrerie","brand":"Super U","brand:wikidata":"Q2529029","brand:wikipedia":"en:Système U","building":"retail","name":"Super U","operator":"Super U","shop":"supermarket","source":"cadastre-dgi-fr source : Direction Générale des Impôts - Cadastre. Mise à jour : 2010","website":"http://www.superu-chauvigny.com/","osm_url":"https://www.openstreetmap.org/way/63428016","osm_url_edit":"https://www.openstreetmap.org/edit?way=63428016"},"osm_area":"https://www.openstreetmap.org/?mlat=46.568821&mlon=0.63489#map=19/46.568821/0.63489"},{"website":"https://www.magasins-u.com/magasin/superu-baumelesdames","lon":47.346001,"lat":6.361099,"osm":{"type":"way","id":65758825,"nodes":[801027897,801017468,801078386,801014838,801022778,800987723,801094898,3925624300,801182487,801001854,3036432190,3036432191,3036432187,801030013,3036432186,801120209,3036432182,801156244,801110832,801153752,801102855,801108774,383697997,801020279,801009538,800987456,801027989,801031092,6422915670,6422915669,6423590909,801092335,6423590908,801016320,2194632564,2194632565,801155793,801027597,3121720387,3121720388,801159428,801011271,801176262,801001283,801181923,801090760,383698037,801034593,801027897],"addr:housenumber":"12","brand":"Super U","brand:wikidata":"Q2529029","brand:wikipedia":"fr:Système U","building":"retail","drive_through":"yes","name":"Super U","opening_hours":"Mo-Sa 08:30-19:30; Fr 08:30-20:00","operator":"Système U","phone":"+33 3 81 84 49 20","shop":"supermarket","source":"cadastre-dgi-fr source : Direction Générale des Impôts - Cadastre. Mise à jour : 2010","website":"http://www.superu-baumelesdames.com","wheelchair":"yes","osm_url":"https://www.openstreetmap.org/way/65758825","osm_url_edit":"https://www.openstreetmap.org/edit?way=65758825"},"osm_area":"https://www.openstreetmap.org/?mlat=47.346001&mlon=6.361099#map=19/47.346001/6.361099"},{"website":"https://www.magasins-u.com/magasin/hyperu-blainvillesurorne","lon":49.232125,"lat":-0.293419,"osm_area":"https://www.openstreetmap.org/?mlat=49.232125&mlon=-0.293419#map=19/49.232125/-0.293419"},{"website":"https://www.magasins-u.com/magasin/superu-guipavas","lon":48.43774,"lat":-4.40953,"osm_area":"https://www.openstreetmap.org/?mlat=48.43774&mlon=-4.40953#map=19/48.43774/-4.40953"},{"website":"https://www.magasins-u.com/magasin/uexpress-courthezon","lon":44.087521,"lat":4.87859,"osm":{"type":"way","id":76244850,"nodes":[899384337,899394803,899381905,899363397,899318886,899354797,1746877943,899348431,899384337],"addr:city":"Courthézon","addr:street":"Route de Châteauneuf-du-Pape","brand":"U Express","brand:wikidata":"Q2529029","brand:wikipedia":"en:Système U","building":"retail","building:levels":"1","name":"U Express","opening_hours":"Mo-Sa 08:30-20:00, Su 09:00-12:30","operator":"Système U","payment:cash":"yes","payment:credit_cards":"yes","payment:meal_voucher":"yes","payment:visa":"yes","postal_code":"84350","roof:shape":"flat","shop":"supermarket","source":"cadastre-dgi-fr source : Direction Générale des Impôts - Cadastre. Mise à jour : 2010","supermarket":"yes","supermarket:FR":"supermarché","osm_url":"https://www.openstreetmap.org/way/76244850","osm_url_edit":"https://www.openstreetmap.org/edit?way=76244850"},"osm_area":"https://www.openstreetmap.org/?mlat=44.087521&mlon=4.87859#map=19/44.087521/4.87859"},{"website":"https://www.magasins-u.com/magasin/superu-salbris","lon":47.42897,"lat":2.06004,"osm":{"type":"way","id":205188875,"nodes":[2151679122,2186319083,2151679146,2151679152,2151679169,2151679166,2151679171,2151679163,2151679147,2151679141,2151679138,2151679135,2151679119,2151679067,2151679081,10793780144,2151679077,2151679097,10793780145,2151679099,10613034295,2151679106,2151679130,2151679122],"addr:street":"Avenue de la Résistance","brand":"Super U","brand:wikidata":"Q2529029","brand:wikipedia":"fr:Système U","building":"retail","building:levels":"2","contact:website":"https://www.magasins-u.com/magasin/superu-salbris","name":"Super U","operator":"Système U","phone":"+33 2 54972450","roof:shape":"flat","shop":"supermarket","source":"cadastre-dgi-fr source : Direction Générale des Impôts - Cadastre. Mise à jour : 2013","website":"https://www.magasins-u.com/magasin/superu-salbris","osm_url":"https://www.openstreetmap.org/way/205188875","osm_url_edit":"https://www.openstreetmap.org/edit?way=205188875"},"osm_area":"https://www.openstreetmap.org/?mlat=47.42897&mlon=2.06004#map=19/47.42897/2.06004"},{"website":"https://www.magasins-u.com/magasin/uexpress-saintmedarddemussidan","lon":45.041161,"lat":0.35122,"osm":{"type":"node","id":6058711074,"lat":45.0416187,"lon":0.3507356,"brand":"U Express","brand:wikidata":"Q2529029","brand:wikipedia":"fr:Système U","name":"U Express","operator":"Super U","shop":"supermarket","osm_url":"https://www.openstreetmap.org/node/6058711074","osm_url_edit":"https://www.openstreetmap.org/edit?node=6058711074"},"osm_area":"https://www.openstreetmap.org/?mlat=45.041161&mlon=0.35122#map=19/45.041161/0.35122"},{"website":"https://www.magasins-u.com/magasin/superu-saintseurinsurlisle","lon":45.015881,"lat":-0.0141,"osm":{"type":"way","id":221387497,"nodes":[2304115455,2304115456,2304115457,2304115471,2304115458,2304115459,2304115460,2304115461,2304115462,2304115463,2304115464,2304115465,2304115466,2304115467,2304115468,2304115455],"brand":"Super U","brand:wikidata":"Q2529029","brand:wikipedia":"fr:Système U","building":"retail","name":"Super U","operator":"Système U","shop":"supermarket","website":"https://www.magasins-u.com/magasin/superu-saintseurinsurlisle.m96977","osm_url":"https://www.openstreetmap.org/way/221387497","osm_url_edit":"https://www.openstreetmap.org/edit?way=221387497"},"osm_area":"https://www.openstreetmap.org/?mlat=45.015881&mlon=-0.0141#map=19/45.015881/-0.0141"},{"website":"https://www.magasins-u.com/magasin/superu-passy","lon":45.919231,"lat":6.70447,"osm":{"type":"way","id":49303151,"nodes":[626127929,626127932,3666264451,3666264450,3666264447,626127935,626127937,626127938,817479430,3666264448,626127939,626127945,5941435304,626127929],"brand":"Super U","brand:wikidata":"Q2529029","brand:wikipedia":"fr:Système U","building":"retail","name":"Super U","operator":"Système U","shop":"supermarket","source":"cadastre-dgi-fr source : Direction Générale des Impôts - Cadastre. Mise à jour : 2015","osm_url":"https://www.openstreetmap.org/way/49303151","osm_url_edit":"https://www.openstreetmap.org/edit?way=49303151"},"osm_area":"https://www.openstreetmap.org/?mlat=45.919231&mlon=6.70447#map=19/45.919231/6.70447"},{"website":"https://www.magasins-u.com/magasin/superu-buxerolles","lon":46.589615,"lat":0.369113,"osm":{"type":"way","id":62524981,"nodes":[780178630,2378186346,2378186345,780209964,6696000018,780147601,780300913,6696016262,6927485006,780144835,780156315,780260639,6696001508,780175030,780234625,780191263,780153540,780162304,780178630],"addr:city":"Buxerolles","addr:housenumber":"10","addr:postcode":"86180","addr:street":"Rue de la Charletterie","brand":"Super U","brand:wikidata":"Q2529029","brand:wikipedia":"en:Système U","building":"retail","name":"Super U","opening_hours":"Mo-Sa 08:30-19:30; Su 09:00-12:30","operator":"Coop Atlantique","payment:contactless":"yes","payment:credit_cards":"yes","payment:notes":"yes","phone":"+33549441197","shop":"supermarket","source":"cadastre-dgi-fr source : Direction Générale des Impôts - Cadastre. Mise à jour : 2010","source:addr":"https://www.coursesu.com/f-superu-buxerolles-informations","stroller":"yes","wheelchair":"yes","osm_url":"https://www.openstreetmap.org/way/62524981","osm_url_edit":"https://www.openstreetmap.org/edit?way=62524981"},"osm_area":"https://www.openstreetmap.org/?mlat=46.589615&mlon=0.369113#map=19/46.589615/0.369113"},{"website":"https://www.magasins-u.com/magasin/superu-pouilly","lon":47.271011,"lat":4.54132,"osm":{"type":"way","id":41111969,"nodes":[501598855,501598856,6403861225,9014966524,501598857,501598859,501598861,501598862,9014966521,501598863,501598864,501598865,501598866,501598855],"addr:city":"Pouilly-en-Auxois","addr:postcode":"21320","addr:street":"Rue du Sergent Stéphane Mazeau","brand":"Super U","brand:wikidata":"Q2529029","brand:wikipedia":"fr:Système U","building":"commercial","building:levels":"1","contact:website":"https://www.magasins-u.com/magasin/superu-pouilly","name":"Super U","opening_hours":"Mo-Sa 08:30-19:30","roof:levels":"0","roof:shape":"flat","shop":"supermarket","source":"cadastre-dgi-fr source : Direction Générale des Impôts - Cadastre. Mise à jour : 2009","wheelchair":"yes","website":"https://www.magasins-u.com/magasin/superu-pouilly","osm_url":"https://www.openstreetmap.org/way/41111969","osm_url_edit":"https://www.openstreetmap.org/edit?way=41111969"},"osm_area":"https://www.openstreetmap.org/?mlat=47.271011&mlon=4.54132#map=19/47.271011/4.54132"},{"website":"https://www.magasins-u.com/magasin/superu-audincourt","lon":47.475121,"lat":6.846663,"osm_area":"https://www.openstreetmap.org/?mlat=47.475121&mlon=6.846663#map=19/47.475121/6.846663"},{"website":"https://www.magasins-u.com/magasin/superu-saintsorlinenvalloire","lon":45.290581,"lat":4.95367,"osm":{"type":"way","id":217517743,"nodes":[2267989926,4820464569,4820470661,2267990026,2267990022,2267990027,2267990028,2267990021,2267990012,2267990017,4820464570,4820466802,2267989926],"brand":"Super U","brand:wikidata":"Q2529029","brand:wikipedia":"fr:Système U","building":"retail","name":"Super U","operator":"Système U","shop":"supermarket","source":"cadastre-dgi-fr source : Direction Générale des Finances Publiques - Cadastre. Mise à jour : 2017","osm_url":"https://www.openstreetmap.org/way/217517743","osm_url_edit":"https://www.openstreetmap.org/edit?way=217517743"},"osm_area":"https://www.openstreetmap.org/?mlat=45.290581&mlon=4.95367#map=19/45.290581/4.95367"},{"website":"https://www.magasins-u.com/magasin/uexpress-matha","lon":45.876049,"lat":-0.30911,"osm":{"type":"way","id":122167550,"nodes":[1365922599,1365922857,1365922690,1365922656,1365922632,1365922449,1365922599],"brand":"U Express","brand:wikidata":"Q2529029","brand:wikipedia":"fr:Système U","building":"retail","name":"U Express","shop":"supermarket","source":"cadastre-dgi-fr source : Direction Générale des Impôts - Cadastre. Mise à jour : 2011","supermarket":"yes","supermarket:FR":"supermarché","osm_url":"https://www.openstreetmap.org/way/122167550","osm_url_edit":"https://www.openstreetmap.org/edit?way=122167550"},"osm_area":"https://www.openstreetmap.org/?mlat=45.876049&mlon=-0.30911#map=19/45.876049/-0.30911"},{"website":"https://www.magasins-u.com/magasin/uexpress-noves","lon":43.877399,"lat":4.90371,"osm":{"type":"node","id":6653254486,"lat":43.8776486,"lon":4.9038703,"addr:city":"Noves","addr:postcode":"13550","addr:street":"Place Jules Ferry","brand":"U Express","brand:wikidata":"Q2529029","brand:wikipedia":"en:Système U","name":"U Express","opening_hours":"mo-sa 08:30-20:00","payment:cash":"yes","payment:visa":"yes","phone":"+33 4 32 61 06 91","shop":"supermarket","source":"survey","website":"https://www.magasins-u.com/csd/Satellite?c=Store&cid=1388144251888&d=Touch&pagename=portailu%2FWrapper%2FAuthentication#xtor=CS2-21-[uex]-[]-[]-[]","osm_url":"https://www.openstreetmap.org/node/6653254486","osm_url_edit":"https://www.openstreetmap.org/edit?node=6653254486"},"osm_area":"https://www.openstreetmap.org/?mlat=43.877399&mlon=4.90371#map=19/43.877399/4.90371"},{"website":"https://www.magasins-u.com/magasin/superu-saintmartindecrau","lon":43.639462,"lat":4.79792,"osm_area":"https://www.openstreetmap.org/?mlat=43.639462&mlon=4.79792#map=19/43.639462/4.79792"},{"website":"https://www.magasins-u.com/magasin/uexpress-noirmoutier","lon":47.000469,"lat":-2.24787,"osm":{"type":"node","id":1594848205,"lat":47.0004144,"lon":-2.2481519,"addr:housenumber":"3","addr:postcode":"85330","addr:street":"Rue de la Prée aux Ducs","brand":"U Express","brand:wikidata":"Q2529029","brand:wikipedia":"en:Système U","contact:website":"https://www.magasins-u.com/magasin/uexpress-noirmoutier","name":"U Express","operator":"Système U","shop":"supermarket","supermarket":"mini_market","website":"https://www.magasins-u.com/magasin/uexpress-noirmoutier","osm_url":"https://www.openstreetmap.org/node/1594848205","osm_url_edit":"https://www.openstreetmap.org/edit?node=1594848205"},"osm_area":"https://www.openstreetmap.org/?mlat=47.000469&mlon=-2.24787#map=19/47.000469/-2.24787"},{"website":"https://www.magasins-u.com/magasin/superu-couillypontauxdames","lon":48.87257,"lat":2.87178,"osm_area":"https://www.openstreetmap.org/?mlat=48.87257&mlon=2.87178#map=19/48.87257/2.87178"},{"website":"https://www.magasins-u.com/magasin/superu-ancenis","lon":47.372028,"lat":-1.18354,"osm":{"type":"node","id":3430231986,"lat":47.372176,"lon":-1.1835457,"addr:housename":"Super U","brand":"Super U","brand:wikidata":"Q2529029","brand:wikipedia":"en:Système U","name":"Super U","opening_hours":"Mo-Sa 09:00-19:00","operator":"Super U","phone":"+33 2 40 96 22 97","ref:FR:SIRET":"38537604100021","shop":"supermarket","website":"https://www.magasins-u.com/magasin/superu-ancenis.m35415","osm_url":"https://www.openstreetmap.org/node/3430231986","osm_url_edit":"https://www.openstreetmap.org/edit?node=3430231986"},"osm_area":"https://www.openstreetmap.org/?mlat=47.372028&mlon=-1.18354#map=19/47.372028/-1.18354"},{"website":"https://www.magasins-u.com/magasin/superu-trebes","lon":43.20332,"lat":2.44184,"osm":{"type":"way","id":156431315,"nodes":[1686843969,1686843783,1686844066,1686844077,1686844857,1686844884,1686844953,1686845205,1686844151,1686844053,1686843969],"brand":"Super U","brand:wikidata":"Q2529029","brand:wikipedia":"fr:Système U","building":"retail","name":"Super U","operator":"Système U","shop":"supermarket","source":"cadastre-dgi-fr source : Direction Générale des Impôts - Cadastre. Mise à jour : 2012","osm_url":"https://www.openstreetmap.org/way/156431315","osm_url_edit":"https://www.openstreetmap.org/edit?way=156431315"},"osm_area":"https://www.openstreetmap.org/?mlat=43.20332&mlon=2.44184#map=19/43.20332/2.44184"},{"website":"https://www.magasins-u.com/magasin/uexpress-rognonas","lon":43.903047,"lat":4.803553,"osm_area":"https://www.openstreetmap.org/?mlat=43.903047&mlon=4.803553#map=19/43.903047/4.803553"},{"website":"https://www.magasins-u.com/magasin/superu-magland","lon":46.03817,"lat":6.61271,"osm_area":"https://www.openstreetmap.org/?mlat=46.03817&mlon=6.61271#map=19/46.03817/6.61271"},{"website":"https://www.magasins-u.com/magasin/superu-caen","lon":49.18317,"lat":-0.400318,"osm":{"type":"way","id":155629638,"nodes":[1679547493,1679542070,1679539223,1679539426,3571841395,1679530415,1679530331,1679521766,3571841383,1679521361,1679521301,1679515259,1679520844,1679521179,9759123850,1679515905,1679541494,1679544778,1679544944,1679545663,1679546772,1679546787,1679545851,1679547493],"addr:city":"Caen","addr:housenumber":"7","addr:postcode":"14000","brand":"Super U","brand:wikidata":"Q2529029","brand:wikipedia":"en:Système U","building":"retail","contact:website":"https://www.magasins-u.com/magasin/superu-caen","name":"Super U","opening_hours":"Mo-Sa 08:30-20:00; Su 09:00-12:45","operator":"Système U","shop":"supermarket","source":"cadastre-dgi-fr source : Direction Générale des Impôts - Cadastre. Mise à jour : 2012","wheelchair":"yes","website":"https://www.magasins-u.com/magasin/superu-caen","osm_url":"https://www.openstreetmap.org/way/155629638","osm_url_edit":"https://www.openstreetmap.org/edit?way=155629638"},"osm_area":"https://www.openstreetmap.org/?mlat=49.18317&mlon=-0.400318#map=19/49.18317/-0.400318"},{"website":"https://www.magasins-u.com/magasin/superu-segre","lon":47.696678,"lat":-0.87205,"osm":{"type":"way","id":536856233,"nodes":[5199737579,5199737578,5199737577,5199737576,5199737575,5199737574,5199737573,5199737572,5199737571,5199737570,5199737569,5199737568,5199737567,5199737584,5199737586,5199737580,5199737566,5199737565,5199737564,5199737563,5199737562,5199737561,5199737560,5199737559,5199737558,5199737557,5199737556,5199737555,5199737554,5199737579],"brand":"Super U","brand:wikidata":"Q2529029","brand:wikipedia":"fr:Système U","building":"retail","name":"Super U","opening_hours":"Mo-Sa 09:00-19:30","shop":"supermarket","source":"cadastre-dgi-fr source : Direction Générale des Finances Publiques - Cadastre. Mise à jour : 2017","website":"https://www.magasins-u.com/magasin/superu-segre","osm_url":"https://www.openstreetmap.org/way/536856233","osm_url_edit":"https://www.openstreetmap.org/edit?way=536856233"},"osm_area":"https://www.openstreetmap.org/?mlat=47.696678&mlon=-0.87205#map=19/47.696678/-0.87205"},{"website":"https://www.magasins-u.com/magasin/uexpress-argentre","lon":48.085522,"lat":-0.64349,"osm":{"type":"way","id":277605588,"nodes":[2820904284,2820904170,2820904156,2820904198,2820895915,2820904284],"addr:city":"Argentré","addr:postcode":"53210","addr:street":"Chemin du Verger","brand":"U Express","brand:wikidata":"Q2529029","brand:wikipedia":"en:Système U","building":"retail","name":"U Express","shop":"supermarket","source":"cadastre-dgi-fr source : Direction Générale des Finances Publiques - Cadastre. Mise à jour : 2014","supermarket":"yes","supermarket:FR":"supermarché","osm_url":"https://www.openstreetmap.org/way/277605588","osm_url_edit":"https://www.openstreetmap.org/edit?way=277605588"},"osm_area":"https://www.openstreetmap.org/?mlat=48.085522&mlon=-0.64349#map=19/48.085522/-0.64349"},{"website":"https://www.magasins-u.com/magasin/superu-wittenheim","lon":47.80254,"lat":7.33702,"osm":{"type":"node","id":4230921428,"lat":47.8023679,"lon":7.3364232,"brand":"Super U","brand:wikidata":"Q2529029","brand:wikipedia":"fr:Système U","name":"Super U","shop":"supermarket","osm_url":"https://www.openstreetmap.org/node/4230921428","osm_url_edit":"https://www.openstreetmap.org/edit?node=4230921428"},"osm_area":"https://www.openstreetmap.org/?mlat=47.80254&mlon=7.33702#map=19/47.80254/7.33702"},{"website":"https://www.magasins-u.com/magasin/superu-vivonne","lon":46.431095,"lat":0.263824,"osm_area":"https://www.openstreetmap.org/?mlat=46.431095&mlon=0.263824#map=19/46.431095/0.263824"},{"website":"https://www.magasins-u.com/magasin/uexpress-saintcannat","lon":43.618469,"lat":5.30695,"osm":{"type":"way","id":795753313,"nodes":[7442986393,7442986394,7442986395,7442986396,7442986397,7442986398,7442986399,7442986400,7442986401,7442986402,7442986393],"brand":"U Express","brand:wikidata":"Q2529029","brand:wikipedia":"en:Système U","building":"retail","contact:website":"https://www.magasins-u.com/magasin/uexpress-saintcannat","name":"U Express","shop":"supermarket","supermarket":"yes","supermarket:FR":"supermarché","website":"https://www.magasins-u.com/magasin/uexpress-saintcannat","osm_url":"https://www.openstreetmap.org/way/795753313","osm_url_edit":"https://www.openstreetmap.org/edit?way=795753313"},"osm_area":"https://www.openstreetmap.org/?mlat=43.618469&mlon=5.30695#map=19/43.618469/5.30695"},{"website":"https://www.magasins-u.com/magasin/superu-calvi","lon":42.560871,"lat":8.75558,"osm":{"type":"way","id":244735672,"nodes":[2520166138,2520166314,2520166266,2520166195,2520166048,2520166000,2520165749,2520165560,2520163201,2520163776,2520164445,2520164454,2520166268,2520166138],"brand":"Super U","brand:wikidata":"Q2529029","brand:wikipedia":"fr:Système U","building":"retail","contact:website":"https://www.magasins-u.com/magasin/superu-calvi","name":"Super U","opening_hours":"Mo-Sa 08:30-19:30; Su 08:30-12:30","shop":"supermarket","source":"cadastre-dgi-fr source : Direction Générale des Finances Publiques - Cadastre. Mise à jour : 2013","website":"https://www.magasins-u.com/magasin/superu-calvi","osm_url":"https://www.openstreetmap.org/way/244735672","osm_url_edit":"https://www.openstreetmap.org/edit?way=244735672"},"osm_area":"https://www.openstreetmap.org/?mlat=42.560871&mlon=8.75558#map=19/42.560871/8.75558"},{"website":"https://www.magasins-u.com/magasin/superu-saintrogatien","lon":46.14975,"lat":-1.07658,"osm":{"type":"way","id":696399757,"nodes":[5775925635,10803780216,10803780215,10803780217,6539772421,6539772422,10803780218,10803780219,6539772423,6539772424,6539772425,6539772426,6539772427,10803780214,5775925635],"brand":"U Express","brand:wikidata":"Q2529029","brand:wikipedia":"fr:Système U","building":"yes","name":"U Express","shop":"supermarket","osm_url":"https://www.openstreetmap.org/way/696399757","osm_url_edit":"https://www.openstreetmap.org/edit?way=696399757"},"osm_area":"https://www.openstreetmap.org/?mlat=46.14975&mlon=-1.07658#map=19/46.14975/-1.07658"},{"website":"https://www.magasins-u.com/magasin/superu-saintgillesleshauts","lon":-21.050816,"lat":55.270969,"osm_area":"https://www.openstreetmap.org/?mlat=-21.050816&mlon=55.270969#map=19/-21.050816/55.270969"},{"website":"https://www.magasins-u.com/magasin/uexpress-nicesaintemarguerite","lon":43.678257,"lat":7.219891,"osm":{"type":"way","id":143820164,"nodes":[1573801480,1573800846,1573800808,1573800729,1573801040,1573801094,1573801305,1573801480],"addr:city":"Nice","addr:housenumber":"57","addr:street":"Avenue Sainte-Marguerite","brand":"U Express","brand:wikidata":"Q2529029","brand:wikipedia":"en:Système U","building":"retail","height":"6","name":"U Express","opening_hours":"Mo-Sa 08:00-20:00; Su 08:30-13:00","operator":"Système U","phone":"04 93 83 09 97","shop":"supermarket","source":"cadastre-dgi-fr source : Direction Générale des Impôts - Cadastre. Mise à jour : 2011","supermarket":"yes","supermarket:FR":"supermarché","website":"https://www.magasins-u.com/magasin/uexpress-nice","osm_url":"https://www.openstreetmap.org/way/143820164","osm_url_edit":"https://www.openstreetmap.org/edit?way=143820164"},"osm_area":"https://www.openstreetmap.org/?mlat=43.678257&mlon=7.219891#map=19/43.678257/7.219891"},{"website":"https://www.magasins-u.com/magasin/uexpress-bordeauxcapucins","lon":44.830269,"lat":-0.56702,"osm":{"type":"node","id":560726069,"lat":44.8301864,"lon":-0.5668721,"brand":"U Express","brand:wikidata":"Q2529029","brand:wikipedia":"en:Système U","contact:website":"https://www.magasins-u.com/magasin/uexpress-bordeaux","name":"U Express","operator":"Système U","shop":"supermarket","wheelchair":"yes","website":"https://www.magasins-u.com/magasin/uexpress-bordeaux","osm_url":"https://www.openstreetmap.org/node/560726069","osm_url_edit":"https://www.openstreetmap.org/edit?node=560726069"},"osm_area":"https://www.openstreetmap.org/?mlat=44.830269&mlon=-0.56702#map=19/44.830269/-0.56702"},{"website":"https://www.magasins-u.com/magasin/superu-gergy","lon":46.862442,"lat":4.949889,"osm_area":"https://www.openstreetmap.org/?mlat=46.862442&mlon=4.949889#map=19/46.862442/4.949889"},{"website":"https://www.magasins-u.com/magasin/superu-devecey","lon":47.326778,"lat":6.0154,"osm":{"type":"way","id":87022475,"nodes":[1012262748,1012257163,1012266163,672281810,672281791,1012263944,672281734,1012265585,672281964,1012265204,672281762,672281744,439563236,1012256582,1012258275,1012262921,1012264712,1012266142,1012265962,1012258465,1012262748],"brand":"Super U","brand:wikidata":"Q2529029","brand:wikipedia":"fr:Système U","building":"store","name":"Super U","operator":"Système U","shop":"supermarket","source":"cadastre-dgi-fr source : Direction Générale des Impôts - Cadastre. Mise à jour : 2010","osm_url":"https://www.openstreetmap.org/way/87022475","osm_url_edit":"https://www.openstreetmap.org/edit?way=87022475"},"osm_area":"https://www.openstreetmap.org/?mlat=47.326778&mlon=6.0154#map=19/47.326778/6.0154"},{"website":"https://www.magasins-u.com/magasin/superu-leplessistrevise","lon":48.812038,"lat":2.57027,"osm":{"type":"way","id":101687769,"nodes":[1173374401,1173410258,5344924936,5344924937,1173319074,5344924934,5344924935,5344924933,1173345932,1173374401],"brand":"Super U","brand:wikidata":"Q2529029","brand:wikipedia":"fr:Système U","building":"retail","name":"Super U","operator":"Système U","shop":"supermarket","source":"cadastre-dgi-fr source : Direction Générale des Impôts - Cadastre. Mise à jour : 2011","supermarket":"yes","supermarket:FR":"supermarché","wheelchair":"yes","osm_url":"https://www.openstreetmap.org/way/101687769","osm_url_edit":"https://www.openstreetmap.org/edit?way=101687769"},"osm_area":"https://www.openstreetmap.org/?mlat=48.812038&mlon=2.57027#map=19/48.812038/2.57027"},{"website":"https://www.magasins-u.com/magasin/superu-saintfrancois","lon":16.254169,"lat":-61.269611,"osm":{"type":"node","id":658222822,"lat":16.253841,"lon":-61.2694256,"brand":"Super U","brand:wikidata":"Q2529029","brand:wikipedia":"en:Système U","name":"SUPER U de Saint-François","name:en":"Super u","name:fr":"Super u","old_name":"Hyper Casino","shop":"supermarket","source":"cadastre-dgi-fr source : Direction Générale des Impôts - Cadastre;mise à jour : 2010","osm_url":"https://www.openstreetmap.org/node/658222822","osm_url_edit":"https://www.openstreetmap.org/edit?node=658222822"},"osm_area":"https://www.openstreetmap.org/?mlat=16.254169&mlon=-61.269611#map=19/16.254169/-61.269611"},{"website":"https://www.magasins-u.com/magasin/superu-guipry","lon":47.823761,"lat":-1.83667,"osm":{"type":"way","id":110230263,"nodes":[1259388953,1259385403,1259408775,1259425879,1259403225,1259399549,1259427819,1259390209,1259417137,1259410089,1259404442,1259386492,1259429520,1259420948,1259400924,1259395772,1259423219,1259387859,1259411720,1259407085,1259388953],"addr:city":"Guipry-Messac","addr:housenumber":"35","addr:postcode":"35480","addr:street":"Avenue du Port","brand":"Super U","brand:wikidata":"Q2529029","brand:wikipedia":"fr:Système U","building":"retail","contact:website":"https://www.magasins-u.com/magasin/superu-guipry","internet_access":"wlan","internet_access:fee":"no","name":"Super U","operator":"Guivadis","payment:cash":"yes","payment:credit_cards":"yes","phone":"+33 2 99 34 71 79","shop":"supermarket","source":"cadastre-dgi-fr source : Direction Générale des Impôts - Cadastre. Mise à jour : 2011","website":"https://www.magasins-u.com/magasin/superu-guipry","osm_url":"https://www.openstreetmap.org/way/110230263","osm_url_edit":"https://www.openstreetmap.org/edit?way=110230263"},"osm_area":"https://www.openstreetmap.org/?mlat=47.823761&mlon=-1.83667#map=19/47.823761/-1.83667"},{"website":"https://www.magasins-u.com/magasin/uexpress-labazoge","lon":48.090988,"lat":0.15778,"osm_area":"https://www.openstreetmap.org/?mlat=48.090988&mlon=0.15778#map=19/48.090988/0.15778"},{"website":"https://www.magasins-u.com/magasin/superu-etangsaleleshauts","lon":-21.26593,"lat":55.366402,"osm":{"type":"node","id":1988091007,"lat":-21.2662962,"lon":55.3660259,"brand":"Super U","brand:wikidata":"Q2529029","brand:wikipedia":"en:Système U","name":"Super U","opening_hours":"Mo 14:30-19:30, Tu-Sa 08:30-19:30, Su 08:30-12:30","shop":"supermarket","wheelchair":"yes","osm_url":"https://www.openstreetmap.org/node/1988091007","osm_url_edit":"https://www.openstreetmap.org/edit?node=1988091007"},"osm_area":"https://www.openstreetmap.org/?mlat=-21.26593&mlon=55.366402#map=19/-21.26593/55.366402"},{"website":"https://www.magasins-u.com/magasin/superu-gambsheim","lon":48.698811,"lat":7.8896,"osm":{"type":"way","id":27044481,"nodes":[353057451,11093256873,11093256872,875386707,11093256871,11093256854,353057452,1896713826,875386727,296458932,11093256870,296458931,998035594,998035608,11093256869,11093256868,11093256867,6618694697,11093256866,296458924,875386666,11093256865,875386693,11093256864,875386634,875386665,875386641,875386672,875386694,875386698,11093256863,11093256862,11093256861,875332569,875332545,11093256860,11093256859,11093256858,11093256857,11093256856,11093256855,353057451],"addr:city":"Gambsheim","addr:housenumber":"120","addr:postcode":"67760","addr:street":"Route Nationale","brand":"Super U","brand:wikidata":"Q2529029","brand:wikipedia":"fr:Système U","building":"retail","name":"Super U Gambsheim","opening_hours":"Mo-Fr 08:00-20:00; Sa 08:00-19:00","operator":"Système U","phone":"+33 3 88 96 74 75","shop":"supermarket","source":"cadastre-dgi-fr source : Direction Générale des Impôts - Cadastre. Mise à jour : 2023","website":"https://www.magasins-u.com/magasin/superu-gambsheim","osm_url":"https://www.openstreetmap.org/way/27044481","osm_url_edit":"https://www.openstreetmap.org/edit?way=27044481"},"osm_area":"https://www.openstreetmap.org/?mlat=48.698811&mlon=7.8896#map=19/48.698811/7.8896"},{"website":"https://www.magasins-u.com/magasin/superu-roujan","lon":43.5019,"lat":3.31727,"osm_area":"https://www.openstreetmap.org/?mlat=43.5019&mlon=3.31727#map=19/43.5019/3.31727"},{"website":"https://www.magasins-u.com/magasin/superu-getigne","lon":47.084869,"lat":-1.26133,"osm":{"type":"way","id":143998057,"nodes":[1797090093,1575726839,1575726714,1575726619,1575726615,1797090089,1575726560,1575726451,1797090087,1575726398,1575726294,1575726289,1575726284,1575726321,1575726195,1575726168,1575726158,1575726163,1575726103,1575726106,1575726078,1575725794,1575726096,1575726202,1575726122,1575726342,1575726003,1575726260,1575726189,1575726325,1575726456,1575726500,1575726606,1575726627,1575726701,1575726753,1575726998,1575727049,1575726723,1575727106,1575727956,1575729919,1575729899,1575729967,1575730010,1575730060,1575729998,1575730427,1575730462,1575730472,1575730476,1575730453,1575730415,1575730393,1575729218,1575729232,1575728955,1575728161,1575728208,1575727804,1575727741,1575727321,1575726984,1575726990,1797090093],"brand":"Super U","brand:wikidata":"Q2529029","brand:wikipedia":"fr:Système U","building":"commercial","name":"Super U","shop":"supermarket","source":"cadastre-dgi-fr source : Direction Générale des Impôts - Cadastre. Mise à jour : 2012","osm_url":"https://www.openstreetmap.org/way/143998057","osm_url_edit":"https://www.openstreetmap.org/edit?way=143998057"},"osm_area":"https://www.openstreetmap.org/?mlat=47.084869&mlon=-1.26133#map=19/47.084869/-1.26133"},{"website":"https://www.magasins-u.com/magasin/uexpress-jullouvillelespins","lon":48.775772,"lat":-1.567622,"osm_area":"https://www.openstreetmap.org/?mlat=48.775772&mlon=-1.567622#map=19/48.775772/-1.567622"},{"website":"https://www.magasins-u.com/magasin/superu-beaumontsursarthe","lon":48.229679,"lat":0.12827,"osm":{"type":"node","id":1773429803,"lat":48.230274,"lon":0.1281328,"brand":"Super U","brand:wikidata":"Q2529029","brand:wikipedia":"fr:Système U","name":"Super U","operator":"Super U","shop":"supermarket","osm_url":"https://www.openstreetmap.org/node/1773429803","osm_url_edit":"https://www.openstreetmap.org/edit?node=1773429803"},"osm_area":"https://www.openstreetmap.org/?mlat=48.229679&mlon=0.12827#map=19/48.229679/0.12827"},{"website":"https://www.magasins-u.com/magasin/uexpress-barbatre","lon":46.944271,"lat":-2.179579,"osm":{"type":"node","id":5240927433,"lat":46.9448579,"lon":-2.1790239,"addr:housenumber":"26","brand":"U Express","brand:wikidata":"Q2529029","brand:wikipedia":"en:Système U","contact:website":"https://www.magasins-u.com/magasin/uexpress-barbatre","name":"U Express","opening_hours":"Mo-Sa 09:00-19:30; Su 09:00-12:30","operator":"Système U","shop":"supermarket","source":"cadastre-dgi-fr source : Direction Générale des Finances Publiques - Cadastre. Mise à jour : 2018","website":"https://www.magasins-u.com/magasin/uexpress-barbatre","osm_url":"https://www.openstreetmap.org/node/5240927433","osm_url_edit":"https://www.openstreetmap.org/edit?node=5240927433"},"osm_area":"https://www.openstreetmap.org/?mlat=46.944271&mlon=-2.179579#map=19/46.944271/-2.179579"},{"website":"https://www.magasins-u.com/magasin/superu-albert","lon":50.004875,"lat":2.661459,"osm":{"type":"node","id":7379489027,"lat":50.004936,"lon":2.6620093,"brand":"Super U","brand:wikidata":"Q2529029","brand:wikipedia":"en:Système U","name":"Super U","shop":"supermarket","osm_url":"https://www.openstreetmap.org/node/7379489027","osm_url_edit":"https://www.openstreetmap.org/edit?node=7379489027"},"osm_area":"https://www.openstreetmap.org/?mlat=50.004875&mlon=2.661459#map=19/50.004875/2.661459"},{"website":"https://www.magasins-u.com/magasin/uexpress-cholet","lon":47.061272,"lat":-0.88417,"osm":{"type":"node","id":4786716722,"lat":47.0609093,"lon":-0.8832303,"brand":"U Express","brand:wikidata":"Q2529029","brand:wikipedia":"en:Système U","check_date":"2024-07-06","name":"U Express","name:fr":"U Arcades Rougé","payment:cash":"yes","payment:credit_cards":"yes","payment:debit_cards":"yes","shop":"supermarket","wheelchair":"yes","osm_url":"https://www.openstreetmap.org/node/4786716722","osm_url_edit":"https://www.openstreetmap.org/edit?node=4786716722"},"osm_area":"https://www.openstreetmap.org/?mlat=47.061272&mlon=-0.88417#map=19/47.061272/-0.88417"},{"website":"https://www.magasins-u.com/magasin/superu-seltz","lon":48.895908,"lat":8.08685,"osm":{"type":"way","id":121520998,"nodes":[1360194338,4646827463,1956569527,10204237265,1956569525,4322036575,1956569522,1956569520,1956569518,1956569504,9609374197,1956569502,1956569516,1956569512,1956569514,1956569508,1956569510,1956569506,1956569505,1360194336,1956569530,1956569533,1956569536,1956569541,1956569539,4322036586,1956569560,1956569563,1956569566,1956569573,10204244178,10204244179,1360194342,1956569586,1956569591,1956569594,1956569589,7773679315,7773679324,1360194343,1956569584,1956569582,1956569575,7773679320,7773661739,1360194334,1360194331,1360194338],"brand":"Super U","brand:wikidata":"Q2529029","brand:wikipedia":"fr:Système U","building":"retail","building:levels":"2","check_date":"2022-08-20","check_date:opening_hours":"2021-08-09","name":"Super U","opening_hours":"Mo-Th 08:30-19:30; Fr 08:00-20:00; Sa 08:00-19:00","operator":"Système U","payment:cash":"yes","payment:credit_cards":"yes","payment:mastercard":"yes","payment:visa":"yes","phone":"+33 3 88 86 87 80","roof:levels":"0","roof:shape":"flat","shop":"supermarket","website":"https://www.coursesu.com/f-superu-seltz-informations/","wheelchair":"yes","osm_url":"https://www.openstreetmap.org/way/121520998","osm_url_edit":"https://www.openstreetmap.org/edit?way=121520998"},"osm_area":"https://www.openstreetmap.org/?mlat=48.895908&mlon=8.08685#map=19/48.895908/8.08685"},{"website":"https://www.magasins-u.com/magasin/superu-lavaur","lon":43.705521,"lat":1.80109,"osm":{"type":"way","id":82785415,"nodes":[963465615,5143202918,5143202920,5143202919,963322295,963375595,963399827,963363665,963280110,963315333,963310124,963269984,963317630,963276239,963279696,963369582,963483160,963277371,963375651,963418759,963440300,963483085,963302525,963383792,963465615],"addr:city":"Lavaur","addr:postcode":"81500","branch":"Lavaur","brand":"Super U","brand:wikidata":"Q2529029","brand:wikipedia":"fr:Système U","building":"retail","name":"Super U","operator":"Système U","shop":"supermarket","source":"cadastre-dgi-fr source : Direction Générale des Impôts - Cadastre. Mise à jour : 2010","osm_url":"https://www.openstreetmap.org/way/82785415","osm_url_edit":"https://www.openstreetmap.org/edit?way=82785415"},"osm_area":"https://www.openstreetmap.org/?mlat=43.705521&mlon=1.80109#map=19/43.705521/1.80109"},{"website":"https://www.magasins-u.com/magasin/superu-bretignollessurmer","lon":46.626156,"lat":-1.857923,"osm":{"type":"way","id":593774826,"nodes":[5663715720,5663715921,5663715922,5663715925,5663715926,5663715927,1246088090,1246032705,1246001791,5663715928,1245924063,5663715930,8491961050,8491961049,5663715924,8491961048,8491961047,8491961044,8491961046,8491961045,8491961043,5663715932,5663715933,5663715934,8491961042,8491961041,8491961040,8491961039,8491961038,8491961037,8491961036,8491961035,8491961034,8491961033,8491961032,8491961031,5804829644,8491961030,8491961029,5663715923,5663715720],"brand":"Super U","brand:wikidata":"Q2529029","brand:wikipedia":"fr:Système U","building":"retail","name":"Super U","operator":"Système U","payment:cash":"yes","payment:credit_cards":"yes","payment:mastercard":"yes","payment:visa_electron":"yes","shop":"supermarket","osm_url":"https://www.openstreetmap.org/way/593774826","osm_url_edit":"https://www.openstreetmap.org/edit?way=593774826"},"osm_area":"https://www.openstreetmap.org/?mlat=46.626156&mlon=-1.857923#map=19/46.626156/-1.857923"},{"website":"https://www.magasins-u.com/magasin/superu-morcenx","lon":44.03006,"lat":-0.9215,"osm":{"type":"way","id":704500258,"nodes":[6616118782,6616118763,6616118770,6616120494,6616120514,6616118768,6616120505,6616118759,6616120491,6616120498,6616118781,6616118762,6616118767,6616118778,6616118779,6616118761,6616118783,6616118764,6616120515,6616120510,6616118782],"brand":"Super U","brand:wikidata":"Q2529029","brand:wikipedia":"fr:Système U","building":"retail","name":"Super U","operator":"Système U","shop":"supermarket","source":"cadastre-dgi-fr source : Direction Générale des Impôts - Cadastre. Mise à jour : 2019","osm_url":"https://www.openstreetmap.org/way/704500258","osm_url_edit":"https://www.openstreetmap.org/edit?way=704500258"},"osm_area":"https://www.openstreetmap.org/?mlat=44.03006&mlon=-0.9215#map=19/44.03006/-0.9215"},{"website":"https://www.magasins-u.com/magasin/superu-terresdecaux","lon":49.653259,"lat":0.59974,"osm":{"type":"way","id":480240165,"nodes":[4732440980,4732440981,4732440982,9503072545,9503072546,9503072544,4732440983,4732440987,4732440988,4732440989,4732440980],"addr:city":"Fauville-en-Caux","addr:postcode":"76640","brand":"Super U","brand:wikidata":"Q2529029","brand:wikipedia":"en:Système U","building":"retail","contact:phone":"+33 2 35 56 58 18","name":"Super U","opening_hours":"Mo-Sa 09:00-19:30","shop":"supermarket","website":"https://www.magasins-u.com/magasin/superu-terresdecaux","osm_url":"https://www.openstreetmap.org/way/480240165","osm_url_edit":"https://www.openstreetmap.org/edit?way=480240165"},"osm_area":"https://www.openstreetmap.org/?mlat=49.653259&mlon=0.59974#map=19/49.653259/0.59974"},{"website":"https://www.magasins-u.com/magasin/superu-daoulas","lon":48.358688,"lat":-4.25676,"osm":{"type":"way","id":258460437,"nodes":[2638119349,2638119361,2638119400,2638119439,2638119441,2638119447,2638119977,2638119686,2638119655,2638119685,2638119679,2638118779,2638118999,2638119286,2638119311,2638119349],"DGFIP:type":"D","brand":"Super U","brand:wikidata":"Q2529029","brand:wikipedia":"fr:Système U","building":"retail","name":"Super U","opening_hours":"Mo-Th 08:45-19:30; Fr, Sa 09:00-19:30; Su 09:30-12:30","operator":"Super U","shop":"supermarket","website":"https://www.magasins-u.com/magasin/superu-daoulas.m37692","osm_url":"https://www.openstreetmap.org/way/258460437","osm_url_edit":"https://www.openstreetmap.org/edit?way=258460437"},"osm_area":"https://www.openstreetmap.org/?mlat=48.358688&mlon=-4.25676#map=19/48.358688/-4.25676"},{"website":"https://www.magasins-u.com/magasin/uexpress-hautegoulaine","lon":47.199734,"lat":-1.430703,"osm":{"type":"way","id":96272345,"nodes":[1115950597,1115953191,1115951545,1115958988,1115932386,1115937715,1115960873,1115932978,1115950752,1115960893,1115933459,1115933691,1115950912,1115933625,1115930928,1115940035,1115935294,1115950597],"brand":"U Express","brand:wikidata":"Q2529029","brand:wikipedia":"fr:Système U","building":"retail","contact:website":"https://www.magasins-u.com/magasin/uexpress-hautegoulaine","name":"U Express","operator":"U Express","shop":"supermarket","source":"extraction vectorielle v1 cadastre-dgi-fr source : Direction Générale des Impôts - Cadas. Mise à jour : 2010","supermarket":"yes","supermarket:FR":"supermarché","website":"https://www.magasins-u.com/magasin/uexpress-hautegoulaine","osm_url":"https://www.openstreetmap.org/way/96272345","osm_url_edit":"https://www.openstreetmap.org/edit?way=96272345"},"osm_area":"https://www.openstreetmap.org/?mlat=47.199734&mlon=-1.430703#map=19/47.199734/-1.430703"},{"website":"https://www.magasins-u.com/magasin/uexpress-pontlabbe","lon":47.86417,"lat":-4.22282,"osm":{"type":"node","id":3761331198,"lat":47.8640418,"lon":-4.2227902,"addr:city":"Pont-l'abbé","addr:housenumber":"2","addr:postcode":"29120","addr:street":"Rue Roger Signor","brand":"U Express","brand:wikidata":"Q2529029","brand:wikipedia":"en:Système U","name":"U Express","opening_hours":"Mo-Sa 08:30-20:00; Su 09:00-12:30","operator":"SAS Avalen","phone":"+33 2 98 87 08 59","shop":"supermarket","website":"https://www.magasins-u.com/csd/Satellite?c=Store&cid=1388144279787&d=Touch&pagename=portailu%2FWrapper%2FAuthentication","osm_url":"https://www.openstreetmap.org/node/3761331198","osm_url_edit":"https://www.openstreetmap.org/edit?node=3761331198"},"osm_area":"https://www.openstreetmap.org/?mlat=47.86417&mlon=-4.22282#map=19/47.86417/-4.22282"},{"website":"https://www.magasins-u.com/magasin/superu-vagney","lon":48.013271,"lat":6.71464,"osm_area":"https://www.openstreetmap.org/?mlat=48.013271&mlon=6.71464#map=19/48.013271/6.71464"},{"website":"https://www.magasins-u.com/magasin/superu-algrange","lon":49.349899,"lat":6.03954,"osm":{"type":"way","id":181761221,"nodes":[1921888095,1921887819,1921887327,1921887021,1921887829,1921888095],"brand":"Super U","brand:wikidata":"Q2529029","brand:wikipedia":"fr:Système U","building":"retail","name":"Super U","shop":"supermarket","source":"cadastre-dgi-fr source : Direction Générale des Impôts - Cadastre. Mise à jour : 2012","osm_url":"https://www.openstreetmap.org/way/181761221","osm_url_edit":"https://www.openstreetmap.org/edit?way=181761221"},"osm_area":"https://www.openstreetmap.org/?mlat=49.349899&mlon=6.03954#map=19/49.349899/6.03954"},{"website":"https://www.magasins-u.com/magasin/superu-labruffiere","lon":47.012642,"lat":-1.19385,"osm":{"type":"way","id":172880761,"nodes":[1837261759,1837261548,1837261506,1837261502,1837261518,1837261509,1837261483,1837261452,1837261298,1837261538,1837261458,1837261408,1837261465,1837261489,1837261637,1837261958,1837261973,1837262242,1837262209,1837262052,1837262152,1837262080,1837262048,1837262090,1837262081,1837261975,1837261939,1837261915,1837261759],"brand":"Super U","brand:wikidata":"Q2529029","brand:wikipedia":"fr:Système U","building":"retail","name":"Super U","shop":"supermarket","source":"cadastre-dgi-fr source : Direction Générale des Impôts - Cadastre. Mise à jour : 2012","osm_url":"https://www.openstreetmap.org/way/172880761","osm_url_edit":"https://www.openstreetmap.org/edit?way=172880761"},"osm_area":"https://www.openstreetmap.org/?mlat=47.012642&mlon=-1.19385#map=19/47.012642/-1.19385"},{"website":"https://www.magasins-u.com/magasin/uexpress-entraygues","lon":44.641022,"lat":2.5664,"osm":{"type":"way","id":185704999,"nodes":[1963588485,1963588398,1963588325,1963588315,1963588310,1963588390,1963588415,1963588410,1963588485],"brand":"U Express","brand:wikidata":"Q2529029","brand:wikipedia":"en:Système U","building":"retail","name":"U Express","shop":"supermarket","source":"cadastre-dgi-fr source : Direction Générale des Impôts - Cadastre. Mise à jour : 2012","supermarket":"yes","supermarket:FR":"supermarché","osm_url":"https://www.openstreetmap.org/way/185704999","osm_url_edit":"https://www.openstreetmap.org/edit?way=185704999"},"osm_area":"https://www.openstreetmap.org/?mlat=44.641022&mlon=2.5664#map=19/44.641022/2.5664"},{"website":"https://www.magasins-u.com/magasin/superu-fontoy","lon":49.356682,"lat":5.97971,"osm":{"type":"way","id":170613095,"nodes":[1817811818,1817811426,1817811362,1817811358,1817811173,1817811184,1817810611,1817810397,1817810438,1817810174,1817810280,1817811867,1817811843,1817811840,1817811818],"brand":"Super U","brand:wikidata":"Q2529029","brand:wikipedia":"fr:Système U","building":"retail","description:covid19":"horaires spécifiques pour publics prioritaires","name":"Super U","opening_hours:covid19":"Mo-Sa 08:30-18:30","operator":"Système U","shop":"supermarket","source":"cadastre-dgi-fr source : Direction Générale des Impôts - Cadastre. Mise à jour : 2012","osm_url":"https://www.openstreetmap.org/way/170613095","osm_url_edit":"https://www.openstreetmap.org/edit?way=170613095"},"osm_area":"https://www.openstreetmap.org/?mlat=49.356682&mlon=5.97971#map=19/49.356682/5.97971"},{"website":"https://www.magasins-u.com/magasin/superu-arzon","lon":47.542469,"lat":-2.87887,"osm":{"type":"way","id":171108718,"nodes":[1821964984,1821964845,1821964727,1821964713,1821964703,1821964972,1821964930,1821964866,1821964858,1821964842,1821964808,1821964743,1821964723,1821964717,1821964715,1821964720,6288281015,1821964738,1821964801,1821964856,1821965079,1821965194,1821965337,1821965316,1821965470,1821965517,1821965619,1821967062,5188478155,1821967832,1821968182,1821967240,1821967330,1821967169,1821964984],"brand":"Super U","brand:wikidata":"Q2529029","brand:wikipedia":"fr:Système U","building":"retail","contact:website":"https://www.magasins-u.com/magasin/superu-arzon","name":"Super U","name:br":"Gourmarc'had U","operator":"Système U","shop":"supermarket","source":"cadastre-dgi-fr source : Direction Générale des Impôts - Cadastre. Mise à jour : 2012","source:name:br":"proper translation","website":"https://www.magasins-u.com/magasin/superu-arzon","osm_url":"https://www.openstreetmap.org/way/171108718","osm_url_edit":"https://www.openstreetmap.org/edit?way=171108718"},"osm_area":"https://www.openstreetmap.org/?mlat=47.542469&mlon=-2.87887#map=19/47.542469/-2.87887"},{"website":"https://www.magasins-u.com/magasin/uexpress-castelmoronsurlot","lon":44.401871,"lat":0.49992,"osm":{"type":"way","id":1082016250,"nodes":[9916484148,10968655721,10968655722,9916484149,10968655717,10968655718,9916484150,9916484151,9916484148],"addr:city":"Castelmoron-sur-Lot","addr:postcode":"47260","addr:street":"RD 225","brand":"U Express","brand:wikidata":"Q2529029","building":"retail","building:levels":"1","name":"U Express","opening_hours":"Mo-Sa 08:00-19:30; Su 09:00-13:00","operator":"Système U","roof:levels":"0","shop":"supermarket","osm_url":"https://www.openstreetmap.org/way/1082016250","osm_url_edit":"https://www.openstreetmap.org/edit?way=1082016250"},"osm_area":"https://www.openstreetmap.org/?mlat=44.401871&mlon=0.49992#map=19/44.401871/0.49992"},{"website":"https://www.magasins-u.com/magasin/superu-saverne","lon":48.738136,"lat":7.365452,"osm":{"type":"way","id":61675298,"nodes":[768738108,768738254,768738036,768737863,768737729,768737591,768738147,768737932,768737793,768737649,768738238,768738099,768738004,768737993,768737843,768737704,768738108],"brand":"Super U","brand:wikidata":"Q2529029","brand:wikipedia":"fr:Système U","building":"retail","contact:website":"https://www.magasins-u.com/superu-saverne","name":"Super U","opening_hours":"Mo-Sa 08:00-20:00; Su off","operator":"Système U","shop":"supermarket","source":"cadastre-dgi-fr source : Direction Générale des Impôts - Cadastre. Mise à jour : 2010","website":"https://www.magasins-u.com/superu-saverne","osm_url":"https://www.openstreetmap.org/way/61675298","osm_url_edit":"https://www.openstreetmap.org/edit?way=61675298"},"osm_area":"https://www.openstreetmap.org/?mlat=48.738136&mlon=7.365452#map=19/48.738136/7.365452"},{"website":"https://www.magasins-u.com/magasin/superu-saintgeorgeslesbaillargeaux","lon":46.670448,"lat":0.40684,"osm_area":"https://www.openstreetmap.org/?mlat=46.670448&mlon=0.40684#map=19/46.670448/0.40684"},{"website":"https://www.magasins-u.com/magasin/superu-saintaignan","lon":47.260349,"lat":1.36118,"osm":{"type":"way","id":178527539,"nodes":[1888598119,1888598147,1888598165,1888598161,1888598184,1888598173,1888598288,1888598324,1888598413,1888598435,1888598496,1888598709,1888598703,1888598601,1888598606,1888598568,1888598562,1888598503,1888598474,1888598445,1888598376,1888598224,1888598064,1888598117,1888598119],"brand":"Super U","brand:wikidata":"Q2529029","brand:wikipedia":"fr:Système U","building":"retail","name":"Super U","opening_hours":"Mo-Sa 08:30-19:30; Su 09:00-12:30","shop":"supermarket","source":"cadastre-dgi-fr source : Direction Générale des Impôts - Cadastre. Mise à jour : 2012","website":"https://www.magasins-u.com/magasin/superu-saintaignan","wheelchair":"yes","osm_url":"https://www.openstreetmap.org/way/178527539","osm_url_edit":"https://www.openstreetmap.org/edit?way=178527539"},"osm_area":"https://www.openstreetmap.org/?mlat=47.260349&mlon=1.36118#map=19/47.260349/1.36118"},{"website":"https://www.magasins-u.com/magasin/superu-mamers","lon":48.3494,"lat":0.38576,"osm":{"type":"node","id":3810062709,"lat":48.3485343,"lon":0.3860256,"brand":"Super U","brand:wikidata":"Q2529029","brand:wikipedia":"fr:Système U","name":"Super U","shop":"supermarket","osm_url":"https://www.openstreetmap.org/node/3810062709","osm_url_edit":"https://www.openstreetmap.org/edit?node=3810062709"},"osm_area":"https://www.openstreetmap.org/?mlat=48.3494&mlon=0.38576#map=19/48.3494/0.38576"},{"website":"https://www.magasins-u.com/magasin/superu-mortagnesursevre","lon":46.997662,"lat":-0.94519,"osm":{"type":"node","id":9393908235,"lat":46.9986474,"lon":-0.9458381,"brand":"Super U","brand:wikidata":"Q2529029","name":"Super U","shop":"supermarket","osm_url":"https://www.openstreetmap.org/node/9393908235","osm_url_edit":"https://www.openstreetmap.org/edit?node=9393908235"},"osm_area":"https://www.openstreetmap.org/?mlat=46.997662&mlon=-0.94519#map=19/46.997662/-0.94519"},{"website":"https://www.magasins-u.com/magasin/superu-porticcio","lon":41.886218,"lat":8.802919,"osm_area":"https://www.openstreetmap.org/?mlat=41.886218&mlon=8.802919#map=19/41.886218/8.802919"},{"website":"https://www.magasins-u.com/magasin/uexpress-saultdenavailles","lon":43.542789,"lat":-0.68269,"osm":{"type":"way","id":677909302,"nodes":[6347577345,6347577346,6347577347,6347577348,6347577349,6347577350,6347577351,6347577356,6347577355,6347577352,6347577345],"brand":"U Express","brand:wikidata":"Q2529029","brand:wikipedia":"fr:Système U","building":"retail","name":"U Express","shop":"supermarket","supermarket":"yes","supermarket:FR":"supermarché","osm_url":"https://www.openstreetmap.org/way/677909302","osm_url_edit":"https://www.openstreetmap.org/edit?way=677909302"},"osm_area":"https://www.openstreetmap.org/?mlat=43.542789&mlon=-0.68269#map=19/43.542789/-0.68269"},{"website":"https://www.magasins-u.com/magasin/uexpress-saintelucesurloire","lon":47.249584,"lat":-1.483747,"osm":{"type":"node","id":1574643014,"lat":47.2496733,"lon":-1.4831992,"brand":"U Express","brand:wikidata":"Q2529029","brand:wikipedia":"en:Système U","check_date":"2023-08-23","name":"U Express","opening_hours":"Mo-Sa 08:45-19:30; Su 09:00-12:30","operator":"Système U","shop":"supermarket","osm_url":"https://www.openstreetmap.org/node/1574643014","osm_url_edit":"https://www.openstreetmap.org/edit?node=1574643014"},"osm_area":"https://www.openstreetmap.org/?mlat=47.249584&mlon=-1.483747#map=19/47.249584/-1.483747"},{"website":"https://www.magasins-u.com/magasin/superu-saintbriceencogles","lon":48.41629,"lat":-1.38565,"osm_area":"https://www.openstreetmap.org/?mlat=48.41629&mlon=-1.38565#map=19/48.41629/-1.38565"},{"website":"https://www.magasins-u.com/magasin/hyperu-biachesaintvaast","lon":50.30843,"lat":2.95008,"osm":{"type":"multipolygon","id":10668511,"members":[{"type":"way","ref":247231775,"role":"outer"},{"type":"way","ref":769485071,"role":"outer"}],"addr:city":"Biache-Saint-Vaast","addr:postcode":"62118","brand":"Super U","brand:wikidata":"Q2529029","brand:wikipedia":"en:Système U","building":"retail","name":"Super U","shop":"supermarket","source":"cadastre-dgi-fr source : Direction Générale des Finances Publiques - Cadastre. Mise à jour : 2013","osm_url":"https://www.openstreetmap.org/relation/10668511","osm_url_edit":"https://www.openstreetmap.org/edit?relation=10668511"},"osm_area":"https://www.openstreetmap.org/?mlat=50.30843&mlon=2.95008#map=19/50.30843/2.95008"},{"website":"https://www.magasins-u.com/magasin/uexpress-bordeauxdelacroix","lon":44.822811,"lat":-0.55281,"osm":{"type":"node","id":4954572298,"lat":44.8223094,"lon":-0.5520556,"addr:housenumber":"29","addr:street":"Rue Raymond Auguste Monvoisin","brand":"U Express","brand:wikidata":"Q2529029","brand:wikipedia":"en:Système U","contact:website":"https://www.magasins-u.com/magasin/uexpress-bordeauxdelacroix","level":"0","name":"U Express","opening_hours":"Mo-Sa 08:30-20:30; Su 09:00-12:30","shop":"supermarket","wheelchair":"yes","website":"https://www.magasins-u.com/magasin/uexpress-bordeauxdelacroix","osm_url":"https://www.openstreetmap.org/node/4954572298","osm_url_edit":"https://www.openstreetmap.org/edit?node=4954572298"},"osm_area":"https://www.openstreetmap.org/?mlat=44.822811&mlon=-0.55281#map=19/44.822811/-0.55281"},{"website":"https://www.magasins-u.com/magasin/uexpress-rueilmalmaison","lon":48.879417,"lat":2.179409,"osm":{"type":"node","id":1398088097,"lat":48.8794459,"lon":2.1798375,"addr:city":"Rueil-Malmaison","addr:housenumber":"109","addr:postcode":"92500","addr:street":"Avenue Paul Doumer","brand":"U Express","brand:wikidata":"Q2529029","brand:wikipedia":"en:Système U","check_date":"2023-09-06","delivery:covid19":"yes","name":"U Express","opening_hours":"Mo-Sa 08:30-21:00; Su 09:00-13:00","opening_hours:covid19":"Mo-Sa 08:30-20:30; Su 09:00-12:30","operator":"System U","shop":"supermarket","takeaway:covid19":"no","website":"https://www.magasins-u.com/uexpress-rueilmalmaison","wheelchair":"yes","osm_url":"https://www.openstreetmap.org/node/1398088097","osm_url_edit":"https://www.openstreetmap.org/edit?node=1398088097"},"osm_area":"https://www.openstreetmap.org/?mlat=48.879417&mlon=2.179409#map=19/48.879417/2.179409"},{"website":"https://www.magasins-u.com/magasin/superu-vinay","lon":45.207859,"lat":5.41175,"osm":{"type":"way","id":169864127,"nodes":[1810208183,1810208147,1810208032,1810208071,1810208098,1810208107,1810208124,1810208208,6397874902,1810208174,1810208183],"brand":"Super U","brand:wikidata":"Q2529029","brand:wikipedia":"fr:Système U","building":"retail","check_date":"2023-08-19","name":"Super U","opening_hours":"Mo-Th 08:30-12:30, 14:30-18:30; Fr-Sa 08:30-18:30","shop":"supermarket","source":"cadastre-dgi-fr source : Direction Générale des Impôts - Cadastre. Mise à jour : 2012","supermarket":"yes","supermarket:FR":"supermarché","osm_url":"https://www.openstreetmap.org/way/169864127","osm_url_edit":"https://www.openstreetmap.org/edit?way=169864127"},"osm_area":"https://www.openstreetmap.org/?mlat=45.207859&mlon=5.41175#map=19/45.207859/5.41175"},{"website":"https://www.magasins-u.com/magasin/uexpress-craon","lon":47.84726,"lat":-0.94851,"osm_area":"https://www.openstreetmap.org/?mlat=47.84726&mlon=-0.94851#map=19/47.84726/-0.94851"},{"website":"https://www.magasins-u.com/magasin/uexpress-parisdufrenoy","lon":48.866341,"lat":2.27327,"osm":{"type":"node","id":948387564,"lat":48.8660666,"lon":2.2739354,"addr:city":"Paris","brand":"U Express","brand:wikidata":"Q2529029","brand:wikipedia":"en:Système U","name":"U Express","shop":"supermarket","source":"cadastre-dgi-fr source : Direction Générale des Impôts - Cadastre. Mise à jour : 2010","osm_url":"https://www.openstreetmap.org/node/948387564","osm_url_edit":"https://www.openstreetmap.org/edit?node=948387564"},"osm_area":"https://www.openstreetmap.org/?mlat=48.866341&mlon=2.27327#map=19/48.866341/2.27327"},{"website":"https://www.magasins-u.com/magasin/superu-noisylegrandcossonneau","lon":48.8493,"lat":2.565867,"osm":{"type":"node","id":3202987911,"lat":48.8492291,"lon":2.5657809,"brand":"Super U","brand:wikidata":"Q2529029","brand:wikipedia":"fr:Système U","contact:website":"https://www.magasins-u.com/magasin/superu-noisylegrandcossonneau","name":"Super U","opening_hours":"Mo-Sa 08:30-20:30; Su 09:00-13:00","phone":"+33 143033225","shop":"supermarket","website":"https://www.magasins-u.com/magasin/superu-noisylegrandcossonneau","osm_url":"https://www.openstreetmap.org/node/3202987911","osm_url_edit":"https://www.openstreetmap.org/edit?node=3202987911"},"osm_area":"https://www.openstreetmap.org/?mlat=48.8493&mlon=2.565867#map=19/48.8493/2.565867"},{"website":"https://www.magasins-u.com/magasin/superu-serqueux","lon":49.622349,"lat":1.53812,"osm":{"type":"way","id":205367235,"nodes":[2153401853,2153401861,2153401900,2153401916,2153401891,2153401895,2153401860,4730757131,4883898485,4883863825,2153401850,2153401902,2153401873,2153401908,4730757139,4730757130,4730757140,4730757138,4730757129,2153401858,2153401853],"brand":"Super U","brand:wikidata":"Q2529029","brand:wikipedia":"fr:Système U","building":"retail","name":"Super U","operator":"Système U","shop":"supermarket","osm_url":"https://www.openstreetmap.org/way/205367235","osm_url_edit":"https://www.openstreetmap.org/edit?way=205367235"},"osm_area":"https://www.openstreetmap.org/?mlat=49.622349&mlon=1.53812#map=19/49.622349/1.53812"},{"website":"https://www.magasins-u.com/magasin/superu-lachartresurleloir","lon":47.739819,"lat":0.58244,"osm_area":"https://www.openstreetmap.org/?mlat=47.739819&mlon=0.58244#map=19/47.739819/0.58244"},{"website":"https://www.magasins-u.com/magasin/uexpress-vincennesruedefrance","lon":48.847991,"lat":2.449043,"osm":{"type":"node","id":975819364,"lat":48.8479482,"lon":2.4489972,"brand":"U Express","brand:wikidata":"Q2529029","brand:wikipedia":"en:Système U","check_date:opening_hours":"2024-03-04","diet:kosher":"no","name":"U Express","opening_hours":"Mo-Sa 08:00-21:00; Su 09:00-13:00+","operator":"Système U","shop":"supermarket","source":"survey 2018","wheelchair":"yes","osm_url":"https://www.openstreetmap.org/node/975819364","osm_url_edit":"https://www.openstreetmap.org/edit?node=975819364"},"osm_area":"https://www.openstreetmap.org/?mlat=48.847991&mlon=2.449043#map=19/48.847991/2.449043"},{"website":"https://www.magasins-u.com/magasin/superu-civray","lon":46.140331,"lat":0.30358,"osm":{"type":"way","id":64444652,"nodes":[792636242,792625963,792639049,792630527,792622815,792624923,792629148,792633199,792636242],"brand":"Super U","brand:wikidata":"Q2529029","brand:wikipedia":"fr:Système U","building":"retail","name":"Super U","shop":"supermarket","source":"cadastre-dgi-fr source : Direction Générale des Impôts - Cadastre. Mise à jour : 2010","osm_url":"https://www.openstreetmap.org/way/64444652","osm_url_edit":"https://www.openstreetmap.org/edit?way=64444652"},"osm_area":"https://www.openstreetmap.org/?mlat=46.140331&mlon=0.30358#map=19/46.140331/0.30358"},{"website":"https://www.magasins-u.com/magasin/superu-chatou","lon":48.886547,"lat":2.15576,"osm":{"type":"node","id":501568749,"lat":48.886576,"lon":2.1559335,"addr:city":"Chatou","addr:housenumber":"5","addr:postcode":"78400","addr:street":"Place Maurice Berteaux","brand":"Super U","brand:wikidata":"Q2529029","brand:wikipedia":"en:Système U","name":"Super U","opening_hours":"Mo-Sa 08:00-21:00; Su 09:00-13:00","operator":"Super U","phone":"+33134809696","shop":"supermarket","website":"https://www.magasins-u.com/magasin/superu-chatou.m21635","wheelchair":"yes","osm_url":"https://www.openstreetmap.org/node/501568749","osm_url_edit":"https://www.openstreetmap.org/edit?node=501568749"},"osm_area":"https://www.openstreetmap.org/?mlat=48.886547&mlon=2.15576#map=19/48.886547/2.15576"},{"website":"https://www.magasins-u.com/magasin/superu-amiens","lon":49.898731,"lat":2.26982,"osm":{"type":"node","id":9287495229,"lat":49.8987846,"lon":2.2702244,"branch":"Amiens","brand":"Super U","brand:wikidata":"Q2529029","brand:wikipedia":"fr:Système U","contact:city":"Amiens","contact:housenumber":"4","contact:phone":"+33 3 22 50 08 44","contact:postcode":"80000","contact:street":"Rue Édouard Lucas","contact:website":"https://www.magasins-u.com/magasin/superu-amiens","name":"Super U","opening_hours":"Mo-Sa 08:30-20:00; Su 09:30-12:30","payment:cash":"yes","payment:credit_cards":"yes","shop":"supermarket","wheelchair":"yes","website":"https://www.magasins-u.com/magasin/superu-amiens","osm_url":"https://www.openstreetmap.org/node/9287495229","osm_url_edit":"https://www.openstreetmap.org/edit?node=9287495229"},"osm_area":"https://www.openstreetmap.org/?mlat=49.898731&mlon=2.26982#map=19/49.898731/2.26982"},{"website":"https://www.magasins-u.com/magasin/superu-seilhac","lon":45.368629,"lat":1.71807,"osm":{"type":"way","id":64262282,"nodes":[791392678,791399947,791399122,791387801,791386553,791386841,791394623,791394686,791390584,791388791,791397826,791391470,791395966,791398434,791398580,791396911,791386168,791392026,791396248,791399861,791392678],"brand":"Super U","brand:wikidata":"Q2529029","brand:wikipedia":"fr:Système U","building":"retail","contact:phone":"+33 5 55 27 02 50","name":"Super U","opening_hours":"Mo-Sa 08:30-19:15; Su 09:00-12:30","operator":"Système U","ref:FR:NAF":"4711D","ref:FR:SIRET":"35240173100026","shop":"supermarket","source":"cadastre-dgi-fr source : Direction Générale des Impôts - Cadastre. Mise à jour : 2010","wheelchair":"yes","osm_url":"https://www.openstreetmap.org/way/64262282","osm_url_edit":"https://www.openstreetmap.org/edit?way=64262282"},"osm_area":"https://www.openstreetmap.org/?mlat=45.368629&mlon=1.71807#map=19/45.368629/1.71807"},{"website":"https://www.magasins-u.com/magasin/superu-montreuil","lon":48.860699,"lat":2.46636,"osm":{"type":"way","id":81779281,"nodes":[953910546,954174543,952213203,954005242,952600501,953849811,952402920,952588669,952411349,951874166,951854827,954067308,952418844,954174852,951955070,954089298,953863506,951980751,953910546],"addr:housenumber":"170-174","addr:postcode":"93100","addr:street":"Rue de la Nouvelle France","brand":"Super U","brand:wikidata":"Q2529029","brand:wikipedia":"en:Système U","building":"retail","building:levels":"2","name":"Super U","opening_hours":"Mo-Sa 08:30-20:00; Su 09:00-13:00","operator":"Super U","roof:shape":"flat","shop":"supermarket","source":"local_knowledge","website":"https://www.magasins-u.com/magasin/superu-montreuil","wheelchair":"yes","osm_url":"https://www.openstreetmap.org/way/81779281","osm_url_edit":"https://www.openstreetmap.org/edit?way=81779281"},"osm_area":"https://www.openstreetmap.org/?mlat=48.860699&mlon=2.46636#map=19/48.860699/2.46636"},{"website":"https://www.magasins-u.com/magasin/superu-lavelanet","lon":42.924301,"lat":1.83742,"osm":{"type":"node","id":255851907,"lat":42.923561,"lon":1.837629,"brand":"Super U","brand:wikidata":"Q2529029","brand:wikipedia":"en:Système U","contact:website":"https://www.magasins-u.com/magasin/superu-lavelanet","name":"Super U","opening_hours":"Mo-Sa 08:30-19:30; Su 09:00-12:15","opening_hours:covid19":"Mo-Sa 08:30-19:00; Su 09:00-12:15","operator":"Super U","phone":"+33 5 61 05 05 90","shop":"supermarket","website":"https://www.magasins-u.com/magasin/superu-lavelanet","osm_url":"https://www.openstreetmap.org/node/255851907","osm_url_edit":"https://www.openstreetmap.org/edit?node=255851907"},"osm_area":"https://www.openstreetmap.org/?mlat=42.924301&mlon=1.83742#map=19/42.924301/1.83742"},{"website":"https://www.magasins-u.com/magasin/hyperu-douvresladelivrande","lon":49.3008,"lat":-0.38046,"osm":{"type":"way","id":228139332,"nodes":[2367751334,6260045925,6260045926,6260045928,6260045927,2367751540,2367751548,2367751573,2367751538,2367751689,2367751745,2367752218,2367751758,2367752594,2367752668,2367752642,2367752676,2367752689,2367752692,2367752779,6260045920,6260045919,2367752803,2367752750,2367752222,6811490283,6811498886,2367751334],"brand":"Hyper U","brand:wikidata":"Q2529029","brand:wikipedia":"fr:Système U","building":"retail","bulk_purchase":"limited","contact:facebook":"https://www.facebook.com/HyperUDouvreslaDelivrande","name":"Hyper U","opening_hours":"Mo-Sa 08:30-20:00; Su 09:00-13:00","shop":"supermarket","source":"cadastre-dgi-fr source : Direction Générale des Finances Publiques - Cadastre. Mise à jour : 2013","website":"https://www.magasins-u.com/magasin/hyperu-douvresladelivrande","osm_url":"https://www.openstreetmap.org/way/228139332","osm_url_edit":"https://www.openstreetmap.org/edit?way=228139332"},"osm_area":"https://www.openstreetmap.org/?mlat=49.3008&mlon=-0.38046#map=19/49.3008/-0.38046"},{"website":"https://www.magasins-u.com/magasin/uexpress-strasbourgrobertsau","lon":48.600433,"lat":7.780409,"osm":{"type":"node","id":1952141993,"lat":48.6004769,"lon":7.7803107,"brand":"U Express","brand:wikidata":"Q2529029","brand:wikipedia":"en:Système U","check_date":"2024-05-04","contact:website":"https://www.magasins-u.com/magasin/uexpress-strasbourgrobertsau","name":"U Express","opening_hours":"Mo-Fr 9:00-20:00;Sa 9:00-19:00","operator":"Système U","shop":"supermarket","wheelchair":"yes","website":"https://www.magasins-u.com/magasin/uexpress-strasbourgrobertsau","osm_url":"https://www.openstreetmap.org/node/1952141993","osm_url_edit":"https://www.openstreetmap.org/edit?node=1952141993"},"osm_area":"https://www.openstreetmap.org/?mlat=48.600433&mlon=7.780409#map=19/48.600433/7.780409"},{"website":"https://www.magasins-u.com/magasin/superu-verdunsurgaronne","lon":43.853619,"lat":1.22946,"osm":{"type":"way","id":186322735,"nodes":[1969953695,1969953697,1969953702,1969953703,1969953706,1969953711,1969953715,1969953720,1969953722,1969953724,1969953721,1969953719,1969953729,1969953646,1969953621,1969953367,1969953331,1969953261,1969953166,1969953135,1969952520,1969952250,1969952310,1969952429,1969952531,6314673039,1969952595,1969952765,6438497582,1969953663,1969953660,1969953673,1969953681,1969953689,1969953695],"brand":"Super U","brand:wikidata":"Q2529029","brand:wikipedia":"fr:Système U","building":"retail","name":"Super U","opening_hours":"Mo-Sa 08:30-20:00; Su 09:00-12:30","operator":"Super U","shop":"supermarket","source":"cadastre-dgi-fr source : Direction Générale des Impôts - Cadastre. Mise à jour : 2012","osm_url":"https://www.openstreetmap.org/way/186322735","osm_url_edit":"https://www.openstreetmap.org/edit?way=186322735"},"osm_area":"https://www.openstreetmap.org/?mlat=43.853619&mlon=1.22946#map=19/43.853619/1.22946"},{"website":"https://www.magasins-u.com/magasin/superu-lechateaudoleron","lon":45.891808,"lat":-1.223855,"osm_area":"https://www.openstreetmap.org/?mlat=45.891808&mlon=-1.223855#map=19/45.891808/-1.223855"},{"website":"https://www.magasins-u.com/magasin/superu-rothhambach","lon":49.087318,"lat":7.04027,"osm_area":"https://www.openstreetmap.org/?mlat=49.087318&mlon=7.04027#map=19/49.087318/7.04027"},{"website":"https://www.magasins-u.com/magasin/superu-vaisonlaromaine","lon":44.24276,"lat":5.08293,"osm":{"type":"way","id":88552955,"nodes":[1028348596,1028305046,1028399451,1028245083,1028401480,1028203913,1028210412,1028185335,1028292549,1028209324,1028348596],"brand":"Super U","brand:wikidata":"Q2529029","brand:wikipedia":"fr:Système U","building":"retail","contact:website":"https://www.magasins-u.com/superu-vaisonlaromaine","name":"Super U","opening_hours":"Mo-Sa 08:30-20:00; Su 09:00-12:30","operator":"Système U","shop":"supermarket","source":"cadastre-dgi-fr source : Direction Générale des Impôts - Cadastre. Mise à jour : 2010","website":"https://www.magasins-u.com/superu-vaisonlaromaine","osm_url":"https://www.openstreetmap.org/way/88552955","osm_url_edit":"https://www.openstreetmap.org/edit?way=88552955"},"osm_area":"https://www.openstreetmap.org/?mlat=44.24276&mlon=5.08293#map=19/44.24276/5.08293"},{"website":"https://www.magasins-u.com/magasin/superu-oeting","lon":49.179359,"lat":6.91918,"osm":{"type":"way","id":251093231,"nodes":[2573813154,9270748262,2573813182,2573813181,2573813176,2573813180,2573813178,2573813174,9270748261,2573813172,2573813161,2573813158,2573813156,9270748270,9270748271,2573813151,9270748267,9270748268,9270748269,9270748266,9270748265,9270748264,9270748263,2573813152,2573813150,2573813154],"brand":"Super U","brand:wikidata":"Q2529029","brand:wikipedia":"en:Système U","building":"retail","name":"Super U","opening_hours":"Mo-Sa 08:00-20:00","payment:cash":"yes","payment:mastercard":"yes","payment:visa":"yes","shop":"supermarket","osm_url":"https://www.openstreetmap.org/way/251093231","osm_url_edit":"https://www.openstreetmap.org/edit?way=251093231"},"osm_area":"https://www.openstreetmap.org/?mlat=49.179359&mlon=6.91918#map=19/49.179359/6.91918"},{"website":"https://www.magasins-u.com/magasin/superu-venareyleslaumes","lon":47.541721,"lat":4.4618,"osm":{"type":"way","id":172131644,"nodes":[1830633579,1830633655,1830634073,1830634083,1830634206,1830634209,1830634397,1830634416,1830634086,1830633785,1830633790,1830633753,1830633772,1830633771,1830633738,1830633699,1830633709,1830632988,1830632697,1830632658,1830632585,1830632550,1830632537,1830632522,1830632462,1830632422,1830632295,1830631860,1830632091,1830632143,1830632265,1830632351,1830632582,1830632499,1830632520,1830632659,1830633123,1830633579],"brand":"Super U","brand:wikidata":"Q2529029","brand:wikipedia":"fr:Système U","building":"retail","name":"Super U","shop":"supermarket","source":"cadastre-dgi-fr source : Direction Générale des Impôts - Cadastre. Mise à jour : 2012","osm_url":"https://www.openstreetmap.org/way/172131644","osm_url_edit":"https://www.openstreetmap.org/edit?way=172131644"},"osm_area":"https://www.openstreetmap.org/?mlat=47.541721&mlon=4.4618#map=19/47.541721/4.4618"},{"website":"https://www.magasins-u.com/magasin/superu-perpignandesnoyes","lon":42.710201,"lat":2.88458,"osm":{"type":"node","id":8091117200,"lat":42.7100279,"lon":2.8836268,"brand":"Super U","brand:wikidata":"Q2529029","brand:wikipedia":"en:Système U","name":"Super U","name:ca":"Super U","shop":"supermarket","osm_url":"https://www.openstreetmap.org/node/8091117200","osm_url_edit":"https://www.openstreetmap.org/edit?node=8091117200"},"osm_area":"https://www.openstreetmap.org/?mlat=42.710201&mlon=2.88458#map=19/42.710201/2.88458"},{"website":"https://www.magasins-u.com/magasin/superu-pontcroix","lon":48.043362,"lat":-4.48952,"osm":{"type":"node","id":4042077146,"lat":48.0436451,"lon":-4.4901719,"brand":"Super U","brand:wikidata":"Q2529029","brand:wikipedia":"en:Système U","name":"Super U","shop":"supermarket","osm_url":"https://www.openstreetmap.org/node/4042077146","osm_url_edit":"https://www.openstreetmap.org/edit?node=4042077146"},"osm_area":"https://www.openstreetmap.org/?mlat=48.043362&mlon=-4.48952#map=19/48.043362/-4.48952"},{"website":"https://www.magasins-u.com/magasin/superu-benejacq","lon":43.18684,"lat":-0.23966,"osm":{"type":"way","id":248915794,"nodes":[2556288574,2556288579,2556289353,2889525399,2556289239,2889525262,2556287901,2556287898,2556287728,2556287726,2556287452,8660484133,2556287498,2556288574],"brand":"Super U","brand:wikidata":"Q2529029","brand:wikipedia":"fr:Système U","building":"retail","contact:website":"https://www.magasins-u.com/magasin/superu-benejacq","name":"Super U","operator":"Système U","shop":"supermarket","source":"cadastre-dgi-fr source : Direction Générale des Finances Publiques - Cadastre. Mise à jour : 2013","website":"https://www.magasins-u.com/magasin/superu-benejacq","osm_url":"https://www.openstreetmap.org/way/248915794","osm_url_edit":"https://www.openstreetmap.org/edit?way=248915794"},"osm_area":"https://www.openstreetmap.org/?mlat=43.18684&mlon=-0.23966#map=19/43.18684/-0.23966"},{"website":"https://www.magasins-u.com/magasin/uexpress-lencloitre","lon":46.816097,"lat":0.326981,"osm":{"type":"way","id":85830241,"nodes":[996307852,996279520,996297966,996260271,996247402,996256555,996270617,996308384,996295392,996317174,996310813,996269758,996305028,996289140,996283566,996317107,996269353,996281486,996262124,996273933,996300116,996273119,996316706,996314737,996295815,996260699,996307852],"addr:housenumber":"3","addr:postcode":"86140","addr:street":"Place du Champ de Foire","brand":"U Express","brand:wikidata":"Q2529029","brand:wikipedia":"en:Système U","building":"retail","name":"U Express","opening_hours":"Mo-Sa 08:30-19:30; Su 09:00-12:30","operator":"U Express","payment:cash":"yes","payment:credit_cards":"yes","payment:debit_cards":"yes","payment:mastercard":"yes","payment:visa":"yes","payment:visa_electron":"yes","shop":"supermarket","source":"cadastre-dgi-fr source : Direction Générale des Impôts - Cadastre. Mise à jour : 2010","website":"https://www.magasins-u.com/magasin/uexpress-lencloitre","osm_url":"https://www.openstreetmap.org/way/85830241","osm_url_edit":"https://www.openstreetmap.org/edit?way=85830241"},"osm_area":"https://www.openstreetmap.org/?mlat=46.816097&mlon=0.326981#map=19/46.816097/0.326981"},{"website":"https://www.magasins-u.com/magasin/uexpress-plouaret","lon":48.611549,"lat":-3.47434,"osm":{"type":"node","id":4153700764,"lat":48.6116951,"lon":-3.4745559,"brand":"U Express","brand:wikidata":"Q2529029","brand:wikipedia":"fr:Système U","contact:website":"https://www.magasins-u.com/magasin/uexpress-plouaret","name":"U Express","shop":"supermarket","website":"https://www.magasins-u.com/magasin/uexpress-plouaret","osm_url":"https://www.openstreetmap.org/node/4153700764","osm_url_edit":"https://www.openstreetmap.org/edit?node=4153700764"},"osm_area":"https://www.openstreetmap.org/?mlat=48.611549&mlon=-3.47434#map=19/48.611549/-3.47434"},{"website":"https://www.magasins-u.com/magasin/superu-muzillac","lon":47.560188,"lat":-2.51192,"osm":{"type":"way","id":176624874,"nodes":[1869632769,1869632725,10001547416,1869632682,1869632668,1869632669,1869632670,1869632671,1869632673,1869632675,1869632677,1869632678,1869632712,1869632714,1869632721,1869632723,1869632727,1869632731,1871064182,1871064183,1871064225,1871064234,1871064241,1871064248,1871064331,1871064338,1871064349,1871064377,5409587129,5409587128,1871064461,5409587127,5409587126,5409587125,5409587124,5409587123,5409587122,5409587121,1871064238,1869632769],"brand":"Super U","brand:wikidata":"Q2529029","brand:wikipedia":"fr:Système U","building":"retail","name":"Super U","opening_hours":"Mo-Sa 08:45-20:00; Su 09:00-12:30","operator":"Super U","phone":"+33297414848","shop":"supermarket","source":"cadastre-dgi-fr source : Direction Générale des Finances Publiques - Cadastre. Mise à jour : 2018","website":"https://www.magasins-u.com/magasin/superu-muzillac","osm_url":"https://www.openstreetmap.org/way/176624874","osm_url_edit":"https://www.openstreetmap.org/edit?way=176624874"},"osm_area":"https://www.openstreetmap.org/?mlat=47.560188&mlon=-2.51192#map=19/47.560188/-2.51192"},{"website":"https://www.magasins-u.com/magasin/superu-magne","lon":46.31641,"lat":-0.55544,"osm":{"type":"way","id":200042529,"nodes":[2100289939,2100289921,2100289922,2100289919,2100289913,2100289915,2100289909,2100289900,2100289885,2100289886,2100289873,2100289872,2100289867,2100289853,2100289852,2100289844,2100289847,2100289857,2100289856,2100289851,2100289850,2100289860,2100289859,2100289855,2100289854,2100289890,2100289883,2100289891,2100289884,2100289895,2100289897,2100289971,2100289972,2100289969,2100289940,2100289939],"brand":"Super U","brand:wikidata":"Q2529029","brand:wikipedia":"fr:Système U","building":"retail","name":"Super U","operator":"Système U","shop":"supermarket","source":"cadastre-dgi-fr source : Direction Générale des Impôts - Cadastre. Mise à jour : 2013","osm_url":"https://www.openstreetmap.org/way/200042529","osm_url_edit":"https://www.openstreetmap.org/edit?way=200042529"},"osm_area":"https://www.openstreetmap.org/?mlat=46.31641&mlon=-0.55544#map=19/46.31641/-0.55544"},{"website":"https://www.magasins-u.com/magasin/uexpress-ambares","lon":44.926529,"lat":-0.48694,"osm":{"type":"way","id":163294615,"nodes":[1750144523,7886695261,1750144654,1750144566,1750145672,1750145316,9215918652,9215918653,7886695263,7886695262,1750144523],"addr:postcode":"33440","brand":"Super U","brand:wikidata":"Q2529029","brand:wikipedia":"en:Système U","building":"retail","contact:website":"https://www.magasins-u.com/magasin/uexpress-ambares","name":"Super U","opening_hours":"Mo-Sa 08:00-20:00; Su 09:00-12:30","phone":"0556388405","shop":"supermarket","source":"cadastre-dgi-fr source : Direction Générale des Impôts - Cadastre. Mise à jour : 2012","website":"https://www.magasins-u.com/magasin/uexpress-ambares","osm_url":"https://www.openstreetmap.org/way/163294615","osm_url_edit":"https://www.openstreetmap.org/edit?way=163294615"},"osm_area":"https://www.openstreetmap.org/?mlat=44.926529&mlon=-0.48694#map=19/44.926529/-0.48694"},{"website":"https://www.magasins-u.com/magasin/superu-puyvert","lon":43.747318,"lat":5.33637,"osm":{"type":"node","id":1793238919,"lat":43.7474794,"lon":5.3369162,"addr:city":"Puivert","addr:housename":"Centre commercial du Lubéron","addr:postcode":"84160","addr:street":"CD 973","brand":"Super U","brand:wikidata":"Q2529029","brand:wikipedia":"en:Système U","fuel":"gas","internet_access":"wlan","internet_access:fee":"no","name":"Super U","opening_hours":"Mo-Sa 09:00-19:30; Su 09:00-13:00","opening_hours:covid19":"Mo-Sa 08:00-17h45 Su 08:00-13:00","operator":"Super U","payment:cash":"yes","payment:credit_cards":"yes","phone":"+33 4 90 08 40 73","shop":"supermarket","website":"https://www.coursesu.com/f-superu-puyvert-informations","osm_url":"https://www.openstreetmap.org/node/1793238919","osm_url_edit":"https://www.openstreetmap.org/edit?node=1793238919"},"osm_area":"https://www.openstreetmap.org/?mlat=43.747318&mlon=5.33637#map=19/43.747318/5.33637"},{"website":"https://www.magasins-u.com/magasin/superu-saujon","lon":45.67971,"lat":-0.91553,"osm_area":"https://www.openstreetmap.org/?mlat=45.67971&mlon=-0.91553#map=19/45.67971/-0.91553"},{"website":"https://www.magasins-u.com/magasin/superu-malemort","lon":45.177319,"lat":1.59307,"osm":{"type":"way","id":63632332,"nodes":[787263193,787304277,787302758,787261333,10820340968,10820340970,10820340961,787292845,10820340960,10820340959,10820340958,787287492,787243983,787265076,787258153,10820340963,10820340964,10820340965,10820340966,10820340962,787263193],"brand":"Super U","brand:wikidata":"Q2529029","building":"yes","name":"Super U","operator":"SuperU","shop":"supermarket","source":"cadastre-dgi-fr source : Direction Générale des Impôts - Cadastre. Mise à jour : 2010","osm_url":"https://www.openstreetmap.org/way/63632332","osm_url_edit":"https://www.openstreetmap.org/edit?way=63632332"},"osm_area":"https://www.openstreetmap.org/?mlat=45.177319&mlon=1.59307#map=19/45.177319/1.59307"},{"website":"https://www.magasins-u.com/magasin/uexpress-versailles","lon":48.809048,"lat":2.133497,"osm":{"type":"node","id":1989413807,"lat":48.8091473,"lon":2.1333864,"addr:city":"Versailles","addr:housenumber":"45","addr:postcode":"78000","addr:street":"Rue du Maréchal Foch","brand":"U Express","brand:wikidata":"Q2529029","brand:wikipedia":"en:Système U","check_date:opening_hours":"2022-03-21","contact:website":"https://www.magasins-u.com/magasin/uexpress-versailles","name":"U Express","opening_hours":"Mo-Sa 08:30-20:30; Su 09:00-12:50","opening_hours:covid19":"Su 09:00-12:50; Mo-Sa 08:30-20:30","operator":"Super U","payment:cash":"yes","payment:cheque":"yes","payment:coins":"yes","payment:contactless":"yes","payment:credit_cards":"yes","shop":"supermarket","wheelchair":"yes","website":"https://www.magasins-u.com/magasin/uexpress-versailles","osm_url":"https://www.openstreetmap.org/node/1989413807","osm_url_edit":"https://www.openstreetmap.org/edit?node=1989413807"},"osm_area":"https://www.openstreetmap.org/?mlat=48.809048&mlon=2.133497#map=19/48.809048/2.133497"},{"website":"https://www.magasins-u.com/magasin/superu-loudun","lon":47.001362,"lat":0.06849,"osm_area":"https://www.openstreetmap.org/?mlat=47.001362&mlon=0.06849#map=19/47.001362/0.06849"},{"website":"https://www.magasins-u.com/magasin/superu-laravoire","lon":45.5625,"lat":5.96566,"osm":{"type":"way","id":111453160,"nodes":[1269791643,8402044003,1269791613,1269791681,8402044010,8402044011,9585160736,9599510758,9599510756,8402044012,1269791804,1269791776,1269791644,1269791616,1269791736,1269791741,1269791740,1269791733,1269791739,1269791774,8402043999,8402044000,8402044001,8402044002,8402043997,8402043996,8402043995,1269791643],"brand":"Super U","brand:wikidata":"Q2529029","brand:wikipedia":"en:Système U","building":"retail","name":"Super U","operator":"Système U","recycling:batteries":"yes","shop":"supermarket","source":"cadastre-dgi-fr source : Direction Générale des Impôts - Cadastre. Mise à jour : 2011","osm_url":"https://www.openstreetmap.org/way/111453160","osm_url_edit":"https://www.openstreetmap.org/edit?way=111453160"},"osm_area":"https://www.openstreetmap.org/?mlat=45.5625&mlon=5.96566#map=19/45.5625/5.96566"},{"website":"https://www.magasins-u.com/magasin/uexpress-parismontreuil","lon":48.8508,"lat":2.395107,"osm":{"type":"way","id":63644485,"nodes":[787348167,787330813,1334007217,787363201,1334006755,787320537,787324313,787351379,787380011,787362565,787406242,787362109,787348167],"brand":"U Express","brand:wikidata":"Q2529029","brand:wikipedia":"en:Système U","building":"apartments","contact:website":"https://www.magasins-u.com/magasin/uexpress-parismontreuil","name":"U Express","opening_hours":"Mo-Sa 08:30-21:00, Su 09:00-13:00","operator":"Système U","shop":"supermarket","source":"cadastre-dgi-fr source : Direction Générale des Impôts - Cadastre. Mise à jour : 2010","supermarket":"yes","supermarket:FR":"supermarché","wheelchair":"yes","website":"https://www.magasins-u.com/magasin/uexpress-parismontreuil","osm_url":"https://www.openstreetmap.org/way/63644485","osm_url_edit":"https://www.openstreetmap.org/edit?way=63644485"},"osm_area":"https://www.openstreetmap.org/?mlat=48.8508&mlon=2.395107#map=19/48.8508/2.395107"},{"website":"https://www.magasins-u.com/magasin/hyperu-sainthilairederiez","lon":46.711449,"lat":-1.96159,"osm":{"type":"way","id":86662372,"nodes":[1007619721,1007532835,7312084258,7312084257,1007436312,1007778564,7312084256,7312084255,1007687846,1007611163,1007737426,1007768481,1007668523,1007730390,1007649464,1007569994,1007825284,1007697585,1007623349,1007862557,1007657852,1007579045,1007484880,1007838913,1007716130,1007635000,1007619721],"addr:city":"Saint-Hilaire-de-Riez","brand":"Hyper U","brand:wikidata":"Q2529029","brand:wikipedia":"fr:Système U","building":"retail","name":"Hyper U Saint-Hilaire de Riez","operator":"Système U","shop":"supermarket","source":"cadastre-dgi-fr source : Direction Générale des Impôts - Cadastre. Mise à jour : 2010","osm_url":"https://www.openstreetmap.org/way/86662372","osm_url_edit":"https://www.openstreetmap.org/edit?way=86662372"},"osm_area":"https://www.openstreetmap.org/?mlat=46.711449&mlon=-1.96159#map=19/46.711449/-1.96159"},{"website":"https://www.magasins-u.com/magasin/superu-broons","lon":48.31654,"lat":-2.25013,"osm":{"type":"node","id":1425023038,"lat":48.3163145,"lon":-2.2509944,"addr:housenumber":"3","addr:postcode":"22250","addr:street":"Rue du Levant","brand":"Super U","brand:wikidata":"Q2529029","brand:wikipedia":"fr:Système U","contact:phone":"+33 2 96 84 68 93","name":"Super U","opening_hours":"Mo-Sa 09:00-19:30; Su 09:00-12:30","operator":"Super U","shop":"supermarket","website":"https://www.magasins-u.com/magasin/superu-broons","osm_url":"https://www.openstreetmap.org/node/1425023038","osm_url_edit":"https://www.openstreetmap.org/edit?node=1425023038"},"osm_area":"https://www.openstreetmap.org/?mlat=48.31654&mlon=-2.25013#map=19/48.31654/-2.25013"},{"website":"https://www.magasins-u.com/magasin/uexpress-nieulledolent","lon":46.571159,"lat":-1.50917,"osm":{"type":"way","id":182848494,"nodes":[1932132197,1932132191,1932132208,1932132428,1932132447,1932132408,3774956111,3774956110,3774956109,3774956108,3774956107,3774956106,3774956105,3774956104,3774956103,1932132266,1932132197],"brand":"Super U","brand:wikidata":"Q2529029","brand:wikipedia":"en:Système U","building":"retail","contact:website":"https://www.magasins-u.com/magasin/uexpress-nieulledolent","name":"Super U","shop":"supermarket","source":"cadastre-dgi-fr source : Direction Générale des Impôts - Cadastre. Mise à jour : 2012","wheelchair":"limited","website":"https://www.magasins-u.com/magasin/uexpress-nieulledolent","osm_url":"https://www.openstreetmap.org/way/182848494","osm_url_edit":"https://www.openstreetmap.org/edit?way=182848494"},"osm_area":"https://www.openstreetmap.org/?mlat=46.571159&mlon=-1.50917#map=19/46.571159/-1.50917"},{"website":"https://www.magasins-u.com/magasin/uexpress-lahayepesnel","lon":48.796841,"lat":-1.39792,"osm":{"type":"way","id":697906409,"nodes":[1401562845,11100216659,1401558294,4358709869,1401557542,1401559316,11100338009,1401558656,1401561116,1401559947,1401556454,1401556728,1401558849,1401558083,11100216657,1401562845],"brand":"U Express","brand:wikidata":"Q2529029","brand:wikipedia":"fr:Système U","building":"retail","name":"U Express","opening_hours":"Mo-Sa 08:30-19:30; Su 08:30-12:30","operator":"Super U","shop":"supermarket","source":"cadastre-dgi-fr source : Direction Générale des Impôts - Cadastre. Mise à jour : 2011","supermarket":"yes","supermarket:FR":"supermarché","osm_url":"https://www.openstreetmap.org/way/697906409","osm_url_edit":"https://www.openstreetmap.org/edit?way=697906409"},"osm_area":"https://www.openstreetmap.org/?mlat=48.796841&mlon=-1.39792#map=19/48.796841/-1.39792"},{"website":"https://www.magasins-u.com/magasin/hyperu-saintave","lon":47.683769,"lat":-2.76437,"osm":{"type":"way","id":171625001,"nodes":[1826191550,1826191604,1826191672,1826191678,1826192048,1826192300,1826192494,1826192426,1826193200,1826193211,1826193490,1826193573,1826194009,1826194122,1826194146,1826194486,1826194462,1826194546,1826194493,1826194134,1826193981,1826193932,11292933684,1826193680,1826193640,1826193614,1826192710,11292933685,1826192147,1826192155,1826190095,1826189657,1826189618,1826189034,11292933686,11292933687,11292933688,1826188053,1826188898,1826189330,11292933689,11292933690,10803955492,1826189557,1826190177,1826190392,1826190493,1826191120,1826191550],"addr:street":"Route de Pontivy","brand":"Hyper U","brand:website":"https://www.magasins-u.com/","brand:wikidata":"Q2529029","brand:wikipedia":"fr:Système U","building":"retail","name":"Hyper U","phone":"+33 2 97 47 61 62","shop":"supermarket","source":"cadastre-dgi-fr source : Direction Générale des Impôts - Cadastre. Mise à jour : 2012","website":"https://www.magasins-u.com/magasin/hyperu-saintave","wheelchair":"yes","osm_url":"https://www.openstreetmap.org/way/171625001","osm_url_edit":"https://www.openstreetmap.org/edit?way=171625001"},"osm_area":"https://www.openstreetmap.org/?mlat=47.683769&mlon=-2.76437#map=19/47.683769/-2.76437"},{"website":"https://www.magasins-u.com/magasin/superu-nogent","lon":48.033569,"lat":5.34961,"osm_area":"https://www.openstreetmap.org/?mlat=48.033569&mlon=5.34961#map=19/48.033569/5.34961"},{"website":"https://www.magasins-u.com/magasin/hyperu-lesherbiers","lon":46.874409,"lat":-1.0265,"osm":{"type":"way","id":76527441,"nodes":[901862906,901640739,901810100,901819639,901661538,7491994346,901884332,901705076,901864319,901845548,901811071,901891892,901605430,901887584,901859975,901728068,901776468,1818715625,901814114,1818715623,901800138,11124759926,11125078758,11124759928,11124759924,11124759927,11125078757,11124759925,11124759920,11125078759,11124759919,11125078760,11125078772,11125078771,11125078775,11125078774,11125078776,11125078777,11125078773,11125078769,901774311,901580501,901751642,901870924,901776508,901791321,901858961,901649768,901855210,901832030,901868591,901805261,901751193,901797142,901847926,901639782,901615202,901575906,901725449,901836404,901839924,901760640,901840751,901902754,901904380,11125078765,6181327050,11125078768,901881520,11125078764,901699069,11125078767,11125078762,901764797,901592775,901708772,901810014,901716669,901747355,901804307,901657556,901801963,901604879,901813712,7491994351,901862906],"addr:city":"Les Herbiers","addr:postcode":"85500","brand":"Hyper U","brand:wikidata":"Q2529029","brand:wikipedia":"en:Système U","building":"retail","name":"Hyper U","shop":"supermarket","source":"cadastre-dgi-fr source : Direction Générale des Impôts - Cadastre. Mise à jour : 2010","osm_url":"https://www.openstreetmap.org/way/76527441","osm_url_edit":"https://www.openstreetmap.org/edit?way=76527441"},"osm_area":"https://www.openstreetmap.org/?mlat=46.874409&mlon=-1.0265#map=19/46.874409/-1.0265"},{"website":"https://www.magasins-u.com/magasin/superu-talange","lon":49.24123,"lat":6.1725,"osm":{"type":"node","id":2430333247,"lat":49.2409745,"lon":6.172408,"brand":"Super U","brand:wikidata":"Q2529029","brand:wikipedia":"fr:Système U","contact:website":"https://www.magasins-u.com/magasin/superu-talange","dog":"no","name":"Super U","operator":"Système U","shop":"supermarket","website":"https://www.magasins-u.com/magasin/superu-talange","osm_url":"https://www.openstreetmap.org/node/2430333247","osm_url_edit":"https://www.openstreetmap.org/edit?node=2430333247"},"osm_area":"https://www.openstreetmap.org/?mlat=49.24123&mlon=6.1725#map=19/49.24123/6.1725"},{"website":"https://www.magasins-u.com/magasin/superu-latranchesurmer","lon":46.351711,"lat":-1.43076,"osm":{"type":"way","id":299846614,"nodes":[10652324303,11654494367,3039294020,3039294021,3039294023,3039294014,3039294011,3039294003,3039294008,1263893815,3039294025,3039294026,3039294031,10652324303],"branch":"La Tranche Sur Mer","brand":"Super U","brand:wikidata":"Q2529029","brand:wikipedia":"fr:Système U","building":"retail","contact:website":"http://www.magasins-u.com/superu-latranchesurmer","name":"Super U","operator":"Magasin U","shop":"supermarket","source":"cadastre-dgi-fr source : Direction Générale des Impôts - Cadastre. Mise à jour : 2011","website":"http://www.magasins-u.com/superu-latranchesurmer","osm_url":"https://www.openstreetmap.org/way/299846614","osm_url_edit":"https://www.openstreetmap.org/edit?way=299846614"},"osm_area":"https://www.openstreetmap.org/?mlat=46.351711&mlon=-1.43076#map=19/46.351711/-1.43076"},{"website":"https://www.magasins-u.com/magasin/superu-parigneleveque","lon":47.940319,"lat":0.35576,"osm":{"type":"way","id":203405158,"nodes":[2134164429,4081706962,2134164512,2134164516,2134164518,2134164522,2134164524,2134164528,2134164531,2134164532,2134164533,2134164536,2134164542,2134164546,2134164548,2134164556,2134164557,2134164561,2134164550,2134164576,2134164580,2134164584,2134164588,2134164590,2134164592,2134164594,2134164599,2134164597,2134164595,2134164593,2134164589,2134164587,2134164582,2134164578,2134164574,2134164559,2134164552,2134164544,2134164632,2134164505,2134164603,2134164607,2134164615,2134164620,2134164626,2134164629,2134164634,2134164636,2134164642,2134164651,2134164653,2134164655,2134164660,2134164664,2134164666,2134164662,2134164658,2134164654,2134164652,2134164650,2134164640,2134164638,2134164630,2134164627,2134164622,2134164617,2134164613,2134164609,2134164563,2134164539,2134164529,2134164520,2134164471,2134164449,2134164420,2134164428,2134164408,2134164435,2134164430,2134164414,2134164389,2134164376,2134164339,2134164346,2134164301,2134164310,2134164181,2134164191,2134164322,2134164323,2134164324,2134164326,2134164337,2134164342,2134164348,2134164352,2134164354,2134164360,2134164361,2134164363,2134164364,2134164368,2134164371,2134164373,2134164375,2134164378,2134164380,2134164383,2134164384,2134164387,2134164392,2134164393,2134164395,2134164396,2134164399,2134164403,2134164405,2134164411,2134164412,2134164413,2134164419,2134164421,2134164422,2134164424,2134164426,2134164429],"brand":"Super U","brand:wikidata":"Q2529029","brand:wikipedia":"fr:Système U","building":"retail","name":"Super U","operator":"Système U","shop":"supermarket","source":"cadastre-dgi-fr source : Direction Générale des Impôts - Cadastre. Mise à jour : 2012","wheelchair":"yes","osm_url":"https://www.openstreetmap.org/way/203405158","osm_url_edit":"https://www.openstreetmap.org/edit?way=203405158"},"osm_area":"https://www.openstreetmap.org/?mlat=47.940319&mlon=0.35576#map=19/47.940319/0.35576"},{"website":"https://www.magasins-u.com/magasin/superu-masseube","lon":43.442402,"lat":0.57879,"osm_area":"https://www.openstreetmap.org/?mlat=43.442402&mlon=0.57879#map=19/43.442402/0.57879"},{"website":"https://www.magasins-u.com/magasin/superu-rosporden","lon":47.96455,"lat":-3.85154,"osm":{"type":"way","id":82180413,"nodes":[956809841,956854410,956800052,956790953,956813619,956788356,956844563,956830532,956832670,956848074,956842536,956804831,956791239,956800049,956827956,956796665,956800314,956846895,956814137,956802862,956842855,956789484,956824851,956809225,956839672,956826182,956837851,956809841],"brand":"Super U","brand:wikidata":"Q2529029","building":"retail","name":"Super U","shop":"supermarket","source":"cadastre-dgi-fr source : Direction Générale des Impôts - Cadastre. Mise à jour : 2010","osm_url":"https://www.openstreetmap.org/way/82180413","osm_url_edit":"https://www.openstreetmap.org/edit?way=82180413"},"osm_area":"https://www.openstreetmap.org/?mlat=47.96455&mlon=-3.85154#map=19/47.96455/-3.85154"},{"website":"https://www.magasins-u.com/magasin/superu-saintbarthcoeurdeville","lon":47.467651,"lat":-0.49479,"osm":{"type":"node","id":612038253,"lat":47.4677138,"lon":-0.4947091,"brand":"Super U","brand:wikidata":"Q2529029","brand:wikipedia":"fr:Système U","name":"Super U","opening_hours":"Mo-Sa 08:30-20:00","opening_hours:covid19":"Mo-Sa 08:30-19:00","operator":"Super U","shop":"supermarket","source":"cadastre-dgi-fr source : Direction Générale des Impôts - Cadastre. Mise à jour : 2010","website":"https://www.magasins-u.com/magasin/superu-saintbarthcoeurdeville","wheelchair":"yes","osm_url":"https://www.openstreetmap.org/node/612038253","osm_url_edit":"https://www.openstreetmap.org/edit?node=612038253"},"osm_area":"https://www.openstreetmap.org/?mlat=47.467651&mlon=-0.49479#map=19/47.467651/-0.49479"},{"website":"https://www.magasins-u.com/magasin/uexpress-borgo","lon":42.562519,"lat":9.44171,"osm":{"type":"way","id":282515373,"nodes":[2864619113,2864619123,2864619092,2864619088,2864619082,2864619056,2864619043,2864619017,2864619006,2864618770,2864618758,2864618792,2864618779,2864619022,2864619009,2864619096,2864619103,2864619138,2864619164,2864619134,2864619144,2864619113],"brand":"U Express","brand:wikidata":"Q2529029","building":"retail","name":"U Express","old_name":"Coccinelle","shop":"supermarket","source":"cadastre-dgi-fr source : Direction Générale des Finances Publiques - Cadastre. Mise à jour : 2020","supermarket":"yes","supermarket:FR":"supermarché","osm_url":"https://www.openstreetmap.org/way/282515373","osm_url_edit":"https://www.openstreetmap.org/edit?way=282515373"},"osm_area":"https://www.openstreetmap.org/?mlat=42.562519&mlon=9.44171#map=19/42.562519/9.44171"},{"website":"https://www.magasins-u.com/magasin/uexpress-senas","lon":43.746101,"lat":5.07685,"osm":{"type":"way","id":86427222,"nodes":[1004150079,1004175351,1004131218,1004131404,1004150002,1004169722,1004145641,1004124114,1004135780,1004157466,1004174607,1004142064,1004150079],"brand":"U Express","brand:wikidata":"Q2529029","brand:wikipedia":"en:Système U","building":"retail","contact:facebook":"uexpresssenas","name":"U Express","opening_hours":"Mo-Sa 08:00-19:30; Su 08:00-13:00","payment:cash":"yes","payment:coins":"yes","payment:mastercard":"yes","payment:visa":"yes","phone":"+33609985897","shop":"supermarket","source":"cadastre-dgi-fr source : Direction Générale des Impôts - Cadastre. Mise à jour : 2010","supermarket":"yes","supermarket:FR":"supermarché","website":"https://www.magasins-u.com/magasin/uexpress-senas","osm_url":"https://www.openstreetmap.org/way/86427222","osm_url_edit":"https://www.openstreetmap.org/edit?way=86427222"},"osm_area":"https://www.openstreetmap.org/?mlat=43.746101&mlon=5.07685#map=19/43.746101/5.07685"},{"website":"https://www.magasins-u.com/magasin/superu-carnac","lon":47.574909,"lat":-3.060309,"osm":{"type":"way","id":94002365,"nodes":[1092637722,1092746620,1092673929,1092533291,1092565431,1092662401,1092606747,1092710331,2392910066,1092741892,1092596172,1092521289,1092627698,452666660,1092509175,1092696098,1092553725,1092586383,1092637722],"addr:housenumber":"188","addr:street":"Avenue des Druides","brand":"Super U","brand:wikidata":"Q2529029","brand:wikipedia":"fr:Système U","building":"retail","name":"Super U","opening_hours":"Mo-Sa 08:30-20:00; Su 08:30-13:00","opening_hours:covid19":"Mo-Sa 09:00-19:30; Su 09:30-12:30","operator":"Système U","shop":"supermarket","source":"cadastre-dgi-fr source : Direction Générale des Impôts - Cadastre. Mise à jour : 2010","supermarket":"yes","supermarket:FR":"supermarché","osm_url":"https://www.openstreetmap.org/way/94002365","osm_url_edit":"https://www.openstreetmap.org/edit?way=94002365"},"osm_area":"https://www.openstreetmap.org/?mlat=47.574909&mlon=-3.060309#map=19/47.574909/-3.060309"},{"website":"https://www.magasins-u.com/magasin/uexpress-gavray","lon":48.913422,"lat":-1.35355,"osm":{"type":"way","id":198173984,"nodes":[2083438681,2083438658,2083438612,2083438623,2083438681],"brand":"Marché U","brand:wikidata":"Q2529029","building":"retail","name":"Marché U","operator":"Système U","shop":"supermarket","source":"cadastre-dgi-fr source : Direction Générale des Impôts - Cadastre. Mise à jour : 2012","wall":"no","osm_url":"https://www.openstreetmap.org/way/198173984","osm_url_edit":"https://www.openstreetmap.org/edit?way=198173984"},"osm_area":"https://www.openstreetmap.org/?mlat=48.913422&mlon=-1.35355#map=19/48.913422/-1.35355"},{"website":"https://www.magasins-u.com/magasin/uexpress-commequiers","lon":46.761349,"lat":-1.83695,"osm":{"type":"way","id":88572281,"nodes":[1028597816,1028428668,1028458119,1028527992,1028565245,1028597131,1028426494,1028412699,1028445404,1028470581,1028490120,1028597816],"brand":"U Express","brand:wikidata":"Q2529029","brand:wikipedia":"fr:Système U","building":"retail","name":"U Express Commequiers","shop":"supermarket","source":"cadastre-dgi-fr source : Direction Générale des Impôts - Cadastre. Mise à jour : 2010","supermarket":"yes","supermarket:FR":"supermarché","osm_url":"https://www.openstreetmap.org/way/88572281","osm_url_edit":"https://www.openstreetmap.org/edit?way=88572281"},"osm_area":"https://www.openstreetmap.org/?mlat=46.761349&mlon=-1.83695#map=19/46.761349/-1.83695"},{"website":"https://www.magasins-u.com/magasin/superu-saintsylvaindanjou","lon":47.513973,"lat":-0.474016,"osm":{"type":"way","id":85337676,"nodes":[989198776,989291899,989167042,989317258,7057262960,7057262962,7057262963,7057262961,7057262964,7057262954,7057262965,7057262966,989199162,989245061,7057262972,7057262971,989226331,989368905,989163196,7057262973,6859712798,989281655,989162331,989322322,989300075,989164363,989241556,989208587,7057262970,7057262967,7057262968,7057262969,989235066,989346252,989327741,989268008,989315466,989176150,989220614,989158217,989238412,989203613,989214072,989207782,989238528,989275842,989334296,989239819,989359350,989225510,989363728,989302378,989158407,989241792,989158704,989238452,989312625,989236252,989281297,989275555,989162625,989271261,989198776],"brand":"Super U","brand:wikidata":"Q2529029","brand:wikipedia":"en:Système U","building":"retail","name":"Super U","operator":"Système U","shop":"supermarket","source":"cadastre-dgi-fr source : Direction Générale des Finances Publiques - Cadastre. Mise à jour : 2019","osm_url":"https://www.openstreetmap.org/way/85337676","osm_url_edit":"https://www.openstreetmap.org/edit?way=85337676"},"osm_area":"https://www.openstreetmap.org/?mlat=47.513973&mlon=-0.474016#map=19/47.513973/-0.474016"},{"website":"https://www.magasins-u.com/magasin/superu-lhorme","lon":45.483688,"lat":4.53306,"osm":{"type":"node","id":11109655578,"lat":45.4834657,"lon":4.5326413,"brand":"Super U","drive_through":"only","name":"U Drive","not:brand:wikidata":"Q2529029","shop":"supermarket","website":"https://www.magasins-u.com/magasin/superu-lhorme.m66090","osm_url":"https://www.openstreetmap.org/node/11109655578","osm_url_edit":"https://www.openstreetmap.org/edit?node=11109655578"},"osm_area":"https://www.openstreetmap.org/?mlat=45.483688&mlon=4.53306#map=19/45.483688/4.53306"},{"website":"https://www.magasins-u.com/magasin/uexpress-solenzara","lon":41.809106,"lat":9.399562,"osm_area":"https://www.openstreetmap.org/?mlat=41.809106&mlon=9.399562#map=19/41.809106/9.399562"},{"website":"https://www.magasins-u.com/magasin/uexpress-saintsymphoriendozon","lon":45.633289,"lat":4.85611,"osm":{"type":"node","id":9926174805,"lat":45.6330466,"lon":4.8565577,"brand":"U Express","brand:wikidata":"Q2529029","name":"U Express","opening_hours":"Mo-Sa 09:00-20:00; Su 09:00-13:00","phone":"+33 4 28 29 98 60","shop":"supermarket","website":"https://www.magasins-u.com/magasin/uexpress-saintsymphoriendozon","osm_url":"https://www.openstreetmap.org/node/9926174805","osm_url_edit":"https://www.openstreetmap.org/edit?node=9926174805"},"osm_area":"https://www.openstreetmap.org/?mlat=45.633289&mlon=4.85611#map=19/45.633289/4.85611"},{"website":"https://www.magasins-u.com/magasin/superu-pouilleylesvignes","lon":47.255798,"lat":5.92635,"osm":{"type":"way","id":91337853,"nodes":[1060356013,1060356569,185842121,6217288827,1060360835,1060367779,6217288802,6217288804,1060367723,1060368100,1060373697,9373333037,1060360518,1060353662,1060372217,1060371472,185842071,1060367669,1060372440,1060369002,1060360903,1060353248,1060357331,1060371677,1060375430,1060363473,1060373608,1060370501,1060367577,1060357584,1060354541,185842125,1060371403,1060358933,1060373051,1060367683,1060353647,1060356013],"brand":"Super U","brand:wikidata":"Q2529029","brand:wikipedia":"en:Système U","building":"store","name":"Super U","operator":"Système U","shop":"supermarket","source":"cadastre-dgi-fr source : Direction Générale des Impôts - Cadastre. Mise à jour : 2010","osm_url":"https://www.openstreetmap.org/way/91337853","osm_url_edit":"https://www.openstreetmap.org/edit?way=91337853"},"osm_area":"https://www.openstreetmap.org/?mlat=47.255798&mlon=5.92635#map=19/47.255798/5.92635"},{"website":"https://www.magasins-u.com/magasin/superu-hoenheim","lon":48.631279,"lat":7.76406,"osm":{"type":"way","id":58495028,"nodes":[725093332,725093335,725093337,725093328,725093340,725093304,725093311,725093305,725093306,725093299,725093318,725093314,725093301,725093312,725093315,725093302,725093295,725093297,8258240526,725093283,725093285,725093286,725093290,725093289,725093279,725093326,725093325,725093332],"brand":"Super U","brand:wikidata":"Q2529029","brand:wikipedia":"en:Système U","building":"retail","contact:website":"https://www.magasins-u.com/magasin/superu-hoenheim","name":"Super U","opening_hours":"Mo-Sa 08:00-20:00","operator":"Système U","shop":"supermarket","source":"Direction Générale des Finances Publiques - Cadastre ; mise à jour : 2010","website":"https://www.magasins-u.com/magasin/superu-hoenheim","osm_url":"https://www.openstreetmap.org/way/58495028","osm_url_edit":"https://www.openstreetmap.org/edit?way=58495028"},"osm_area":"https://www.openstreetmap.org/?mlat=48.631279&mlon=7.76406#map=19/48.631279/7.76406"},{"website":"https://www.magasins-u.com/magasin/superu-boucbelair","lon":43.441292,"lat":5.39774,"osm":{"type":"way","id":92764045,"nodes":[1075723615,1075629190,1075671549,1075683725,1075737809,1075598768,1075637092,1075808840,5632199508,1075618000,5632199506,1075694070,6241762894,6241762893,6241762892,6241762890,6241762891,6241762895,6241762896,1075723615],"brand":"Super U","brand:wikidata":"Q2529029","brand:wikipedia":"fr:Système U","building":"retail","name":"Super U","shop":"supermarket","source":"cadastre-dgi-fr source : Direction Générale des Impôts - Cadastre. Mise à jour : 2010","osm_url":"https://www.openstreetmap.org/way/92764045","osm_url_edit":"https://www.openstreetmap.org/edit?way=92764045"},"osm_area":"https://www.openstreetmap.org/?mlat=43.441292&mlon=5.39774#map=19/43.441292/5.39774"},{"website":"https://www.magasins-u.com/magasin/uexpress-beaucourt","lon":47.4898,"lat":6.92002,"osm":{"type":"way","id":192904466,"nodes":[2034432590,2034432632,2034432503,2034432600,2034432795,2034432807,2034432834,2034432828,2034432877,2034432902,2034432905,5173688257,2034432933,2034432932,2034432931,2034432930,2034432913,2034432940,2034432910,2034432952,2034432892,2034432969,2034432706,2034432675,2034432661,2034432590],"brand":"Super U","brand:wikidata":"Q2529029","brand:wikipedia":"fr:Système U","building":"retail","name":"Super U","shop":"supermarket","source":"cadastre-dgi-fr source : Direction Générale des Impôts - Cadastre. Mise à jour : 2012","osm_url":"https://www.openstreetmap.org/way/192904466","osm_url_edit":"https://www.openstreetmap.org/edit?way=192904466"},"osm_area":"https://www.openstreetmap.org/?mlat=47.4898&mlon=6.92002#map=19/47.4898/6.92002"},{"website":"https://www.magasins-u.com/magasin/uexpress-rennesliberte","lon":48.108051,"lat":-1.682363,"osm":{"type":"way","id":44052431,"nodes":[560009414,6629348782,4225482242,560009456,560009478,560009458,560009460,560009438,560009439,560009443,560009422,4225489417,560009358,6020733640,560009354,560009361,560009364,560009416,560009412,560009414],"addr:city":"Rennes","addr:housenumber":"44","addr:postcode":"35000","addr:street":"Boulevard de la Liberté","brand":"U Express","brand:wikidata":"Q2529029","brand:wikipedia":"fr:Système U","building":"retail","bulk_purchase":"yes","check_date:opening_hours":"2023-09-21","drive_through":"no","name":"U Express Rennes Liberté","opening_hours":"Mo-Sa 08:00-21:00; Su 09:00-13:00","operator":"Emadis","organic":"yes","payment:cash":"yes","payment:credit_cards":"yes","phone":"+33 2 99 53 53 63","ref:FR:SIRET":"75316672700010","shop":"supermarket","source":"cadastre-dgi-fr source : Direction Générale des Impôts - Cadastre;mise à jour : 2009","supermarket":"yes","supermarket:FR":"supermarché","website":"https://www.magasins-u.com/magasin/uexpress-rennesliberte","wheelchair":"yes","osm_url":"https://www.openstreetmap.org/way/44052431","osm_url_edit":"https://www.openstreetmap.org/edit?way=44052431"},"osm_area":"https://www.openstreetmap.org/?mlat=48.108051&mlon=-1.682363#map=19/48.108051/-1.682363"},{"website":"https://www.magasins-u.com/magasin/uexpress-bessancourt","lon":49.04348,"lat":2.206105,"osm":{"type":"way","id":103347086,"nodes":[1193426221,1193504714,1193418948,1193435269,1193453091,1193476668,1193464170,1193482314,1193494485,1193464432,1193489358,1193498568,1193509632,1193426221],"addr:city":"Bessancourt","addr:housenumber":"116 TER","addr:postcode":"95550","addr:street":"Avenue de la République","branch":"Bessancourt","brand":"U Express","brand:wikidata":"Q2529029","building":"retail","name":"U Express","opening_hours":"Mo-Sa 09:00-19:45; Su 09:00-12:45","phone":"+33 130402479","shop":"supermarket","source":"cadastre-dgi-fr source : Direction Générale des Impôts - Cadastre. Mise à jour : 2011","website":"https://www.magasins-u.com/magasin/uexpress-bessancourt","osm_url":"https://www.openstreetmap.org/way/103347086","osm_url_edit":"https://www.openstreetmap.org/edit?way=103347086"},"osm_area":"https://www.openstreetmap.org/?mlat=49.04348&mlon=2.206105#map=19/49.04348/2.206105"},{"website":"https://www.magasins-u.com/magasin/uexpress-dijon","lon":47.307205,"lat":5.0584,"osm":{"type":"node","id":256035615,"lat":47.3075691,"lon":5.0578797,"addr:city":"Dijon","addr:housenumber":"1","addr:postcode":"21000","addr:street":"Rue Albert et André Claudot","brand":"U Express","brand:wikidata":"Q2529029","brand:wikipedia":"en:Système U","name":"U Express","opening_hours":"Mo-Sa 08:30-19:30; Su 09:00-12:30","operator":"Système U","payment:cash":"yes","payment:coins":"yes","payment:credit_cards":"yes","phone":"+33 3 80 67 51 80","shop":"supermarket","website":"https://www.magasins-u.com/magasin/uexpress-dijon","osm_url":"https://www.openstreetmap.org/node/256035615","osm_url_edit":"https://www.openstreetmap.org/edit?node=256035615"},"osm_area":"https://www.openstreetmap.org/?mlat=47.307205&mlon=5.0584#map=19/47.307205/5.0584"},{"website":"https://www.magasins-u.com/magasin/superu-pineuilh","lon":44.841919,"lat":0.22878,"osm_area":"https://www.openstreetmap.org/?mlat=44.841919&mlon=0.22878#map=19/44.841919/0.22878"},{"website":"https://www.magasins-u.com/magasin/superu-pleurtuit","lon":48.585701,"lat":-2.061,"osm_area":"https://www.openstreetmap.org/?mlat=48.585701&mlon=-2.061#map=19/48.585701/-2.061"},{"website":"https://www.magasins-u.com/magasin/superu-laiguillonsurmer","lon":46.331959,"lat":-1.29142,"osm":{"type":"node","id":950119903,"lat":46.3320502,"lon":-1.291358,"brand":"Super U","brand:wikidata":"Q2529029","brand:wikipedia":"fr:Système U","name":"Super U","operator":"Super U","shop":"supermarket","osm_url":"https://www.openstreetmap.org/node/950119903","osm_url_edit":"https://www.openstreetmap.org/edit?node=950119903"},"osm_area":"https://www.openstreetmap.org/?mlat=46.331959&mlon=-1.29142#map=19/46.331959/-1.29142"},{"website":"https://www.magasins-u.com/magasin/superu-chateaubourg","lon":48.1091,"lat":-1.38825,"osm":{"type":"way","id":82942327,"nodes":[964994608,965051622,965031454,965078970,965035690,965067796,965071683,965053381,965016222,965038596,965010839,965055623,965016975,965011093,965061857,965056607,965001655,964993933,964993011,965061762,965052113,965046359,965063971,965054965,965011723,964994608],"brand":"Super U","brand:wikidata":"Q2529029","brand:wikipedia":"fr:Système U","building":"commercial","contact:website":"https://www.magasins-u.com/magasin/superu-chateaubourg","height":"16","name":"Super U","operator":"Système U","shop":"supermarket","source":"cadastre-dgi-fr source : Direction Générale des Impôts - Cadastre. Mise à jour : 2010","website":"https://www.magasins-u.com/magasin/superu-chateaubourg","osm_url":"https://www.openstreetmap.org/way/82942327","osm_url_edit":"https://www.openstreetmap.org/edit?way=82942327"},"osm_area":"https://www.openstreetmap.org/?mlat=48.1091&mlon=-1.38825#map=19/48.1091/-1.38825"},{"website":"https://www.magasins-u.com/magasin/uexpress-saintpierre","lon":14.74156,"lat":-61.176182,"osm_area":"https://www.openstreetmap.org/?mlat=14.74156&mlon=-61.176182#map=19/14.74156/-61.176182"},{"website":"https://www.magasins-u.com/magasin/superu-gemozac","lon":45.575192,"lat":-0.6781,"osm":{"type":"way","id":123012849,"nodes":[1373074712,3465634103,3465634102,3465634104,1373074944,1373075016,3465634107,3465634108,3465634109,1373075024,1373075048,1373075058,1373075066,1373075103,1373075123,1373075126,1373075133,1373075141,1373075145,1373075152,1373075156,1373075159,1373075308,1373075185,1373075251,8816850842,8816857962,8816857961,1373075148,1373075035,1373075055,1373075021,1373075009,1373074985,1373075004,1373074988,1373074963,1373074833,1373074890,1373074763,1373074789,1373074706,1373074712],"brand":"Super U","brand:wikidata":"Q2529029","brand:wikipedia":"en:Système U","building":"retail","name":"Super U","operator":"Système U","shop":"supermarket","source":"cadastre-dgi-fr source : Direction Générale des Impôts - Cadastre. Mise à jour : 2011","osm_url":"https://www.openstreetmap.org/way/123012849","osm_url_edit":"https://www.openstreetmap.org/edit?way=123012849"},"osm_area":"https://www.openstreetmap.org/?mlat=45.575192&mlon=-0.6781#map=19/45.575192/-0.6781"},{"website":"https://www.magasins-u.com/magasin/superu-montarnaud","lon":43.642761,"lat":3.69571,"osm":{"type":"way","id":767489649,"nodes":[7165975547,7165975546,7165975537,7165975535,7165975541,7165975539,7165975529,7165975527,7165975533,7165975531,7165975521,7165975519,7165975525,7165975523,7165975513,7165975547],"brand":"Super U","brand:wikidata":"Q2529029","brand:wikipedia":"fr:Système U","building":"retail","name":"Super U","operator":"Système U","shop":"supermarket","source":"cadastre-dgi-fr source : Direction Générale des Impôts - Cadastre. Mise à jour : 2011","osm_url":"https://www.openstreetmap.org/way/767489649","osm_url_edit":"https://www.openstreetmap.org/edit?way=767489649"},"osm_area":"https://www.openstreetmap.org/?mlat=43.642761&mlon=3.69571#map=19/43.642761/3.69571"},{"website":"https://www.magasins-u.com/magasin/hyperu-rumilly","lon":45.855869,"lat":5.94785,"osm":{"type":"node","id":2659905042,"lat":45.8550246,"lon":5.9470866,"brand":"Hyper U","brand:wikidata":"Q2529029","brand:wikipedia":"fr:Système U","name":"Hyper U","shop":"supermarket","osm_url":"https://www.openstreetmap.org/node/2659905042","osm_url_edit":"https://www.openstreetmap.org/edit?node=2659905042"},"osm_area":"https://www.openstreetmap.org/?mlat=45.855869&mlon=5.94785#map=19/45.855869/5.94785"},{"website":"https://www.magasins-u.com/magasin/uexpress-oradoursurvayres","lon":45.732811,"lat":0.87009,"osm":{"type":"way","id":361150699,"nodes":[3656651388,3656651315,3656651649,3656651640,3656651869,3656651882,3656651768,3656651863,3656651388],"addr:city":"Oradour sur Vayres","addr:housenumber":"1","addr:postcode":"87150","addr:street":"Rue Jean Segurel","brand":"U Express","brand:wikidata":"Q2529029","building":"retail","name":"U Express","opening_hours":"Mo-Sa 08:30-19:30; Su 09:00-12:30","payment:cash":"yes","payment:cheque":"yes","payment:credit_cards":"yes","payment:debit_cards":"yes","phone":"+33 5 55 48 83 75","shop":"supermarket","source":"cadastre-dgi-fr source : Direction Générale des Impôts - Cadastre;mise à jour : 2012","stroller":"yes","supermarket":"yes","supermarket:FR":"supermarché","wheelchair":"yes","osm_url":"https://www.openstreetmap.org/way/361150699","osm_url_edit":"https://www.openstreetmap.org/edit?way=361150699"},"osm_area":"https://www.openstreetmap.org/?mlat=45.732811&mlon=0.87009#map=19/45.732811/0.87009"},{"website":"https://www.magasins-u.com/magasin/uexpress-malaucene","lon":44.17437,"lat":5.133,"osm":{"type":"node","id":3573464798,"lat":44.1745613,"lon":5.1331275,"brand":"U Express","brand:wikidata":"Q2529029","brand:wikipedia":"fr:Système U","name":"U Express","opening_hours":"Mo-Sa 08:30-19:30; Su 08:30-12:30","shop":"supermarket","toilets:wheelchair":"no","wheelchair":"yes","osm_url":"https://www.openstreetmap.org/node/3573464798","osm_url_edit":"https://www.openstreetmap.org/edit?node=3573464798"},"osm_area":"https://www.openstreetmap.org/?mlat=44.17437&mlon=5.133#map=19/44.17437/5.133"},{"website":"https://www.magasins-u.com/magasin/superu-plemet","lon":48.172798,"lat":-2.59876,"osm_area":"https://www.openstreetmap.org/?mlat=48.172798&mlon=-2.59876#map=19/48.172798/-2.59876"},{"website":"https://www.magasins-u.com/magasin/superu-rennessaintjacques","lon":48.092819,"lat":-1.691241,"osm":{"type":"node","id":4783070152,"lat":48.0925259,"lon":-1.691993,"addr:city":"Saint-Jacques-de-la-Lande","addr:housenumber":"256","addr:postcode":"35136","addr:street":"Rue de Nantes","air_conditioning":"yes","branch":"Rennes Saint Jacques","brand":"Super U","brand:wikidata":"Q2529029","brand:wikipedia":"fr:Système U","bulk_purchase":"yes","currency:EUR":"yes","delivery":"yes","diet:gluten_free":"yes","diet:halal":"yes","diet:kosher":"no","diet:vegan":"yes","diet:vegetarian":"yes","drive_through":"yes","level":"0","name":"Super U","opening_hours":"Mo-Sa 08:30-20:00","operator":"Lomajac","organic":"yes","payment:cash":"yes","payment:cheque":"yes","payment:credit_cards":"yes","phone":"+33 2 99 65 14 36","ref:FR:SIRET":"50393759100017","shop":"supermarket","stroller":"yes","toilets":"yes","toilets:wheelchair":"yes","website":"https://www.magasins-u.com/magasin/superu-rennessaintjacques","wheelchair":"yes","osm_url":"https://www.openstreetmap.org/node/4783070152","osm_url_edit":"https://www.openstreetmap.org/edit?node=4783070152"},"osm_area":"https://www.openstreetmap.org/?mlat=48.092819&mlon=-1.691241#map=19/48.092819/-1.691241"},{"website":"https://www.magasins-u.com/magasin/superu-pouzauges","lon":46.77454,"lat":-0.846937,"osm":{"type":"way","id":154170857,"nodes":[1667438727,1667439260,1667439190,4705261169,7647258234,10683474825,7647258235,10683474824,3184275370,1667440377,10683414194,10687663222,10687663221,10683414193,1667440447,10683608548,1667439588,10683608547,1667439361,1667439019,1667438393,1667438576,1667438727],"brand":"Super U","brand:wikidata":"Q2529029","brand:wikipedia":"fr:Système U","building":"retail","name":"Super U","operator":"Super U","shop":"supermarket","wheelchair":"yes","osm_url":"https://www.openstreetmap.org/way/154170857","osm_url_edit":"https://www.openstreetmap.org/edit?way=154170857"},"osm_area":"https://www.openstreetmap.org/?mlat=46.77454&mlon=-0.846937#map=19/46.77454/-0.846937"},{"website":"https://www.magasins-u.com/magasin/superu-saintpierreetmiquelon","lon":0,"lat":0,"osm_area":"https://www.openstreetmap.org/?mlat=0&mlon=0#map=19/0/0"},{"website":"https://www.magasins-u.com/magasin/uexpress-saintgeorgesdubois","lon":47.966782,"lat":0.09173,"osm":{"type":"way","id":156967495,"nodes":[1692021946,1692021926,1692021904,7957516394,1692021812,7957514980,1692021946],"addr:city":"Saint-Georges-du-Bois","addr:postcode":"72700","addr:street":"LD LE BORDAGE DES HAYES RD 309","brand":"U Express","brand:wikidata":"Q2529029","building":"retail","name":"U Express","opening_hours":"Mo-Sa 09:00-19:30 Su 09:00-12:30","operator":"Système U","payment:cash":"yes","payment:contactless":"yes","payment:debit_cards":"yes","phone":"+33243830404","shop":"supermarket","source":"cadastre-dgi-fr source : Direction Générale des Impôts - Cadastre. Mise à jour : 2020","supermarket":"yes","supermarket:FR":"supermarché","osm_url":"https://www.openstreetmap.org/way/156967495","osm_url_edit":"https://www.openstreetmap.org/edit?way=156967495"},"osm_area":"https://www.openstreetmap.org/?mlat=47.966782&mlon=0.09173#map=19/47.966782/0.09173"},{"website":"https://www.magasins-u.com/magasin/superu-laguerchedebretagne","lon":47.935619,"lat":-1.232915,"osm_area":"https://www.openstreetmap.org/?mlat=47.935619&mlon=-1.232915#map=19/47.935619/-1.232915"},{"website":"https://www.magasins-u.com/magasin/uexpress-capesterre","lon":16.04483,"lat":-61.563149,"osm":{"type":"node","id":2991304733,"lat":16.0450543,"lon":-61.5631138,"addr:housenumber":"73","addr:street":"Avenue Paul Lacavé","brand":"Super U","brand:wikidata":"Q2529029","brand:wikipedia":"en:Système U","contact:website":"https://www.magasins-u.com/magasin/uexpress-capesterre","name":"Super U","opening_hours":"Mo-Th 08:00-13:00, 15:00-19:30; Fr, Sa 08:00-19:30; Su 08:00-12:00","phone":"00590590864334","shop":"supermarket","source":"Connaissance du terrain","website":"https://www.magasins-u.com/magasin/uexpress-capesterre","osm_url":"https://www.openstreetmap.org/node/2991304733","osm_url_edit":"https://www.openstreetmap.org/edit?node=2991304733"},"osm_area":"https://www.openstreetmap.org/?mlat=16.04483&mlon=-61.563149#map=19/16.04483/-61.563149"},{"website":"https://www.magasins-u.com/magasin/superu-evreux","lon":49.026249,"lat":1.157837,"osm":{"type":"node","id":1636663091,"lat":49.0266638,"lon":1.1579656,"brand":"Super U","brand:wikidata":"Q2529029","brand:wikipedia":"fr:Système U","name":"Super U","shop":"supermarket","osm_url":"https://www.openstreetmap.org/node/1636663091","osm_url_edit":"https://www.openstreetmap.org/edit?node=1636663091"},"osm_area":"https://www.openstreetmap.org/?mlat=49.026249&mlon=1.157837#map=19/49.026249/1.157837"},{"website":"https://www.magasins-u.com/magasin/uexpress-vesoul","lon":47.631416,"lat":6.167637,"osm":{"type":"way","id":35876428,"nodes":[419302754,419302755,419302756,419302757,419302758,7050243867,7050243866,419302759,419302760,419302762,419302764,419302766,419302767,2330385552,419302769,419302771,7050243864,7050243865,419302772,419302754],"brand":"Super U","brand:wikidata":"Q2529029","brand:wikipedia":"fr:Système U","building":"retail","contact:website":"https://www.magasins-u.com/magasin/superu-vesoul","name":"Super U","operator":"Système U","shop":"supermarket","source":"cadastre-dgi-fr source : Direction Générale des Impôts - Cadastre ; mise à jour : 2008","website":"https://www.magasins-u.com/magasin/superu-vesoul","osm_url":"https://www.openstreetmap.org/way/35876428","osm_url_edit":"https://www.openstreetmap.org/edit?way=35876428"},"osm_area":"https://www.openstreetmap.org/?mlat=47.631416&mlon=6.167637#map=19/47.631416/6.167637"},{"website":"https://www.magasins-u.com/magasin/hyperu-lachapellesurerdre","lon":47.284351,"lat":-1.55249,"osm":{"type":"node","id":3901577207,"lat":47.2845589,"lon":-1.5533203,"addr:city":"La Chapelle-sur-Erdre","addr:postcode":"44240","addr:street":"ZAC de la Bérangerais","brand":"Hyper U","brand:wikidata":"Q2529029","brand:wikipedia":"en:Système U","check_date:opening_hours":"2023-05-21","name":"Hyper U","opening_hours":"Mo-Sa 08:30-20:30","phone":"+33 2 40 72 86 72","shop":"supermarket","stroller":"yes","website":"https://www.magasins-u.com/magasin/hyperu-lachapellesurerdre","wheelchair":"yes","osm_url":"https://www.openstreetmap.org/node/3901577207","osm_url_edit":"https://www.openstreetmap.org/edit?node=3901577207"},"osm_area":"https://www.openstreetmap.org/?mlat=47.284351&mlon=-1.55249#map=19/47.284351/-1.55249"},{"website":"https://www.magasins-u.com/magasin/superu-huningue","lon":47.597683,"lat":7.585633,"osm":{"type":"node","id":9396525327,"lat":47.5969905,"lon":7.5859132,"brand":"Super U","brand:wikidata":"Q2529029","brand:wikipedia":"en:Système U","name":"Super U","shop":"supermarket","osm_url":"https://www.openstreetmap.org/node/9396525327","osm_url_edit":"https://www.openstreetmap.org/edit?node=9396525327"},"osm_area":"https://www.openstreetmap.org/?mlat=47.597683&mlon=7.585633#map=19/47.597683/7.585633"},{"website":"https://www.magasins-u.com/magasin/superu-viroflay","lon":48.803993,"lat":2.174304,"osm":{"type":"node","id":2078344793,"lat":48.8038368,"lon":2.1743394,"addr:city":"Viroflay","addr:housenumber":"51","addr:postcode":"78220","addr:street":"Avenue du Général Leclerc","brand":"Super U","brand:wikidata":"Q2529029","brand:wikipedia":"en:Système U","check_date:opening_hours":"2023-10-04","delivery":"yes","drive_through":"yes","name":"Super U","opening_hours":"Mo-Sa 08:30-20:00; Su 08:30-13:00","operator":"Système U","payment:cash":"yes","payment:coins":"yes","payment:contactless":"yes","payment:debit_cards":"yes","payment:maestro":"yes","payment:mastercard":"yes","payment:visa":"yes","payment:visa_debit":"yes","payment:visa_electron":"yes","phone":"+331 30 24 45 00","shop":"supermarket","stroller":"yes","website":"https://www.magasins-u.com/magasin/superu-viroflay","wheelchair":"limited","osm_url":"https://www.openstreetmap.org/node/2078344793","osm_url_edit":"https://www.openstreetmap.org/edit?node=2078344793"},"osm_area":"https://www.openstreetmap.org/?mlat=48.803993&mlon=2.174304#map=19/48.803993/2.174304"},{"website":"https://www.magasins-u.com/magasin/uexpress-rocquencourt","lon":48.834068,"lat":2.11887,"osm_area":"https://www.openstreetmap.org/?mlat=48.834068&mlon=2.11887#map=19/48.834068/2.11887"},{"website":"https://www.magasins-u.com/magasin/uexpress-tourlaville","lon":49.643829,"lat":-1.58335,"osm_area":"https://www.openstreetmap.org/?mlat=49.643829&mlon=-1.58335#map=19/49.643829/-1.58335"},{"website":"https://www.magasins-u.com/magasin/uexpress-grandvillage","lon":45.861488,"lat":-1.23885,"osm_area":"https://www.openstreetmap.org/?mlat=45.861488&mlon=-1.23885#map=19/45.861488/-1.23885"},{"website":"https://www.magasins-u.com/magasin/uexpress-oradoursurglane","lon":45.934551,"lat":1.03142,"osm":{"type":"way","id":109159266,"nodes":[1250361288,1250379123,1250347650,1250351793,1250354898,1250353538,1250357417,1250364407,1250352104,1250355643,10316437133,1250361601,10316437137,1250365020,1250361288],"brand":"U Express","brand:wikidata":"Q2529029","brand:wikipedia":"fr:Système U","building":"retail","name":"U Express","operator":"Simply Market","shop":"supermarket","source":"cadastre-dgi-fr source : Direction Générale des Impôts - Cadastre. Mise à jour : 2011","supermarket":"yes","supermarket:FR":"supermarché","osm_url":"https://www.openstreetmap.org/way/109159266","osm_url_edit":"https://www.openstreetmap.org/edit?way=109159266"},"osm_area":"https://www.openstreetmap.org/?mlat=45.934551&mlon=1.03142#map=19/45.934551/1.03142"},{"website":"https://www.magasins-u.com/magasin/superu-lamadeleine","lon":50.66132,"lat":3.06604,"osm_area":"https://www.openstreetmap.org/?mlat=50.66132&mlon=3.06604#map=19/50.66132/3.06604"},{"website":"https://www.magasins-u.com/magasin/superu-limogesperrin","lon":45.824711,"lat":1.22803,"osm":{"type":"node","id":2767752047,"lat":45.8249088,"lon":1.2272625,"addr:city":"Limoges","addr:housenumber":"282","addr:postcode":"87000","addr:street":"Rue François Perrin","brand":"Super U","brand:wikidata":"Q2529029","brand:wikipedia":"fr:Système U","name":"Super U","shop":"supermarket","osm_url":"https://www.openstreetmap.org/node/2767752047","osm_url_edit":"https://www.openstreetmap.org/edit?node=2767752047"},"osm_area":"https://www.openstreetmap.org/?mlat=45.824711&mlon=1.22803#map=19/45.824711/1.22803"},{"website":"https://www.magasins-u.com/magasin/uexpress-saintsebastiendemorsent","lon":49.00864,"lat":1.09256,"osm_area":"https://www.openstreetmap.org/?mlat=49.00864&mlon=1.09256#map=19/49.00864/1.09256"},{"website":"https://www.magasins-u.com/magasin/superu-neuillepontpierre","lon":47.545479,"lat":0.531754,"osm":{"type":"way","id":70157107,"nodes":[837913782,837884756,837913530,837889878,837911871,837891483,837898266,837901093,837903302,837885214,837888470,837914401,837885517,837885558,837909972,837875891,837913525,837885921,837914051,837876172,837893484,837883583,837900045,837887781,837913891,837894006,837880314,837889344,837886434,837895656,837882351,837897755,837884221,837909084,837886258,837888222,837913901,837911621,837897956,837884147,837888967,837883387,5315592773,5315592772,837907303,837886307,837902242,837910676,837891296,837881524,837911887,837895988,837888147,837888032,837908784,837896301,837897651,837903499,837910916,837913782],"brand":"Super U","brand:wikidata":"Q2529029","brand:wikipedia":"fr:Système U","building":"retail","contact:website":"https://www.magasins-u.com/magasin/superu-neuillepontpierre","name":"Super U","operator":"Système U","shop":"supermarket","source":"cadastre-dgi-fr source : Direction Générale des Impôts - Cadastre. Mise à jour : 2010","toilets":"yes","toilets:access":"public","website":"https://www.magasins-u.com/magasin/superu-neuillepontpierre","osm_url":"https://www.openstreetmap.org/way/70157107","osm_url_edit":"https://www.openstreetmap.org/edit?way=70157107"},"osm_area":"https://www.openstreetmap.org/?mlat=47.545479&mlon=0.531754#map=19/47.545479/0.531754"},{"website":"https://www.magasins-u.com/magasin/superu-lerheu","lon":48.094021,"lat":-1.79348,"osm":{"type":"way","id":532292659,"nodes":[5165569126,5165569131,5165569130,5165569129,5165569128,8345724868,8345724867,5165569127,5165569126],"brand":"Super U","brand:wikidata":"Q2529029","brand:wikipedia":"en:Système U","building":"retail","building:levels":"1","check_date:opening_hours":"2023-09-09","name":"Super U Le Rheu","opening_hours":"Mo-Sa 08:30-20:00","roof:shape":"flat","shop":"supermarket","website":"https://www.magasins-u.com/magasin/superu-lerheu","osm_url":"https://www.openstreetmap.org/way/532292659","osm_url_edit":"https://www.openstreetmap.org/edit?way=532292659"},"osm_area":"https://www.openstreetmap.org/?mlat=48.094021&mlon=-1.79348#map=19/48.094021/-1.79348"},{"website":"https://www.magasins-u.com/magasin/superu-tierce","lon":47.61557,"lat":-0.463565,"osm":{"type":"way","id":239735786,"nodes":[2475077506,2475077496,2475077469,2475077456,2475077436,2475077441,2475077364,10778591787,2475077385,2475077381,2475077592,2475077523,3882190079,2475077513,2475078533,2475078534,2475079271,2475079293,2475079344,2475079413,2475079465,2475079482,2475079636,2475079305,2475079269,2475079211,2475079184,2475079144,2475079105,2475079086,2475078917,2475078612,2175212450,2475078039,2475078016,2475078004,2475077975,2475077949,2475077926,2475077904,2475077871,2475077815,2475077698,2475077557,2475077519,2475077506],"brand":"Super U","brand:wikidata":"Q2529029","brand:wikipedia":"fr:Système U","building":"retail","name":"Super U","operator":"Super U","shop":"supermarket","source":"cadastre-dgi-fr source : Direction Générale des Finances Publiques - Cadastre. Mise à jour : 2013","osm_url":"https://www.openstreetmap.org/way/239735786","osm_url_edit":"https://www.openstreetmap.org/edit?way=239735786"},"osm_area":"https://www.openstreetmap.org/?mlat=47.61557&mlon=-0.463565#map=19/47.61557/-0.463565"},{"website":"https://www.magasins-u.com/magasin/uexpress-istres","lon":43.513519,"lat":4.98588,"osm_area":"https://www.openstreetmap.org/?mlat=43.513519&mlon=4.98588#map=19/43.513519/4.98588"},{"website":"https://www.magasins-u.com/magasin/hyperu-yffiniac","lon":48.481503,"lat":-2.673503,"osm_area":"https://www.openstreetmap.org/?mlat=48.481503&mlon=-2.673503#map=19/48.481503/-2.673503"},{"website":"https://www.magasins-u.com/magasin/uexpress-aillysursomme","lon":49.928268,"lat":2.20058,"osm_area":"https://www.openstreetmap.org/?mlat=49.928268&mlon=2.20058#map=19/49.928268/2.20058"},{"website":"https://www.magasins-u.com/magasin/uexpress-telgrucsurmer","lon":48.231274,"lat":-4.356561,"osm":{"type":"way","id":53998287,"nodes":[680990488,680990489,680990490,680990491,680990492,680990493,680990494,680990495,680990496,680990497,680990498,680990500,680990488],"brand":"U Express","brand:wikidata":"Q2529029","brand:wikipedia":"en:Système U","building":"retail","name":"U Express","opening_hours":"Mo-Sa 08:00-20:00","operator":"Magasin U","shop":"supermarket","osm_url":"https://www.openstreetmap.org/way/53998287","osm_url_edit":"https://www.openstreetmap.org/edit?way=53998287"},"osm_area":"https://www.openstreetmap.org/?mlat=48.231274&mlon=-4.356561#map=19/48.231274/-4.356561"},{"website":"https://www.magasins-u.com/magasin/superu-saintbrevinlespins","lon":47.245541,"lat":-2.16281,"osm":{"type":"node","id":1393297067,"lat":47.245922,"lon":-2.163057,"brand":"Super U","brand:wikidata":"Q2529029","brand:wikipedia":"en:Système U","name":"Super U","opening_hours":"Mo-Sa 08:45-19:30; Su 08:45-12:30","operator":"Système U","phone":"+33240272020","shop":"supermarket","website":"https://avant-premiere.magasins-u.com/magasin/superu-saintbrevinlespins","wheelchair":"yes","osm_url":"https://www.openstreetmap.org/node/1393297067","osm_url_edit":"https://www.openstreetmap.org/edit?node=1393297067"},"osm_area":"https://www.openstreetmap.org/?mlat=47.245541&mlon=-2.16281#map=19/47.245541/-2.16281"},{"website":"https://www.magasins-u.com/magasin/superu-saintjames","lon":48.520962,"lat":-1.33981,"osm_area":"https://www.openstreetmap.org/?mlat=48.520962&mlon=-1.33981#map=19/48.520962/-1.33981"},{"website":"https://www.magasins-u.com/magasin/superu-romans","lon":45.045509,"lat":5.060552,"osm":{"type":"node","id":10672884208,"lat":45.0459535,"lon":5.0611206,"brand":"Super U","brand:wikidata":"Q2529029","name":"Super U","shop":"supermarket","osm_url":"https://www.openstreetmap.org/node/10672884208","osm_url_edit":"https://www.openstreetmap.org/edit?node=10672884208"},"osm_area":"https://www.openstreetmap.org/?mlat=45.045509&mlon=5.060552#map=19/45.045509/5.060552"},{"website":"https://www.magasins-u.com/magasin/uexpress-rougemont","lon":47.479961,"lat":6.35448,"osm":{"type":"way","id":138253645,"nodes":[1515655326,1515655548,1515655565,1515655710,1515655940,1515655845,1515655759,1515655679,1515655752,1515655698,1515655598,1515655592,1515655326],"brand":"U Express","brand:wikidata":"Q2529029","brand:wikipedia":"fr:Système U","building":"retail","contact:website":"https://www.magasins-u.com/magasin/uexpress-rougemont","name":"U Express","operator":"Système U","shop":"supermarket","source":"gps","supermarket":"yes","supermarket:FR":"supermarché","website":"https://www.magasins-u.com/magasin/uexpress-rougemont","osm_url":"https://www.openstreetmap.org/way/138253645","osm_url_edit":"https://www.openstreetmap.org/edit?way=138253645"},"osm_area":"https://www.openstreetmap.org/?mlat=47.479961&mlon=6.35448#map=19/47.479961/6.35448"},{"website":"https://www.magasins-u.com/magasin/superu-houplines","lon":50.689861,"lat":2.90163,"osm":{"type":"way","id":127114427,"nodes":[1407679669,1407672084,1407666143,1407663463,1407680387,1407675301,1407676380,1407681156,1407671193,1407649130,1407677555,1407655953,1407674988,1407652698,1407649307,1407677658,1407656095,1407682320,1407661716,1407656251,1407651084,1407672179,1407667322,1407681823,1407660929,1407682863,1407662523,1407651709,1407667758,1407682244,1407661569,1407650969,1407667187,1407670473,1407661013,1407677126,1407677041,1407655463,1407659605,1407681786,1407682288,1407651598,1407679669],"brand":"Super U","brand:wikidata":"Q2529029","brand:wikipedia":"fr:Système U","building":"commercial","name":"Super U","shop":"supermarket","source":"cadastre-dgi-fr source : Direction Générale des Impôts - Cadastre. Mise à jour : 2011","osm_url":"https://www.openstreetmap.org/way/127114427","osm_url_edit":"https://www.openstreetmap.org/edit?way=127114427"},"osm_area":"https://www.openstreetmap.org/?mlat=50.689861&mlon=2.90163#map=19/50.689861/2.90163"},{"website":"https://www.magasins-u.com/magasin/superu-colombelles","lon":49.189178,"lat":-0.299177,"osm":{"type":"way","id":368610297,"nodes":[3724616746,5341582666,5341582667,5341582670,3724616750,3724616765,3724616800,9893106708,5341582664,5341582662,9893106709,5341582661,9893106705,5341582660,3724616821,3724616819,3724616823,3724616822,3724616824,3724616820,3724616816,3724616817,3724616818,3724616815,3724616811,3724616779,3724616756,3724616748,3724616746],"addr:postcode":"14460","addr:street":"Le Libera, RD 403","brand":"Super U","brand:wikidata":"Q2529029","brand:wikipedia":"en:Système U","building":"retail","building:levels":"2","contact:website":"https://www.magasins-u.com/magasin/superu-colombelles","name":"Super U","opening_hours":"Mo-Sa 09:00-20:00","operator":"Super U","shop":"supermarket","source":"cadastre-dgi-fr source : Direction Générale des Finances Publiques - Cadastre. Mise à jour : 2015","wheelchair":"yes","website":"https://www.magasins-u.com/magasin/superu-colombelles","osm_url":"https://www.openstreetmap.org/way/368610297","osm_url_edit":"https://www.openstreetmap.org/edit?way=368610297"},"osm_area":"https://www.openstreetmap.org/?mlat=49.189178&mlon=-0.299177#map=19/49.189178/-0.299177"},{"website":"https://www.magasins-u.com/magasin/uexpress-mandeure","lon":47.447361,"lat":6.81367,"osm":{"type":"way","id":63687040,"nodes":[787718987,3877214921,3877214919,787710395,787721662,599313793,787720938,3877214918,787718987],"brand":"Super U","brand:wikidata":"Q2529029","brand:wikipedia":"fr:Système U","building":"retail","name":"Super U","operator":"Système U","shop":"supermarket","source":"cadastre-dgi-fr source : Direction Générale des Impôts - Cadastre. Mise à jour : 2009","osm_url":"https://www.openstreetmap.org/way/63687040","osm_url_edit":"https://www.openstreetmap.org/edit?way=63687040"},"osm_area":"https://www.openstreetmap.org/?mlat=47.447361&mlon=6.81367#map=19/47.447361/6.81367"},{"website":"https://www.magasins-u.com/magasin/uexpress-lemansbollee","lon":47.997772,"lat":0.214845,"osm":{"type":"way","id":65558287,"nodes":[799629124,8103907126,799579750,799585569,799611355,8580765440,8580765441,11547182974,2536361034,11547182975,11547182973,11547182972,3637495127,799629124],"addr:city":"Le Mans","addr:housenumber":"154","addr:street":"Avenue Léon Bollée","brand":"U Express","brand:wikidata":"Q2529029","brand:wikipedia":"en:Système U","building":"retail","name":"U Express","opening_hours":"Mo-Sa 08:30-20:30; Su 09:00-13:00","operator":"Système U","shop":"supermarket","source":"cadastre-dgi-fr source : Direction Générale des Impôts - Cadastre. Mise à jour : 2010","supermarket":"yes","supermarket:FR":"supermarché","wheelchair":"yes","osm_url":"https://www.openstreetmap.org/way/65558287","osm_url_edit":"https://www.openstreetmap.org/edit?way=65558287"},"osm_area":"https://www.openstreetmap.org/?mlat=47.997772&mlon=0.214845#map=19/47.997772/0.214845"},{"website":"https://www.magasins-u.com/magasin/superu-plestinlesgreves","lon":48.65733,"lat":-3.63353,"osm":{"type":"multipolygon","id":11017778,"members":[{"type":"way","ref":209800929,"role":"outer"},{"type":"way","ref":209801207,"role":"outer"},{"type":"way","ref":209801024,"role":"outer"},{"type":"way","ref":209805671,"role":"outer"},{"type":"way","ref":209799885,"role":"outer"}],"brand":"Super U","brand:wikidata":"Q2529029","brand:wikipedia":"en:Système U","building":"retail","building:levels":"2","name":"Super U","opening_hours":"Mo-Sa 08:30-20:00","operator":"Super U","roof:levels":"0","roof:shape":"flat","shop":"supermarket","source":"cadastre-dgi-fr source : Direction Générale des Impôts - Cadastre. Mise à jour : 2013","wheelchair":"yes","osm_url":"https://www.openstreetmap.org/relation/11017778","osm_url_edit":"https://www.openstreetmap.org/edit?relation=11017778"},"osm_area":"https://www.openstreetmap.org/?mlat=48.65733&mlon=-3.63353#map=19/48.65733/-3.63353"},{"website":"https://www.magasins-u.com/magasin/superu-lemolaylittry","lon":49.245659,"lat":-0.8752,"osm_area":"https://www.openstreetmap.org/?mlat=49.245659&mlon=-0.8752#map=19/49.245659/-0.8752"},{"website":"https://www.magasins-u.com/magasin/uexpress-vigneuxdebretagne","lon":47.31897,"lat":-1.73879,"osm":{"type":"way","id":106694451,"nodes":[1227132979,1227186204,1227126260,1227176974,1227165193,1227165215,1227112990,1227164578,1227179634,1227164334,1227151215,1227186909,1227116082,1227137414,1227175551,1227132979],"brand":"Super U","brand:wikidata":"Q2529029","brand:wikipedia":"fr:Système U","building":"supermarket","name":"Super U","operator":"Système U","shop":"supermarket","source":"cadastre-dgi-fr source : Direction Générale des Impôts - Cadastre. Mise à jour : 2013","source:shop":"survey","osm_url":"https://www.openstreetmap.org/way/106694451","osm_url_edit":"https://www.openstreetmap.org/edit?way=106694451"},"osm_area":"https://www.openstreetmap.org/?mlat=47.31897&mlon=-1.73879#map=19/47.31897/-1.73879"},{"website":"https://www.magasins-u.com/magasin/superu-saintvit","lon":47.186508,"lat":5.82517,"osm":{"type":"way","id":90199031,"nodes":[1045750484,1045723502,1045741558,1045782049,1045772539,1045882741,1045771128,1045908165,1045995648,1045955822,1045738096,1045954213,1045677471,1045735927,1045855757,1045716443,1045861537,1045956464,1045734481,1045920207,1045870789,1045954362,9805693277,1045666311,1045748510,1045944788,1045710473,1045750484],"brand":"Super U","brand:wikidata":"Q2529029","brand:wikipedia":"en:Système U","building":"retail","contact:website":"https://www.magasins-u.com/magasin/superu-saintvit","name":"Super U","operator":"Super U","shop":"supermarket","source":"cadastre-dgi-fr source : Direction Générale des Impôts - Cadastre. Mise à jour : 2010","website":"https://www.magasins-u.com/magasin/superu-saintvit","osm_url":"https://www.openstreetmap.org/way/90199031","osm_url_edit":"https://www.openstreetmap.org/edit?way=90199031"},"osm_area":"https://www.openstreetmap.org/?mlat=47.186508&mlon=5.82517#map=19/47.186508/5.82517"},{"website":"https://www.magasins-u.com/magasin/uexpress-montredondescorbieres","lon":43.182903,"lat":2.935782,"osm_area":"https://www.openstreetmap.org/?mlat=43.182903&mlon=2.935782#map=19/43.182903/2.935782"},{"website":"https://www.magasins-u.com/magasin/superu-surylecomtal","lon":45.541161,"lat":4.18179,"osm":{"type":"way","id":290268103,"nodes":[2938218029,2938217986,2938217933,2938217776,3741908164,2938217646,6157168542,6157168543,6157168546,2938217779,2938217786,2938218103,2938218136,2938218236,2938218467,2938218449,2938218045,2938218029],"addr:street":"rue du 11 novembre","brand":"Super U","brand:wikidata":"Q2529029","brand:wikipedia":"fr:Système U","building":"retail","name":"Super U","opening_hours":"Mo-Sa 08:30-19:30; Su 09:00-12:30","phone":"+33-477300173","shop":"supermarket","source":"cadastre-dgi-fr source : Direction Générale des Finances Publiques - Cadastre. Mise à jour : 2014","website":"https://magasins-u.com/superu-surylecomtal","osm_url":"https://www.openstreetmap.org/way/290268103","osm_url_edit":"https://www.openstreetmap.org/edit?way=290268103"},"osm_area":"https://www.openstreetmap.org/?mlat=45.541161&mlon=4.18179#map=19/45.541161/4.18179"},{"website":"https://www.magasins-u.com/magasin/uexpress-suresnes","lon":48.875519,"lat":2.228452,"osm":{"type":"node","id":3877278811,"lat":48.8756102,"lon":2.2284295,"brand":"U Express","brand:wikidata":"Q2529029","brand:wikipedia":"en:Système U","contact:website":"https://www.magasins-u.com/magasin/uexpress-suresnes","delivery:covid19":"yes","description:covid19":"Vente sur place, livraison, retrait des commandes (sur le site)","name":"U Express","opening_hours:covid19":"Mo-Sa 08:00-21:00; Su 09:00-13:00","phone":"+33 9 67 25 62 10","shop":"supermarket","source":"cadastre-dgi-fr source : Direction Générale des Impôts - Cadastre. Mise à jour : 2015","wheelchair":"yes","website":"https://www.magasins-u.com/magasin/uexpress-suresnes","osm_url":"https://www.openstreetmap.org/node/3877278811","osm_url_edit":"https://www.openstreetmap.org/edit?node=3877278811"},"osm_area":"https://www.openstreetmap.org/?mlat=48.875519&mlon=2.228452#map=19/48.875519/2.228452"},{"website":"https://www.magasins-u.com/magasin/superu-saintbarthelemysaintjean","lon":17.9,"lat":-62.825699,"osm_area":"https://www.openstreetmap.org/?mlat=17.9&mlon=-62.825699#map=19/17.9/-62.825699"},{"website":"https://www.magasins-u.com/magasin/uexpress-royan","lon":45.626083,"lat":-1.02642,"osm":{"type":"way","id":72972173,"nodes":[865843105,865895064,865675388,865545574,865674849,865845905,865663469,865753740,865899867,865534726,865555000,865891328,865562385,865522108,865752024,865735893,865582667,865914271,865727723,865698505,865893861,865705041,865523756,865843105],"branch":"Royan","brand":"U Express","brand:wikidata":"Q2529029","brand:wikipedia":"en:Système U","building":"retail","name":"U Express","operator":"Système U","phone":"+335 46 05 36 03","shop":"supermarket","source":"cadastre-dgi-fr source : Direction Générale des Impôts - Cadastre. Mise à jour : 2010","supermarket":"yes","supermarket:FR":"supermarché","osm_url":"https://www.openstreetmap.org/way/72972173","osm_url_edit":"https://www.openstreetmap.org/edit?way=72972173"},"osm_area":"https://www.openstreetmap.org/?mlat=45.626083&mlon=-1.02642#map=19/45.626083/-1.02642"},{"website":"https://www.magasins-u.com/magasin/uexpress-saintaygulf","lon":43.386349,"lat":6.723245,"osm_area":"https://www.openstreetmap.org/?mlat=43.386349&mlon=6.723245#map=19/43.386349/6.723245"},{"website":"https://www.magasins-u.com/magasin/superu-thouars","lon":46.981258,"lat":-0.199,"osm_area":"https://www.openstreetmap.org/?mlat=46.981258&mlon=-0.199#map=19/46.981258/-0.199"},{"website":"https://www.magasins-u.com/magasin/uexpress-collongessoussaleve","lon":46.144451,"lat":6.14141,"osm":{"type":"way","id":633866407,"nodes":[5982860517,5982860516,5982860515,5982860514,5982860513,5982860512,5982860511,5982860510,5982860509,5982860508,5982860507,5982860506,5982860505,5982860517],"brand":"U Express","brand:wikidata":"Q2529029","brand:wikipedia":"en:Système U","building":"retail","name":"U express","opening_hours":"Mo-Sa 08:30-19:30; Su 08:30-12:30","operator":"Système U","shop":"supermarket","source":"cadastre-dgi-fr source : Direction Générale des Finances Publiques - Cadastre. Mise à jour : 2017","supermarket":"yes","supermarket:FR":"supermarché","osm_url":"https://www.openstreetmap.org/way/633866407","osm_url_edit":"https://www.openstreetmap.org/edit?way=633866407"},"osm_area":"https://www.openstreetmap.org/?mlat=46.144451&mlon=6.14141#map=19/46.144451/6.14141"},{"website":"https://www.magasins-u.com/magasin/superu-belberaud","lon":43.50592,"lat":1.55786,"osm_area":"https://www.openstreetmap.org/?mlat=43.50592&mlon=1.55786#map=19/43.50592/1.55786"},{"website":"https://www.magasins-u.com/magasin/hyperu-burnhauptlehaut","lon":47.740669,"lat":7.14799,"osm_area":"https://www.openstreetmap.org/?mlat=47.740669&mlon=7.14799#map=19/47.740669/7.14799"},{"website":"https://www.magasins-u.com/magasin/superu-illesurtet","lon":42.67667,"lat":2.63355,"osm":{"type":"way","id":182997609,"nodes":[1933607141,1933607127,1933607112,1933607125,1933607068,1933607039,1933607029,1933607000,1933607045,1933606985,1933606761,11549912363,11549912364,11549912365,1933606770,1933606813,1933606869,1933606804,1933606839,1933606856,1933606875,10079476101,1933607141],"brand":"Super U","brand:wikidata":"Q2529029","brand:wikipedia":"fr:Système U","building":"retail","name":"Super U","name:ca":"Super U","opening_hours":"Mo-Sa 08:45-20:00","operator":"Super U","shop":"supermarket","source":"cadastre-dgi-fr source : Direction Générale des Impôts - Cadastre. Mise à jour : 2012","osm_url":"https://www.openstreetmap.org/way/182997609","osm_url_edit":"https://www.openstreetmap.org/edit?way=182997609"},"osm_area":"https://www.openstreetmap.org/?mlat=42.67667&mlon=2.63355#map=19/42.67667/2.63355"},{"website":"https://www.magasins-u.com/magasin/uexpress-sainthilairebonneval","lon":45.71616,"lat":1.374457,"osm_area":"https://www.openstreetmap.org/?mlat=45.71616&mlon=1.374457#map=19/45.71616/1.374457"},{"website":"https://www.magasins-u.com/magasin/hyperu-barallemarquion","lon":50.215759,"lat":3.06373,"osm":{"type":"way","id":247000050,"nodes":[2539499806,2539499808,2539499811,2539499813,2539499814,2539499816,2539499802,2539499803,2539499807,2539499815,2539499810,2539499809,2539499797,2539499818,2539499759,2539499757,2539499758,2539499755,2539499754,2539499753,4523791260,4523791258,4523791257,4523791259,2539499762,2539499765,2539499766,2539499770,2539499773,2539499776,2539499780,2539499782,2539499785,2539499788,2539499791,2539499798,2539499804,2539499805,2539499806],"brand":"Hyper U","brand:wikidata":"Q2529029","brand:wikipedia":"fr:Système U","building":"retail","name":"Hyper U","shop":"supermarket","source":"cadastre-dgi-fr source : Direction Générale des Finances Publiques - Cadastre. Mise à jour : 2016","website":"https://www.magasins-u.com/magasin/hyperu-barallemarquion.m24286","osm_url":"https://www.openstreetmap.org/way/247000050","osm_url_edit":"https://www.openstreetmap.org/edit?way=247000050"},"osm_area":"https://www.openstreetmap.org/?mlat=50.215759&mlon=3.06373#map=19/50.215759/3.06373"},{"website":"https://www.magasins-u.com/magasin/superu-montrabe","lon":43.643848,"lat":1.53112,"osm_area":"https://www.openstreetmap.org/?mlat=43.643848&mlon=1.53112#map=19/43.643848/1.53112"},{"website":"https://www.magasins-u.com/magasin/uexpress-marseillechuteslavie","lon":43.314281,"lat":5.397404,"osm_area":"https://www.openstreetmap.org/?mlat=43.314281&mlon=5.397404#map=19/43.314281/5.397404"},{"website":"https://www.magasins-u.com/magasin/uexpress-argentat","lon":45.091591,"lat":1.93234,"osm":{"type":"way","id":141063011,"nodes":[1544138911,2820747231,1544140273,1544140483,7869107123,10220187231,10220187230,1544141144,10220187234,10220187233,1544140904,1544138911],"brand":"Super U","brand:wikidata":"Q2529029","brand:wikipedia":"en:Système U","building":"store","name":"Super U","opening_hours":"Mo-Sa 08:30-19:30; Su 09:00-12:30","operator":"Système U","shop":"supermarket","source":"cadastre-dgi-fr source : Direction Générale des Impôts - Cadastre. Mise à jour : 2009","supermarket":"yes","supermarket:FR":"supermarché","osm_url":"https://www.openstreetmap.org/way/141063011","osm_url_edit":"https://www.openstreetmap.org/edit?way=141063011"},"osm_area":"https://www.openstreetmap.org/?mlat=45.091591&mlon=1.93234#map=19/45.091591/1.93234"},{"website":"https://www.magasins-u.com/magasin/uexpress-arsenre","lon":46.20649,"lat":-1.520896,"osm":{"type":"way","id":111121002,"nodes":[1266825573,1266349776,1266380660,1266374265,1266367704,1266352769,1266364148,1266828741,1266373342,1266350915,1266830730,1266387905,1266822366,1266384324,1266377239,1266370791,1266373895,1266367331,1266352581,1266839673,1266352962,1266833737,1266825573],"brand":"U Express","brand:wikidata":"Q2529029","brand:wikipedia":"en:Système U","building":"store","contact:website":"https://www.magasins-u.com/magasin/uexpress-arsenre","name":"U Express","operator":"Système U","shop":"supermarket","source":"cadastre-dgi-fr source : Direction Générale des Impôts - Cadastre. Mise à jour : 2011","supermarket":"yes","supermarket:FR":"supermarché","website":"https://www.magasins-u.com/magasin/uexpress-arsenre","osm_url":"https://www.openstreetmap.org/way/111121002","osm_url_edit":"https://www.openstreetmap.org/edit?way=111121002"},"osm_area":"https://www.openstreetmap.org/?mlat=46.20649&mlon=-1.520896#map=19/46.20649/-1.520896"},{"website":"https://www.magasins-u.com/magasin/superu-nozay","lon":47.572338,"lat":-1.62903,"osm":{"type":"node","id":3865584300,"lat":47.5728839,"lon":-1.6288605,"addr:housenumber":"15","addr:street":"Boulevard du Petit Versailles","branch":"Nozay","brand":"Super U","brand:wikidata":"Q2529029","brand:wikipedia":"fr:Système U","name":"Super U","opening_hours":"Mo-Sa 08:45-19:30; Fr 08:45-20:00","phone":"+33240794090","shop":"supermarket","osm_url":"https://www.openstreetmap.org/node/3865584300","osm_url_edit":"https://www.openstreetmap.org/edit?node=3865584300"},"osm_area":"https://www.openstreetmap.org/?mlat=47.572338&mlon=-1.62903#map=19/47.572338/-1.62903"},{"website":"https://www.magasins-u.com/magasin/superu-sauveterredeguyenne","lon":44.697239,"lat":-0.08865,"osm_area":"https://www.openstreetmap.org/?mlat=44.697239&mlon=-0.08865#map=19/44.697239/-0.08865"},{"website":"https://www.magasins-u.com/magasin/superu-chamonix","lon":45.924438,"lat":6.86976,"osm":{"type":"node","id":283313338,"lat":45.9245351,"lon":6.8695949,"brand":"Super U","brand:wikidata":"Q2529029","brand:wikipedia":"en:Système U","name":"Super U","opening_hours":"Mo-Sa 08:00-20:00; Su 08:00-12:30","operator":"Super U","shop":"supermarket","osm_url":"https://www.openstreetmap.org/node/283313338","osm_url_edit":"https://www.openstreetmap.org/edit?node=283313338"},"osm_area":"https://www.openstreetmap.org/?mlat=45.924438&mlon=6.86976#map=19/45.924438/6.86976"},{"website":"https://www.magasins-u.com/magasin/superu-ville","lon":48.339512,"lat":7.31471,"osm":{"type":"way","id":153424844,"nodes":[1935298172,1935298174,1661089917,1935298171,8629231710,8629237272,8629228143,8629228142,8629237271,1935298163,8629211513,8629237269,1935298160,8629237268,8629224111,1935298167,8629224110,8629211512,8629224109,1935298175,8629224108,1935298173,1935298189,8629217956,1661089777,1661089898,1661090133,1661090229,1661090450,1661091536,1661091038,1661090090,1661090082,1661089860,1935298187,1935298176,8629203563,1935291302,1935298172],"brand":"Super U","brand:wikidata":"Q2529029","brand:wikipedia":"fr:Système U","building":"retail","name":"Super U","opening_hours":"Mo-Sa 08:00-19:30","operator":"Système U","shop":"supermarket","source":"cadastre-dgi-fr source : Direction Générale des Finances Publiques - Cadastre. Mise à jour : 2021","osm_url":"https://www.openstreetmap.org/way/153424844","osm_url_edit":"https://www.openstreetmap.org/edit?way=153424844"},"osm_area":"https://www.openstreetmap.org/?mlat=48.339512&mlon=7.31471#map=19/48.339512/7.31471"},{"website":"https://www.magasins-u.com/magasin/superu-bompas","lon":42.72123,"lat":2.93283,"osm":{"type":"way","id":63673899,"nodes":[787622558,787645639,787619811,787604823,787647818,787613525,787641544,787585746,787643045,787625501,787635650,787584487,787622558],"branch":"Bompas","brand":"Super U","brand:wikidata":"Q2529029","brand:wikipedia":"en:Système U","building":"retail","name":"Super U","name:ca":"Super U","opening_hours":"Mo-Sa 08:30-20:00; Su 08:30-12:30","shop":"supermarket","supermarket":"yes","supermarket:FR":"supermarché","osm_url":"https://www.openstreetmap.org/way/63673899","osm_url_edit":"https://www.openstreetmap.org/edit?way=63673899"},"osm_area":"https://www.openstreetmap.org/?mlat=42.72123&mlon=2.93283#map=19/42.72123/2.93283"},{"website":"https://www.magasins-u.com/magasin/superu-franquevillesaintpierre","lon":49.397247,"lat":1.179221,"osm_area":"https://www.openstreetmap.org/?mlat=49.397247&mlon=1.179221#map=19/49.397247/1.179221"},{"website":"https://www.magasins-u.com/magasin/uexpress-lediamantcherry","lon":14.48104,"lat":-61.01152,"osm_area":"https://www.openstreetmap.org/?mlat=14.48104&mlon=-61.01152#map=19/14.48104/-61.01152"},{"website":"https://www.magasins-u.com/magasin/superu-lesvans","lon":44.413141,"lat":4.14634,"osm":{"type":"node","id":417645972,"lat":44.4131831,"lon":4.1463961,"brand":"Super U","brand:wikidata":"Q2529029","brand:wikipedia":"fr:Système U","name":"Super U","opening_hours":"Mo-Sa 09:00-19:00","operator":"Super U","shop":"supermarket","wheelchair":"yes","osm_url":"https://www.openstreetmap.org/node/417645972","osm_url_edit":"https://www.openstreetmap.org/edit?node=417645972"},"osm_area":"https://www.openstreetmap.org/?mlat=44.413141&mlon=4.14634#map=19/44.413141/4.14634"},{"website":"https://www.magasins-u.com/magasin/superu-mauvezin","lon":43.72319,"lat":0.87352,"osm_area":"https://www.openstreetmap.org/?mlat=43.72319&mlon=0.87352#map=19/43.72319/0.87352"},{"website":"https://www.magasins-u.com/magasin/superu-noisiel","lon":48.84306,"lat":2.623593,"osm":{"type":"way","id":116136900,"nodes":[1310382602,1310382265,1310382144,1310382110,1310382153,1310382004,1310382350,1310382514,1310382561,1310382581,1310382682,8129448267,1310382602],"addr:city":"Noisiel","addr:housenumber":"6","addr:postcode":"77186","addr:street":"Allée Buissonnière","brand":"Super U","brand:wikidata":"Q2529029","brand:wikipedia":"en:Système U","building":"supermarket","check_date:opening_hours":"2023-07-16","name":"Super U","opening_hours":"Mo-Sa 09:00-21:00; Su 09:00-13:00","phone":"+33 1 60 33 33 33","shop":"supermarket","source":"cadastre-dgi-fr source : Direction Générale des Impôts - Cadastre. Mise à jour : 2011","website":"https://www.magasins-u.com/magasin/superu-noisiel","wheelchair":"yes","osm_url":"https://www.openstreetmap.org/way/116136900","osm_url_edit":"https://www.openstreetmap.org/edit?way=116136900"},"osm_area":"https://www.openstreetmap.org/?mlat=48.84306&mlon=2.623593#map=19/48.84306/2.623593"},{"website":"https://www.magasins-u.com/magasin/uexpress-marseille","lon":43.295498,"lat":5.390816,"osm_area":"https://www.openstreetmap.org/?mlat=43.295498&mlon=5.390816#map=19/43.295498/5.390816"},{"website":"https://www.magasins-u.com/magasin/superu-noyalchatillon","lon":48.045238,"lat":-1.668,"osm":{"type":"way","id":386800352,"nodes":[3901480922,3901480927,3901480929,3901480933,3901480930,3901480931,4072367376,3901480934,3901480935,2581496748,3901480939,3901480941,3901480945,3901480967,3901480954,3901480955,3901480953,3901480952,3901480951,3901480950,3901480949,3901480944,3901480948,3901480946,3901480940,3901480938,3901480922],"brand":"Super U","brand:wikidata":"Q2529029","brand:wikipedia":"fr:Système U","building":"yes","contact:website":"https://www.magasins-u.com/magasin/superu-chatillonsurseiche","name":"Super U","operator":"Système U","ref:FR:SIRET":"34743304700037","shop":"supermarket","source":"cadastre-dgi-fr source : Direction Générale des Finances Publiques - Cadastre. Mise à jour : 2015","website":"https://www.magasins-u.com/magasin/superu-chatillonsurseiche","osm_url":"https://www.openstreetmap.org/way/386800352","osm_url_edit":"https://www.openstreetmap.org/edit?way=386800352"},"osm_area":"https://www.openstreetmap.org/?mlat=48.045238&mlon=-1.668#map=19/48.045238/-1.668"},{"website":"https://www.magasins-u.com/magasin/superu-langeac","lon":45.112438,"lat":3.4919,"osm":{"type":"way","id":303477394,"nodes":[3078390957,3078390981,3078390980,3078390996,3078390974,3078390969,3078390967,3078390948,3078390946,3078390895,3078390905,3078390912,3078390942,3078390934,3078390939,3078390947,3078390950,3078390951,3078390956,3078390957],"addr:city":"Langeac","addr:postcode":"43300","brand":"Super U","brand:wikidata":"Q2529029","brand:wikipedia":"fr:Système U","building":"retail","building:levels":"1","name":"Super U","phone":"+33471770466","shop":"supermarket","source":"cadastre-dgi-fr source : Direction Générale des Finances Publiques - Cadastre. Mise à jour : 2014","wheelchair":"yes","wheelchair:description":"Il y a des parking handicapé et des parkings pour femmes enceintes et famille nombreuses","osm_url":"https://www.openstreetmap.org/way/303477394","osm_url_edit":"https://www.openstreetmap.org/edit?way=303477394"},"osm_area":"https://www.openstreetmap.org/?mlat=45.112438&mlon=3.4919#map=19/45.112438/3.4919"},{"website":"https://www.magasins-u.com/magasin/uexpress-saintandrelesalpes","lon":43.96286,"lat":6.50664,"osm_area":"https://www.openstreetmap.org/?mlat=43.96286&mlon=6.50664#map=19/43.96286/6.50664"},{"website":"https://www.magasins-u.com/magasin/uexpress-villedavray","lon":48.826855,"lat":2.189573,"osm":{"type":"way","id":129454102,"nodes":[1428249027,1428249064,1428249202,1428249291,1428249340,1428249620,1428249785,1428249806,1428249815,1428249167,1428249122,1428249110,1428248976,1428248932,1428249027],"addr:housename":"U express","addr:street":"Rue de Sèvres","brand":"Marché U","brand:wikidata":"Q2529029","brand:wikipedia":"en:Système U","building":"retail","contact:phone":"+33 1 47 50 33 95","contact:website":"https://www.magasins-u.com/magasin/uexpress-villedavray","name":"U express Ville d'Avray","operator":"Système U","shop":"supermarket","source":"cadastre-dgi-fr source : Direction Générale des Impôts - Cadastre. Mise à jour : 2011","supermarket":"yes","supermarket:FR":"supermarché","website":"https://www.magasins-u.com/magasin/uexpress-villedavray","osm_url":"https://www.openstreetmap.org/way/129454102","osm_url_edit":"https://www.openstreetmap.org/edit?way=129454102"},"osm_area":"https://www.openstreetmap.org/?mlat=48.826855&mlon=2.189573#map=19/48.826855/2.189573"},{"website":"https://www.magasins-u.com/magasin/superu-arradon","lon":47.634682,"lat":-2.82257,"osm":{"type":"way","id":167338914,"nodes":[1787414503,1787414211,1787414166,1787413833,1787413847,4845478292,4845478291,4845478295,893959490,4845478294,4845478293,1787412704,1787412672,4845478296,1787412608,1787412555,1787412539,1787412490,4840819543,1787412434,1787412356,1787412319,1787412298,1787412108,1787412024,1787411924,1787412005,1787411979,1787412178,1787412226,1787412311,1787412318,1787412338,1787412687,1787412652,1787413887,1787414554,1787414610,1787414601,1787414616,1787414520,1787414594,1787414597,1787414598,1787414595,1787414592,1787414591,1787414588,1787414587,1787414584,1787414570,4845478297,1787414503],"addr:postcode":"56610","brand":"Super U","brand:website":"https://www.magasins-u.com/","brand:wikidata":"Q2529029","brand:wikipedia":"fr:Système U","building":"retail","drive_through":"yes","name":"Super U","opening_hours":"Mo-Th, Sa 08:30-19:30; Fr 08:30-20:00; Su 09:00-12:30","shop":"supermarket","source":"cadastre-dgi-fr source : Direction Générale des Impôts - Cadastre. Mise à jour : 2012","website":"https://www.magasins-u.com/magasin/superu-arradon","osm_url":"https://www.openstreetmap.org/way/167338914","osm_url_edit":"https://www.openstreetmap.org/edit?way=167338914"},"osm_area":"https://www.openstreetmap.org/?mlat=47.634682&mlon=-2.82257#map=19/47.634682/-2.82257"},{"website":"https://www.magasins-u.com/magasin/superu-nyons","lon":44.356461,"lat":5.12656,"osm":{"type":"node","id":1376858901,"lat":44.3560389,"lon":5.1268652,"brand":"Super U","brand:wikidata":"Q2529029","brand:wikipedia":"fr:Système U","name":"Super U","operator":"Super U","shop":"supermarket","osm_url":"https://www.openstreetmap.org/node/1376858901","osm_url_edit":"https://www.openstreetmap.org/edit?node=1376858901"},"osm_area":"https://www.openstreetmap.org/?mlat=44.356461&mlon=5.12656#map=19/44.356461/5.12656"},{"website":"https://www.magasins-u.com/magasin/superu-beauvoirsurmer","lon":46.91127,"lat":-2.04725,"osm":{"type":"way","id":66107821,"nodes":[4481144951,802291692,430116386,802304723,802273347,802254823,802273434,802308479,4478318856,802281695,802301252,4481144960,4481144955,4481144951],"brand":"Super U","brand:wikidata":"Q2529029","brand:wikipedia":"fr:Système U","building":"retail","name":"Super U - Beauvoir-sur-mer","shop":"supermarket","source":"cadastre-dgi-fr source : Direction Générale des Impôts - Cadastre. Mise à jour : 2010","osm_url":"https://www.openstreetmap.org/way/66107821","osm_url_edit":"https://www.openstreetmap.org/edit?way=66107821"},"osm_area":"https://www.openstreetmap.org/?mlat=46.91127&mlon=-2.04725#map=19/46.91127/-2.04725"},{"website":"https://www.magasins-u.com/magasin/superu-hericourt","lon":47.56266,"lat":6.76269,"osm":{"type":"way","id":502356413,"nodes":[4928516370,5037538341,5037538340,4928516367,4928516366,5037538339,5037538338,4928516373,4928516372,4928516371,4928516370],"brand":"Super U","brand:wikidata":"Q2529029","brand:wikipedia":"fr:Système U","building":"retail","contact:website":"https://www.magasins-u.com/magasin/superu-hericourt","name":"Super U","shop":"supermarket","source":"Direction Générale des Finances Publiques - Cadastre. Mise à jour : 2017","website":"https://www.magasins-u.com/magasin/superu-hericourt","osm_url":"https://www.openstreetmap.org/way/502356413","osm_url_edit":"https://www.openstreetmap.org/edit?way=502356413"},"osm_area":"https://www.openstreetmap.org/?mlat=47.56266&mlon=6.76269#map=19/47.56266/6.76269"},{"website":"https://www.magasins-u.com/magasin/superu-tonnaycharente","lon":45.9515,"lat":-0.89733,"osm":{"type":"node","id":6699180527,"lat":45.951498,"lon":-0.8979985,"brand":"Super U","brand:wikidata":"Q2529029","brand:wikipedia":"en:Système U","name":"Super U","shop":"supermarket","osm_url":"https://www.openstreetmap.org/node/6699180527","osm_url_edit":"https://www.openstreetmap.org/edit?node=6699180527"},"osm_area":"https://www.openstreetmap.org/?mlat=45.9515&mlon=-0.89733#map=19/45.9515/-0.89733"},{"website":"https://www.magasins-u.com/magasin/uexpress-lillecormontaigne","lon":50.625546,"lat":3.039445,"osm":{"type":"node","id":8971710127,"lat":50.6255162,"lon":3.0393986,"brand":"Carrefour City","brand:wikidata":"Q2940187","brand:wikipedia":"fr:Carrefour City","name":"Carrefour City","opening_hours":"Mo-Sa 07:00-22:00; Su 09:00-13:00","opening_hours:covid19":"Mo-Sa 07:00-20:00; Su 09:00-13:00","operator":"Groupe Carrefour","operator:wikidata":"Q3117359","operator:wikipedia":"fr:Groupe Carrefour","shop":"supermarket","website":"https://www.carrefour.fr/magasin/city-lille-isly","osm_url":"https://www.openstreetmap.org/node/8971710127","osm_url_edit":"https://www.openstreetmap.org/edit?node=8971710127"},"osm_area":"https://www.openstreetmap.org/?mlat=50.625546&mlon=3.039445#map=19/50.625546/3.039445"},{"website":"https://www.magasins-u.com/magasin/superu-anduze","lon":44.050388,"lat":3.98717,"osm":{"type":"way","id":198286552,"nodes":[2084433990,2084433969,2084434043,2084434190,2084434397,2084434376,2084434369,2084433992,2084433990],"brand":"Super U","brand:wikidata":"Q2529029","brand:wikipedia":"fr:Système U","building":"retail","name":"Super U","operator":"Système U","shop":"supermarket","source":"cadastre-dgi-fr source : Direction Générale des Impôts - Cadastre. Mise à jour : 2012","supermarket":"yes","supermarket:FR":"supermarché","osm_url":"https://www.openstreetmap.org/way/198286552","osm_url_edit":"https://www.openstreetmap.org/edit?way=198286552"},"osm_area":"https://www.openstreetmap.org/?mlat=44.050388&mlon=3.98717#map=19/44.050388/3.98717"},{"website":"https://www.magasins-u.com/magasin/superu-lyonmaisonsneuves","lon":45.756641,"lat":4.876285,"osm_area":"https://www.openstreetmap.org/?mlat=45.756641&mlon=4.876285#map=19/45.756641/4.876285"},{"website":"https://www.magasins-u.com/magasin/superu-maulevrier","lon":47.010899,"lat":-0.75017,"osm":{"type":"way","id":655210779,"nodes":[6139111040,10284330810,10284330813,6139111041,6139111042,6139111035,6139111032,6139111040],"brand":"Super U","brand:wikidata":"Q2529029","brand:wikipedia":"fr:Système U","building":"commercial","building:levels":"2","name":"Super U","operator":"Système U","roof:material":"concrete","roof:shape":"flat","shop":"supermarket","source":"cadastre-dgi-fr source : Direction Générale des Impôts - Cadastre. Mise à jour : 2010","osm_url":"https://www.openstreetmap.org/way/655210779","osm_url_edit":"https://www.openstreetmap.org/edit?way=655210779"},"osm_area":"https://www.openstreetmap.org/?mlat=47.010899&mlon=-0.75017#map=19/47.010899/-0.75017"},{"website":"https://www.magasins-u.com/magasin/superu-saintyrieixsurcharente","lon":45.673409,"lat":0.12483,"osm":{"type":"way","id":75629071,"nodes":[892999699,6900088382,892792363,892790891,893043664,892785074,6900088381,6900088378,6900088379,6900088380,6900088377,892834197,893002515,6900088374,892999699],"brand":"Super U","brand:wikidata":"Q2529029","brand:wikipedia":"fr:Système U","building":"retail","building:levels":"1","contact:website":"https://www.magasins-u.com/magasin/superu-saintyrieixsurcharente","name":"Super U Saint-Yriex","opening_hours":"Mo-Sa 08:30-20:00; Su 09:00-12:30","operator":"Système U","roof:levels":"1","roof:shape":"flat","shop":"supermarket","source":"cadastre-dgi-fr source : Direction Générale des Impôts - Cadastre. Mise à jour : 2010","wheelchair":"yes","website":"https://www.magasins-u.com/magasin/superu-saintyrieixsurcharente","osm_url":"https://www.openstreetmap.org/way/75629071","osm_url_edit":"https://www.openstreetmap.org/edit?way=75629071"},"osm_area":"https://www.openstreetmap.org/?mlat=45.673409&mlon=0.12483#map=19/45.673409/0.12483"},{"website":"https://www.magasins-u.com/magasin/superu-pruniersensologne","lon":47.346378,"lat":1.72655,"osm":{"type":"node","id":3497956783,"lat":47.3461746,"lon":1.7265288,"brand":"Super U","brand:wikidata":"Q2529029","brand:wikipedia":"fr:Système U","name":"Super U","shop":"supermarket","osm_url":"https://www.openstreetmap.org/node/3497956783","osm_url_edit":"https://www.openstreetmap.org/edit?node=3497956783"},"osm_area":"https://www.openstreetmap.org/?mlat=47.346378&mlon=1.72655#map=19/47.346378/1.72655"},{"website":"https://www.magasins-u.com/magasin/uexpress-montreuilsignac","lon":48.869537,"lat":2.450013,"osm":{"type":"node","id":1086043822,"lat":48.8694849,"lon":2.4494872,"brand":"Super U","brand:wikidata":"Q2529029","brand:wikipedia":"en:Système U","contact:website":"https://www.magasins-u.com/magasin/uexpress-montreuilsignac","name":"Super U","opening_hours":"Mo-Sa 08:30-20:30; Su 09:00-20:00","operator":"Super U","shop":"supermarket","website":"https://www.magasins-u.com/magasin/uexpress-montreuilsignac","osm_url":"https://www.openstreetmap.org/node/1086043822","osm_url_edit":"https://www.openstreetmap.org/edit?node=1086043822"},"osm_area":"https://www.openstreetmap.org/?mlat=48.869537&mlon=2.450013#map=19/48.869537/2.450013"},{"website":"https://www.magasins-u.com/magasin/uexpress-rivieresalee","lon":14.52938,"lat":-60.981682,"osm_area":"https://www.openstreetmap.org/?mlat=14.52938&mlon=-60.981682#map=19/14.52938/-60.981682"},{"website":"https://www.magasins-u.com/magasin/superu-quiberon","lon":47.485851,"lat":-3.120953,"osm":{"type":"way","id":66437916,"nodes":[804313459,804362018,804297425,804218737,804215808,804172241,804177884,804248046,804243280,804265224,804193253,804271113,804101986,804156964,804201054,804079749,804075986,804171944,804187853,804154292,803902246,804090257,804071638,804204310,804215600,804183251,804251359,804305898,804285998,804156889,804115615,804347007,804210254,804304611,804267671,804313459],"addr:city":"Quiberon","addr:housenumber":"116","addr:postcode":"56170","addr:street":"Rue du Port de Pêche","brand":"Super U","brand:wikidata":"Q2529029","brand:wikipedia":"en:Système U","building":"yes","name":"Super U","operator":"Super U","shop":"supermarket","source":"cadastre-dgi-fr source : Direction Générale des Impôts - Cadastre. Mise à jour : 2010","website":"https://www.magasins-u.com/magasin/superu-quiberon","wheelchair":"yes","osm_url":"https://www.openstreetmap.org/way/66437916","osm_url_edit":"https://www.openstreetmap.org/edit?way=66437916"},"osm_area":"https://www.openstreetmap.org/?mlat=47.485851&mlon=-3.120953#map=19/47.485851/-3.120953"}]